storeId,lat,lng,phone,email,opening_1_name,opening_1_hour,opening_2_name,opening_2_hour,opening_3_name,opening_3_hour,opening_4_name,opening_4_hour,opening_5_name,opening_5_hour,opening_6_name,opening_6_hour,opening_7_name,opening_7_hour,name,zipcode,address_1,city,ShopType
187,50.287,2.808,03 74 09 82 46,nomail@kilotou.com,Lundi,07:00-12:00 & 13:30-18:00,Mardi,07:00-12:00 & 13:30-18:00,Mercredi,07:00-12:00 & 13:30-18:00,Jeudi,07:00-12:00 & 13:30-18:00,Vendredi,07:00-12:00 & 13:30-18:00,Samedi,07:00-12:00 & 13:30-18:00,Dimanche,07:00-12:00 & 13:30-18:00,ARRAS (Beaurains),62217,2 rue Mathieu Orfila,Arras,Agence K
824,45.7448,4.9315,04 28 29 90 47,nomail@kilotou.com,Lundi,07:00-12:00 & 13:30-18:00,Mardi,07:00-12:00 & 13:30-18:00,Mercredi,07:00-12:00 & 13:30-18:00,Jeudi,07:00-12:00 & 13:30-18:00,Vendredi,07:00-12:00 & 13:30-18:00,Samedi,07:00-12:00 & 13:30-18:00,Dimanche,07:00-12:00 & 13:30-18:00,VAULX-EN-VELIN (7 CHEMINS),69120,111 rte de Genas,VAULX-EN-VELIN,Agence K
Q267,48.3364,4.0237,03 25 42 71 80,agence0267@kiloutou.fr,Lundi,07:30-12:00 & 13:30-17:30,Mardi,07:30-12:00 & 13:30-17:30,Mercredi,07:30-12:00 & 13:30-17:30,Jeudi,07:30-12:00 & 13:30-17:30,Vendredi,07:30-12:00 & 13:30-17:30,Samedi,07:30-12:00 & 13:30-17:30,Dimanche,07:30-12:00 & 13:30-17:30,AGENCE ELEVATION DE BARBEREY (TROYES),10600,21 Rue des Valères,BARBEREY ST SULPICE,Agence K
827,45.7862,4.8992,04 78 82 02 15,agence0827@kiloutou.fr,Lundi,07:00-12:00 & 13:30-18:00,Mardi,07:00-12:00 & 13:30-18:00,Mercredi,07:00-12:00 & 13:30-18:00,Jeudi,07:00-12:00 & 13:30-18:00,Vendredi,07:00-12:00 & 13:30-18:00,Samedi,07:00-12:00 & 13:30-18:00,Dimanche,07:00-12:00 & 13:30-18:00,VILLEURBANNE,69100,8 rue Louis Maynard,VILLEURBANNE,Agence K
416,45.7636,4.936,04 37 42 19 00,agence0416@kiloutou.fr,Lundi,06:30-12:00 & 13:30-18:30,Mardi,06:30-12:00 & 13:30-18:30,Mercredi,06:30-12:00 & 13:30-18:30,Jeudi,06:30-12:00 & 13:30-18:30,Vendredi,06:30-12:00 & 13:30-18:30,Samedi,06:30-12:00 & 13:30-18:30,Dimanche,06:30-12:00 & 13:30-18:30,VAULX-EN-VELIN - La Plateforme,69120,Grosso - Roosvelt,VAULX-EN-VELIN,Agence K
432,46.2145,5.204,04 28 29 91 33,nomail@kilotou.com,Lundi,07:00-12:00 & 13:30-18:00,Mardi,07:00-12:00 & 13:30-18:00,Mercredi,07:00-12:00 & 13:30-18:00,Jeudi,07:00-12:00 & 13:30-18:00,Vendredi,07:00-12:00 & 13:30-18:00,Samedi,07:00-12:00 & 13:30-18:00,Dimanche,07:00-12:00 & 13:30-18:00,BOURG-EN-BRESSE (Saint-Denis-lès-Bourg),01000,47 rue de la Montbéliarde Angle avenue de Bresse,ST DENIS LES BOURG,Agence Généraliste Terrassement Elévation
810,45.8277,4.9935,04 28 29 93 56,nomail@kilotou.com,Lundi,07:00-12:00 & 13:30-18:00,Mardi,07:00-12:00 & 13:30-18:00,Mercredi,07:00-12:00 & 13:30-18:00,Jeudi,07:00-12:00 & 13:30-18:00,Vendredi,07:00-12:00 & 13:30-18:00,Samedi,07:00-12:00 & 13:30-18:00,Dimanche,07:00-12:00 & 13:30-18:00,BEYNOST,01700,allée des petites Combes ZI des Baterses,BEYNOST,Agence Généraliste Terrassement Elévation
808,46.1667,5.195,00 00 00 00 00,nomail@kilotou.com,Lundi,07:00-12:00 & 13:30-18:00,Mardi,07:00-12:00 & 13:30-18:00,Mercredi,07:00-12:00 & 13:30-18:00,Jeudi,07:00-12:00 & 13:30-18:00,Vendredi,07:00-12:00 & 13:30-18:00,Samedi,07:00-12:00 & 13:30-18:00,Dimanche,07:00-12:00 & 13:30-18:00,BOURG EN BRESSE TP (PERONNAS),01960,520 rue Lavoisier,PERONNAS,Agence Terrassement
561,43.5961,7.0886,04 28 29 99 03,nomail@kilotou.com,Lundi,07:00-12:00 & 13:30-18:00,Mardi,07:00-12:00 & 13:30-18:00,Mercredi,07:00-12:00 & 13:30-18:00,Jeudi,07:00-12:00 & 13:30-18:00,Vendredi,07:00-12:00 & 13:30-18:00,Samedi,07:00-12:00 & 13:30-18:00,Dimanche,07:00-12:00 & 13:30-18:00,ANTIBES,06160,348 chemin des Terriers,ANTIBES,Agence Généraliste
Q144,49.787,4.6767,00 00 00 00 00,nomail@kilotou.com,Lundi,08:00-12:00 & 13:30-17:00,Mardi,08:00-12:00 & 13:30-17:00,Mercredi,08:00-12:00 & 13:30-17:00,Jeudi,08:00-12:00 & 13:30-17:00,Vendredi,08:00-12:00 & 13:30-17:00,Samedi,08:00-12:00 & 13:30-17:00,Dimanche,08:00-12:00 & 13:30-17:00,AGENCE ELEVATION DE CHARLEVILLE MEZIERES,08000,8 Rue du Commerce,WARCQ,Quai Elévation Terrassement
8267,48.3364,4.0237,00 00 00 00 00,nomail@kilotou.com,Lundi,07:45-12:00 & 13:30-17:45,Mardi,07:45-12:00 & 13:30-17:45,Mercredi,07:45-12:00 & 13:30-17:45,Jeudi,07:45-12:00 & 13:30-17:45,Vendredi,07:45-12:00 & 13:30-17:45,Samedi,07:45-12:00 & 13:30-17:45,Dimanche,07:45-12:00 & 13:30-17:45,SCE AUBE/YONNE,10600,26 Rue des Valères,BARBEREY ST SULPICE,Service Commercial Elévation
239,45.1859,0.7816,00 00 00 00 00,nomail@kilotou.com,Lundi,07:30-12:00 & 13:30-18:00,Mardi,07:30-12:00 & 13:30-18:00,Mercredi,07:30-12:00 & 13:30-18:00,Jeudi,07:30-12:00 & 13:30-18:00,Vendredi,07:30-12:00 & 13:30-18:00,Samedi,07:30-12:00 & 13:30-18:00,Dimanche,07:30-12:00 & 13:30-18:00,PERIGUEUX - TP,24750,7 rue Gustave Eiffel ZAE Le Landry,BOULAZAC,Agence Terrassement
315,45.1841,0.78,05 35 54 91 38,nomail@kilotou.com,Lundi,07:30-12:00 & 13:30-18:00,Mardi,07:30-12:00 & 13:30-18:00,Mercredi,07:30-12:00 & 13:30-18:00,Jeudi,07:30-12:00 & 13:30-18:00,Vendredi,07:30-12:00 & 13:30-18:00,Samedi,07:30-12:00 & 13:30-18:00,Dimanche,07:30-12:00 & 13:30-18:00,PÉRIGUEUX (Boulazac),24750,avenue Henri Deluc ZI Boulazac,BOULAZAC,Agence Généraliste Terrassement Elévation
448,47.4979,6.8409,03 74 09 79 42,nomail@kilotou.com,Lundi,07:00-12:00 & 13:30-18:00,Mardi,07:00-12:00 & 13:30-18:00,Mercredi,07:00-12:00 & 13:30-18:00,Jeudi,07:00-12:00 & 13:30-18:00,Vendredi,07:00-12:00 & 13:30-18:00,Samedi,07:00-12:00 & 13:30-18:00,Dimanche,07:00-12:00 & 13:30-18:00,MONTBÉLIARD (Taillecourt),25400,19 rue de la Croisée Lieu dit 'sous les prôles',TAILLECOURT,Agence Généraliste Terrassement Elévation
423,44.5721,4.7405,04 28 29 91 82,nomail@kilotou.com,Lundi,07:00-12:00 & 13:30-18:30,Mardi,07:00-12:00 & 13:30-18:30,Mercredi,07:00-12:00 & 13:30-18:30,Jeudi,07:00-12:00 & 13:30-18:30,Vendredi,07:00-12:00 & 13:30-18:30,Samedi,07:00-12:00 & 13:30-18:30,Dimanche,07:00-12:00 & 13:30-18:30,MONTÉLIMAR - Point.P,26200,2 avenue Agricol Perdiguier ZA de Meyrol,MONTELIMAR,Agence Généraliste Terrassement Elévation
384,47.9803,-4.0165,02 85 52 98 82,nomail@kilotou.com,Lundi,07:30-12:00 & 13:30-18:00,Mardi,07:30-12:00 & 13:30-18:00,Mercredi,07:30-12:00 & 13:30-18:00,Jeudi,07:30-12:00 & 13:30-18:00,Vendredi,07:30-12:00 & 13:30-18:00,Samedi,07:30-12:00 & 13:30-18:00,Dimanche,07:30-12:00 & 13:30-18:00,QUIMPER,29000,482 route de Rosporden,QUIMPER,Agence Généraliste Terrassement Elévation
9336,43.719045,1.38502,00 00 00 00 00,nomail@kilotou.com,Lundi,07:00-12:15 & 13:30-18:00,Mardi,07:00-12:15 & 13:30-18:00,Mercredi,07:00-12:15 & 13:30-18:00,Jeudi,07:00-12:15 & 13:30-18:00,Vendredi,07:00-12:15 & 13:30-18:00,Samedi,07:00-12:15 & 13:30-18:00,Dimanche,07:00-12:15 & 13:30-18:00,POLE FIDELISATION MIDI-PYRENEES,31140,Impasse des Battants,SAINT-ALBAN,Service Commercial Terrassement
219,43.6548,1.426,00 00 00 00 00,nomail@kilotou.com,Lundi,07:30-12:00 & 14:00-18:00,Mardi,07:30-12:00 & 14:00-18:00,Mercredi,07:30-12:00 & 14:00-18:00,Jeudi,07:30-12:00 & 14:00-18:00,Vendredi,07:30-12:00 & 14:00-18:00,Samedi,07:30-12:00 & 14:00-18:00,Dimanche,07:30-12:00 & 14:00-18:00,TOULOUSE - TP NORD,31200,312 avenue des Etats-Unis,TOULOUSE,Agence Terrassement
309,43.5608,1.4959,05 35 54 91 03,nomail@kilotou.com,Lundi,07:30-12:00 & 13:30-18:00,Mardi,07:30-12:00 & 13:30-18:00,Mercredi,07:30-12:00 & 13:30-18:00,Jeudi,07:30-12:00 & 13:30-18:00,Vendredi,07:30-12:00 & 13:30-18:00,Samedi,07:30-12:00 & 13:30-18:00,Dimanche,07:30-12:00 & 13:30-18:00,TOULOUSE (Montaudran),31400,22 rue des Cosmonautes,TOULOUSE,Agence Généraliste
321,44.791,-0.5337,05 35 54 91 57,nomail@kilotou.com,Lundi,07:00-12:00 & 13:30-18:00,Mardi,07:00-12:00 & 13:30-18:00,Mercredi,07:00-12:00 & 13:30-18:00,Jeudi,07:00-12:00 & 13:30-18:00,Vendredi,07:00-12:00 & 13:30-18:00,Samedi,07:00-12:00 & 13:30-18:00,Dimanche,07:00-12:00 & 13:30-18:00,BÈGLES,33130,431 rue Denis Papin ZI Tartifume,BEGLES,Agence Généraliste
Q310,44.7764,-0.66,05 35 54 58 74,nomail@kilotou.com,Lundi,08:00-12:00 & 14:00-18:00,Mardi,08:00-12:00 & 14:00-18:00,Mercredi,08:00-12:00 & 14:00-18:00,Jeudi,08:00-12:00 & 14:00-18:00,Vendredi,08:00-12:00 & 14:00-18:00,Samedi,08:00-12:00 & 14:00-18:00,Dimanche,08:00-12:00 & 14:00-18:00,AGENCE ELEVATION TERRASSEMENT DE CANEJAN,33610,39 RUE GUSTAVE EIFFEL ZAC DU POUJEAU PENDU,CANEJAN,Quai Elévation Terrassement
7320,44.7755711,-0.6590375,05 35 54 91 65,nomail@kilotou.com,Lundi,08:00-12:00 & 14:00-18:30,Mardi,08:00-12:00 & 14:00-18:30,Mercredi,08:00-12:00 & 14:00-18:30,Jeudi,08:00-12:00 & 14:00-18:30,Vendredi,08:00-12:00 & 14:00-18:30,Samedi,08:00-12:00 & 14:00-18:30,Dimanche,08:00-12:00 & 14:00-18:30,SCET REGION SUD OUEST,33610,Avenue Gustave Eiffel ZAC du Poujeau Pendu,CANEJAN,SCET (mode région)
Q311,44.876156,-0.560193,00 00 00 00 00,nomail@kilotou.com,Lundi,08:00-12:00 & 14:00-18:00,Mardi,08:00-12:00 & 14:00-18:00,Mercredi,08:00-12:00 & 14:00-18:00,Jeudi,08:00-12:00 & 14:00-18:00,Vendredi,08:00-12:00 & 14:00-18:00,Samedi,08:00-12:00 & 14:00-18:00,Dimanche,08:00-12:00 & 14:00-18:00,QUAI BORDEAUX VL,33700,Rue Isaac Newton ZAC du Chemin long,MERIGNAC,Agence Spécialisée
9530,43.579,3.934,00 00 00 00 00,nomail@kilotou.com,Lundi,07:00-12:15 & 13:30-18:00,Mardi,07:00-12:15 & 13:30-18:00,Mercredi,07:00-12:15 & 13:30-18:00,Jeudi,07:00-12:15 & 13:30-18:00,Vendredi,07:00-12:15 & 13:30-18:00,Samedi,07:00-12:15 & 13:30-18:00,Dimanche,07:00-12:15 & 13:30-18:00,POLE FIDÉLISATION LANGUEDOC-ROUSSILLON,34470,route de Carnon route des plages,PEROLS,Service Commercial Terrassement
388,48.6375,-1.9895,02 85 52 96 63,nomail@kilotou.com,Lundi,07:30-12:00 & 13:30-18:00,Mardi,07:30-12:00 & 13:30-18:00,Mercredi,07:30-12:00 & 13:30-18:00,Jeudi,07:30-12:00 & 13:30-18:00,Vendredi,07:30-12:00 & 13:30-18:00,Samedi,07:30-12:00 & 13:30-18:00,Dimanche,07:30-12:00 & 13:30-18:00,SAINT-MALO,35400,79 avenue du Général de Gaulle,ST MALO,Agence Généraliste Terrassement Elévation
381,48.1107,-1.5835,02 85 52 99 03,nomail@kilotou.com,Lundi,07:30-12:00 & 13:30-18:00,Mardi,07:30-12:00 & 13:30-18:00,Mercredi,07:30-12:00 & 13:30-18:00,Jeudi,07:30-12:00 & 13:30-18:00,Vendredi,07:30-12:00 & 13:30-18:00,Samedi,07:30-12:00 & 13:30-18:00,Dimanche,07:30-12:00 & 13:30-18:00,RENNES (Cesson-Sévigné),35510,10 route de Domloup Les Forges,CESSON SEVIGNE,Agence Généraliste
420,45.2382,5.6688,04 28 29 92 24,nomail@kilotou.com,Lundi,07:00-12:00 & 13:45-18:00,Mardi,07:00-12:00 & 13:45-18:00,Mercredi,07:00-12:00 & 13:45-18:00,Jeudi,07:00-12:00 & 13:45-18:00,Vendredi,07:00-12:00 & 13:45-18:00,Samedi,07:00-12:00 & 13:45-18:00,Dimanche,07:00-12:00 & 13:45-18:00,SAINT-EGRÈVE,38120,6 rue de la Trémouillère Centre commercial CAP 38,ST EGREVE,Agence Généraliste
7420,45.163,5.7553,04 28 29 91 87,nomail@kilotou.com,Lundi,07:00-12:00 & 13:30-18:00,Mardi,07:00-12:00 & 13:30-18:00,Mercredi,07:00-12:00 & 13:30-18:00,Jeudi,07:00-12:00 & 13:30-18:00,Vendredi,07:00-12:00 & 13:30-18:00,Samedi,07:00-12:00 & 13:30-18:00,Dimanche,07:00-12:00 & 13:30-18:00,SCET REGION ALPES,38400,1 rue du Béal ZI Sud,ST MARTIN D HERES,SCET (mode région)
374,47.2583,-1.5008,02 85 52 96 71,nomail@kilotou.com,Lundi,07:00-12:00 & 13:30-18:00,Mardi,07:00-12:00 & 13:30-18:00,Mercredi,07:00-12:00 & 13:30-18:00,Jeudi,07:00-12:00 & 13:30-18:00,Vendredi,07:00-12:00 & 13:30-18:00,Samedi,07:00-12:00 & 13:30-18:00,Dimanche,07:00-12:00 & 13:30-18:00,NANTES EST,44000,17 rue du Marché Commun,NANTES,Agence Généraliste
9370,47.2576,-1.502,00 00 00 00 00,nomail@kilotou.com,Lundi,07:30-12:00 & 13:30-18:00,Mardi,07:30-12:00 & 13:30-18:00,Mercredi,07:30-12:00 & 13:30-18:00,Jeudi,07:30-12:00 & 13:30-18:00,Vendredi,07:30-12:00 & 13:30-18:00,Samedi,07:30-12:00 & 13:30-18:00,Dimanche,07:30-12:00 & 13:30-18:00,POLE FIDELISATION PDL,44300,3 rue d'italie,NANTES,Service Commercial Terrassement
351,47.9045,1.8556,02 85 52 96 68,nomail@kilotou.com,Lundi,07:30-12:00 & 13:30-18:00,Mardi,07:30-12:00 & 13:30-18:00,Mercredi,07:30-12:00 & 13:30-18:00,Jeudi,07:30-12:00 & 13:30-18:00,Vendredi,07:30-12:00 & 13:30-18:00,Samedi,07:30-12:00 & 13:30-18:00,Dimanche,07:30-12:00 & 13:30-18:00,INGRE,45140,4 rue Lavoisier,INGRE,Agence Généraliste Terrassement Elévation
365,47.4876,-0.5457,02 85 52 96 70,nomail@kilotou.com,Lundi,07:30-12:00 & 13:30-18:00,Mardi,07:30-12:00 & 13:30-18:00,Mercredi,07:30-12:00 & 13:30-18:00,Jeudi,07:30-12:00 & 13:30-18:00,Vendredi,07:30-12:00 & 13:30-18:00,Samedi,07:30-12:00 & 13:30-18:00,Dimanche,07:30-12:00 & 13:30-18:00,ANGERS,49000,7 quai Félix Faure ZI de Saint-Serge,ANGERS,Agence Généraliste
Q485,47.489,-0.5061,00 00 00 00 00,nomail@kilotou.com,Lundi,07:30-12:00 & 13:30-18:00,Mardi,07:30-12:00 & 13:30-18:00,Mercredi,07:30-12:00 & 13:30-18:00,Jeudi,07:30-12:00 & 13:30-18:00,Vendredi,07:30-12:00 & 13:30-18:00,Samedi,07:30-12:00 & 13:30-18:00,Dimanche,07:30-12:00 & 13:30-18:00,AGENCE ELEVATION D'ANGERS,49124,8 RUE DE LA SAILLERIE,ST BARTHELEMY D'ANJOU,Quai Elévation Terrassement
377,47.077,-0.8336,02 85 52 96 69,nomail@kilotou.com,Lundi,07:30-12:00 & 13:30-18:00,Mardi,07:30-12:00 & 13:30-18:00,Mercredi,07:30-12:00 & 13:30-18:00,Jeudi,07:30-12:00 & 13:30-18:00,Vendredi,07:30-12:00 & 13:30-18:00,Samedi,07:30-12:00 & 13:30-18:00,Dimanche,07:30-12:00 & 13:30-18:00,CHOLET,49312,84 avenue d'Angers ZAC de l'Ecuyère,CHOLET CEDEX,Agence Généraliste Terrassement Elévation
9139,49.2338577,4.0833246,00 00 00 00 00,nomail@kilotou.com,Lundi,08:00-12:00 & 13:30-17:00,Mardi,08:00-12:00 & 13:30-17:00,Mercredi,08:00-12:00 & 13:30-17:00,Jeudi,08:00-12:00 & 13:30-17:00,Vendredi,08:00-12:00 & 13:30-17:00,Samedi,08:00-12:00 & 13:30-17:00,Dimanche,08:00-12:00 & 13:30-17:00,POLE FIDELISATION AISNE CHAMPAGNE ARDENNES,51100,rue des macécliers,REIMS,SCET (mode région)
8133,49.215,4.1135,00 00 00 00 00,nomail@kilotou.com,Lundi,08:00-12:00 & 13:30-17:00,Mardi,08:00-12:00 & 13:30-17:00,Mercredi,08:00-12:00 & 13:30-17:00,Jeudi,08:00-12:00 & 13:30-17:00,Vendredi,08:00-12:00 & 13:30-17:00,Samedi,08:00-12:00 & 13:30-17:00,Dimanche,08:00-12:00 & 13:30-17:00,SCE REIMS,51100,7 Rue des Macecliers,Reims,Service Commercial Elévation
155,48.6544,6.1864,03 74 09 83 12,nomail@kilotou.com,Lundi,07:00-12:00 & 13:30-18:00,Mardi,07:00-12:00 & 13:30-18:00,Mercredi,07:00-12:00 & 13:30-18:00,Jeudi,07:00-12:00 & 13:30-18:00,Vendredi,07:00-12:00 & 13:30-18:00,Samedi,07:00-12:00 & 13:30-18:00,Dimanche,07:00-12:00 & 13:30-18:00,VANDOEUVRE-LES-NANCY,54500,4 rue Jean Mermoz Le dernier Sou,VANDOEUVRE LES NANCY,Agence Généraliste Terrassement Elévation
504,49.1109,6.2435,00 00 00 00 00,nomail@kilotou.com,Lundi,07:00-12:00 & 13:30-18:00,Mardi,07:00-12:00 & 13:30-18:00,Mercredi,07:00-12:00 & 13:30-18:00,Jeudi,07:00-12:00 & 13:30-18:00,Vendredi,07:00-12:00 & 13:30-18:00,Samedi,07:00-12:00 & 13:30-18:00,Dimanche,07:00-12:00 & 13:30-18:00,METZ BORNY,57070,19 rue des Potiers d’Etain,METZ,Agence Terrassement
150,49.2262,6.1799,03 74 09 83 28,nomail@kilotou.com,Lundi,07:00-12:00 & 13:30-18:00,Mardi,07:00-12:00 & 13:30-18:00,Mercredi,07:00-12:00 & 13:30-18:00,Jeudi,07:00-12:00 & 13:30-18:00,Vendredi,07:00-12:00 & 13:30-18:00,Samedi,07:00-12:00 & 13:30-18:00,Dimanche,07:00-12:00 & 13:30-18:00,METZ (Talange),57525,Route de Hauconcourt ZAC Hauconcourt-Talange,TALANGE,Agence Généraliste
9120,51.00911,2.379933,00 00 00 00 00,nomail@kilotou.com,Lundi,08:00-12:00 & 13:30-17:00,Mardi,08:00-12:00 & 13:30-17:00,Mercredi,08:00-12:00 & 13:30-17:00,Jeudi,08:00-12:00 & 13:30-17:00,Vendredi,08:00-12:00 & 13:30-17:00,Samedi,08:00-12:00 & 13:30-17:00,Dimanche,08:00-12:00 & 13:30-17:00,POLE FIDELISATION LITTORAL FLANDRES LYS,59210,48 T route de Bergues,COUDEKERQUE BRANCHE,SCET (mode région)
8127,51.0097,2.3805,00 00 00 00 00,nomail@kilotou.com,Lundi,08:00-12:00 & 13:30-17:00,Mardi,08:00-12:00 & 13:30-17:00,Mercredi,08:00-12:00 & 13:30-17:00,Jeudi,08:00-12:00 & 13:30-17:00,Vendredi,08:00-12:00 & 13:30-17:00,Samedi,08:00-12:00 & 13:30-17:00,Dimanche,08:00-12:00 & 13:30-17:00,SCE DE COUDEKERQUE,59210,48 TER ROUTE DE BERGUES AGENCE KILOUTOU ELEVATION,COUDEKERQUE BRANCHE,Service Commercial Elévation
9140,50.3516597,3.4922809,00 00 00 00 00,nomail@kilotou.com,Lundi,08:00-12:00 & 13:30-17:00,Mardi,08:00-12:00 & 13:30-17:00,Mercredi,08:00-12:00 & 13:30-17:00,Jeudi,08:00-12:00 & 13:30-17:00,Vendredi,08:00-12:00 & 13:30-17:00,Samedi,08:00-12:00 & 13:30-17:00,Dimanche,08:00-12:00 & 13:30-17:00,POLE FIDELISATION HAINAUT ARTOIS,59300,198 avenue de denain,VALENCIENNES,SCET (mode région)
Q184,50.1617,3.2261,00 00 00 00 00,nomail@kilotou.com,Lundi,08:00-12:00 & 13:30-17:00,Mardi,08:00-12:00 & 13:30-17:00,Mercredi,08:00-12:00 & 13:30-17:00,Jeudi,08:00-12:00 & 13:30-17:00,Vendredi,08:00-12:00 & 13:30-17:00,Samedi,08:00-12:00 & 13:30-17:00,Dimanche,08:00-12:00 & 13:30-17:00,AGENCE ELEVATION DE  CAMBRAI,59400,1048 avenue de Paris,CAMBRAI,Quai Elévation Terrassement
Q110,50.6643,3.1132,00 00 00 00 00,nomail@kilotou.com,Lundi,08:00-12:00 & 13:30-17:00,Mardi,08:00-12:00 & 13:30-17:00,Mercredi,08:00-12:00 & 13:30-17:00,Jeudi,08:00-12:00 & 13:30-17:00,Vendredi,08:00-12:00 & 13:30-17:00,Samedi,08:00-12:00 & 13:30-17:00,Dimanche,08:00-12:00 & 13:30-17:00,AGENCE ECHAFAUDAGE DE LILLE,59700,70 AVENUE DE FLANDRE,MARCQ EN BAROEUL,Agence Spécialisée
110,50.6643,3.1132,04 91 87 74 74,nomail@kilotou.com,Lundi,07:00-12:00 & 13:30-18:00,Mardi,07:00-12:00 & 13:30-18:00,Mercredi,07:00-12:00 & 13:30-18:00,Jeudi,07:00-12:00 & 13:30-18:00,Vendredi,07:00-12:00 & 13:30-18:00,Samedi,07:00-12:00 & 13:30-18:00,Dimanche,07:00-12:00 & 13:30-18:00,MARCQ-EN-BAROEUL,59700,70 avenue de Flandre,MARCQ EN BAROEUL,Agence Généraliste
9190,50.5979,3.1316,00 00 00 00 00,nomail@kilotou.com,Lundi,08:00-12:00 & 13:30-17:00,Mardi,08:00-12:00 & 13:30-17:00,Mercredi,08:00-12:00 & 13:30-17:00,Jeudi,08:00-12:00 & 13:30-17:00,Vendredi,08:00-12:00 & 13:30-17:00,Samedi,08:00-12:00 & 13:30-17:00,Dimanche,08:00-12:00 & 13:30-17:00,SCT REGION NORD CHAMPAGNE,59810,119 rue Pierre Brizon,LESQUIN,Service Commercial Terrassement
9117,50.5812198,3.0811893,00 00 00 00 00,nomail@kilotou.com,Lundi,08:00-12:00 & 13:30-17:00,Mardi,08:00-12:00 & 13:30-17:00,Mercredi,08:00-12:00 & 13:30-17:00,Jeudi,08:00-12:00 & 13:30-17:00,Vendredi,08:00-12:00 & 13:30-17:00,Samedi,08:00-12:00 & 13:30-17:00,Dimanche,08:00-12:00 & 13:30-17:00,POLE FIDELISATION METROPOLE LILLOISE,59930,9023 rue André Ampère Zone commerciale AUCHAN FACHES THUMESNIL,LA CHAPELLLE D'ARMENTIERES,SCET (mode région)
286,49.4302,2.1162,03 74 09 82 89,nomail@kilotou.com,Lundi,07:00-12:00 & 13:30-18:00,Mardi,07:00-12:00 & 13:30-18:00,Mercredi,07:00-12:00 & 13:30-18:00,Jeudi,07:00-12:00 & 13:30-18:00,Vendredi,07:00-12:00 & 13:30-18:00,Samedi,07:00-12:00 & 13:30-18:00,Dimanche,07:00-12:00 & 13:30-18:00,BEAUVAIS,60000,241 rue de Clermont,BEAUVAIS,Agence Généraliste Terrassement Elévation
Q295,49.3844,2.4622,00 00 00 00 00,nomail@kilotou.com,Lundi,08:00-12:00 & 13:30-17:00,Mardi,08:00-12:00 & 13:30-17:00,Mercredi,08:00-12:00 & 13:30-17:00,Jeudi,08:00-12:00 & 13:30-17:00,Vendredi,08:00-12:00 & 13:30-17:00,Samedi,08:00-12:00 & 13:30-17:00,Dimanche,08:00-12:00 & 13:30-17:00,AGENCE ELEVATION DE CLERMONT DE L'OISE,60840,Rue des sables ZA de la Ferme des sables,BREUIL LE SEC,Quai Elévation Terrassement
295,49.3845,2.4622,03 66 88 13 84,nomail@kilotou.com,Lundi,07:30-12:00 & 13:30-18:00,Mardi,07:30-12:00 & 13:30-18:00,Mercredi,07:30-12:00 & 13:30-18:00,Jeudi,07:30-12:00 & 13:30-18:00,Vendredi,07:30-12:00 & 13:30-18:00,Samedi,07:30-12:00 & 13:30-18:00,Dimanche,07:30-12:00 & 13:30-18:00,CLERMONT DE L'OISE,60840,ZA de la Ferme des Sables,BREUIL LE SEC,Agence Généraliste Terrassement Elévation
392,48.4475,0.0995,02 85 52 96 64,nomail@kilotou.com,Lundi,07:30-12:00 & 13:45-18:00,Mardi,07:30-12:00 & 13:45-18:00,Mercredi,07:30-12:00 & 13:45-18:00,Jeudi,07:30-12:00 & 13:45-18:00,Vendredi,07:30-12:00 & 13:45-18:00,Samedi,07:30-12:00 & 13:45-18:00,Dimanche,07:30-12:00 & 13:45-18:00,ALENÇON (Valframbert),61250,13 Les Grouas Gâtel RN 138,VALFRAMBERT,Agence Généraliste Terrassement Elévation
Q187,50.2655,2.8041,00 00 00 00 00,nomail@kilotou.com,Lundi,08:00-12:00 & 13:30-17:00,Mardi,08:00-12:00 & 13:30-17:00,Mercredi,08:00-12:00 & 13:30-17:00,Jeudi,08:00-12:00 & 13:30-17:00,Vendredi,08:00-12:00 & 13:30-17:00,Samedi,08:00-12:00 & 13:30-17:00,Dimanche,08:00-12:00 & 13:30-17:00,AGENCE ELEVATION D'ARRAS,62000,rue Matthieu d'Orfila ZI Est,ARRAS,Quai Elévation Terrassement
185,50.4569,2.8238,03 74 09 82 48,nomail@kilotou.com,Lundi,07:00-12:00 & 13:30-18:00,Mardi,07:00-12:00 & 13:30-18:00,Mercredi,07:00-12:00 & 13:30-18:00,Jeudi,07:00-12:00 & 13:30-18:00,Vendredi,07:00-12:00 & 13:30-18:00,Samedi,07:00-12:00 & 13:30-18:00,Dimanche,07:00-12:00 & 13:30-18:00,LENS,62300,3 rue Léon Droux,LENS,Agence Généraliste Terrassement Elévation
9185,50.457,2.8239,00 00 00 00 00,nomail@kilotou.com,Lundi,08:00-12:00 & 13:30-17:00,Mardi,08:00-12:00 & 13:30-17:00,Mercredi,08:00-12:00 & 13:30-17:00,Jeudi,08:00-12:00 & 13:30-17:00,Vendredi,08:00-12:00 & 13:30-17:00,Samedi,08:00-12:00 & 13:30-17:00,Dimanche,08:00-12:00 & 13:30-17:00,POLE FIDELISATION ARTOIS HAINAUT,62300,3 Rue Léon Droux,LENS,SCET (mode région)
Q125,50.6945,1.6091,00 00 00 00 00,nomail@kilotou.com,Lundi,08:00-12:00 & 13:30-17:00,Mardi,08:00-12:00 & 13:30-17:00,Mercredi,08:00-12:00 & 13:30-17:00,Jeudi,08:00-12:00 & 13:30-17:00,Vendredi,08:00-12:00 & 13:30-17:00,Samedi,08:00-12:00 & 13:30-17:00,Dimanche,08:00-12:00 & 13:30-17:00,AGENCE ELEVATION DE  BOULOGNE,62360,107 Boulevard de la Liane,SAINT LEONARD,Quai Elévation Terrassement
325,43.4965,-1.4962,05 35 54 91 77,nomail@kilotou.com,Lundi,07:30-12:00 & 13:30-18:00,Mardi,07:30-12:00 & 13:30-18:00,Mercredi,07:30-12:00 & 13:30-18:00,Jeudi,07:30-12:00 & 13:30-18:00,Vendredi,07:30-12:00 & 13:30-18:00,Samedi,07:30-12:00 & 13:30-18:00,Dimanche,07:30-12:00 & 13:30-18:00,ANGLET,64600,17 rue de l`Industrie ZI des Pontots,ANGLET,Agence Généraliste Terrassement Elévation
829,45.774,4.7927,04 81 68 26 86,nomail@kilotou.com,Lundi,07:00-12:00 & 13:30-18:00,Mardi,07:00-12:00 & 13:30-18:00,Mercredi,07:00-12:00 & 13:30-18:00,Jeudi,07:00-12:00 & 13:30-18:00,Vendredi,07:00-12:00 & 13:30-18:00,Samedi,07:00-12:00 & 13:30-18:00,Dimanche,07:00-12:00 & 13:30-18:00,VAISE - ÉCULLY,69130,122 rue Marietton,ECULLY,Agence Généraliste
821,45.7128,4.8767,04 81 68 31 74,nomail@kilotou.com,Lundi,07:00-12:00 & 13:30-18:00,Mardi,07:00-12:00 & 13:30-18:00,Mercredi,07:00-12:00 & 13:30-18:00,Jeudi,07:00-12:00 & 13:30-18:00,Vendredi,07:00-12:00 & 13:30-18:00,Samedi,07:00-12:00 & 13:30-18:00,Dimanche,07:00-12:00 & 13:30-18:00,VÉNISSIEUX,69200,57 boulevard Marcel Sembat,VENISSIEUX,Agence Généraliste
832,46.1007,4.7329,00 00 00 00 00,nomail@kilotou.com,Lundi,07:00-12:00 & 13:30-18:00,Mardi,07:00-12:00 & 13:30-18:00,Mercredi,07:00-12:00 & 13:30-18:00,Jeudi,07:00-12:00 & 13:30-18:00,Vendredi,07:00-12:00 & 13:30-18:00,Samedi,07:00-12:00 & 13:30-18:00,Dimanche,07:00-12:00 & 13:30-18:00,BELLEVILLE TP,69220,54 avenue de Verdun,BELLEVILLE SUR SAONE,Agence Terrassement
826,46.0165,4.7249,04 81 68 23 89,nomail@kilotou.com,Lundi,07:00-12:00 & 13:30-18:00,Mardi,07:00-12:00 & 13:30-18:00,Mercredi,07:00-12:00 & 13:30-18:00,Jeudi,07:00-12:00 & 13:30-18:00,Vendredi,07:00-12:00 & 13:30-18:00,Samedi,07:00-12:00 & 13:30-18:00,Dimanche,07:00-12:00 & 13:30-18:00,VILLEFRANCHE NORD (ARNAS),69400,760 Route de Frenes ZAC de Chavannes,ARNAS,Agence Généraliste
418,45.9974,4.7389,04 81 68 10 41,nomail@kilotou.com,Lundi,07:00-12:00 & 13:30-18:00,Mardi,07:00-12:00 & 13:30-18:00,Mercredi,07:00-12:00 & 13:30-18:00,Jeudi,07:00-12:00 & 13:30-18:00,Vendredi,07:00-12:00 & 13:30-18:00,Samedi,07:00-12:00 & 13:30-18:00,Dimanche,07:00-12:00 & 13:30-18:00,VILLEFRANCHE-SUR-SAÔNE - TP,69400,501 rue Benoit Mulsant,VILLEFRANCHE SUR SAONE,Agence Terrassement
437,45.8779,4.4761,04 81 68 23 65,nomail@kilotou.com,Lundi,07:00-12:00 & 13:30-18:00,Mardi,07:00-12:00 & 13:30-18:00,Mercredi,07:00-12:00 & 13:30-18:00,Jeudi,07:00-12:00 & 13:30-18:00,Vendredi,07:00-12:00 & 13:30-18:00,Samedi,07:00-12:00 & 13:30-18:00,Dimanche,07:00-12:00 & 13:30-18:00,TARARE (SAINT-FORGEUX),69490,ZI du Mortier,ST FORGEUX,Agence Généraliste Terrassement Elévation
410,45.7265,4.9367,04 28 29 99 01,nomail@kilotou.com,Lundi,07:00-12:00 & 13:30-18:00,Mardi,07:00-12:00 & 13:30-18:00,Mercredi,07:00-12:00 & 13:30-18:00,Jeudi,07:00-12:00 & 13:30-18:00,Vendredi,07:00-12:00 & 13:30-18:00,Samedi,07:00-12:00 & 13:30-18:00,Dimanche,07:00-12:00 & 13:30-18:00,BRON,69500,Avenue Louis Mouillard,BRON,Agence Généraliste
831,45.8343,4.7488,00 00 00 00 00,nomail@kilotou.com,Lundi,07:00-12:00 & 13:30-18:00,Mardi,07:00-12:00 & 13:30-18:00,Mercredi,07:00-12:00 & 13:30-18:00,Jeudi,07:00-12:00 & 13:30-18:00,Vendredi,07:00-12:00 & 13:30-18:00,Samedi,07:00-12:00 & 13:30-18:00,Dimanche,07:00-12:00 & 13:30-18:00,DARDILLY TP,69570,56 Route Nationale 6,DARDILLY,Agence Terrassement
813,45.8077,4.7625,04 81 68 23 69,nomail@kilotou.com,Lundi,07:00-12:00 & 13:30-18:00,Mardi,07:00-12:00 & 13:30-18:00,Mercredi,07:00-12:00 & 13:30-18:00,Jeudi,07:00-12:00 & 13:30-18:00,Vendredi,07:00-12:00 & 13:30-18:00,Samedi,07:00-12:00 & 13:30-18:00,Dimanche,07:00-12:00 & 13:30-18:00,DARDILLY,69570,44 chemin du Moulin Carron,DARDILLY,Agence Généraliste Terrassement Elévation
816,45.8935,4.8225,04 81 68 23 88,nomail@kilotou.com,Lundi,07:00-12:00 & 13:30-18:00,Mardi,07:00-12:00 & 13:30-18:00,Mercredi,07:00-12:00 & 13:30-18:00,Jeudi,07:00-12:00 & 13:30-18:00,Vendredi,07:00-12:00 & 13:30-18:00,Samedi,07:00-12:00 & 13:30-18:00,Dimanche,07:00-12:00 & 13:30-18:00,GENAY,69730,330 Rue Ampère,GENAY,Agence Généraliste Terrassement Elévation
430,45.8189,4.7706,04 81 68 20 04,nomail@kilotou.com,Lundi,07:00-12:00 & 13:30-18:00,Mardi,07:00-12:00 & 13:30-18:00,Mercredi,07:00-12:00 & 13:30-18:00,Jeudi,07:00-12:00 & 13:30-18:00,Vendredi,07:00-12:00 & 13:30-18:00,Samedi,07:00-12:00 & 13:30-18:00,Dimanche,07:00-12:00 & 13:30-18:00,LIMONEST,69760,Le Puy d'Or RN 6 - Face C.Cial Auchan,LIMONEST,Agence Généraliste
805,46.2888,4.8144,00 00 00 00 00,nomail@kilotou.com,Lundi,07:00-12:00 & 13:30-18:00,Mardi,07:00-12:00 & 13:30-18:00,Mercredi,07:00-12:00 & 13:30-18:00,Jeudi,07:00-12:00 & 13:30-18:00,Vendredi,07:00-12:00 & 13:30-18:00,Samedi,07:00-12:00 & 13:30-18:00,Dimanche,07:00-12:00 & 13:30-18:00,MACON TP,71000,9 rue d’Ozenay,MACON,Agence Terrassement
428,45.6599,6.3807,04 28 29 93 83,nomail@kilotou.com,Lundi,07:00-12:00 & 13:30-18:00,Mardi,07:00-12:00 & 13:30-18:00,Mercredi,07:00-12:00 & 13:30-18:00,Jeudi,07:00-12:00 & 13:30-18:00,Vendredi,07:00-12:00 & 13:30-18:00,Samedi,07:00-12:00 & 13:30-18:00,Dimanche,07:00-12:00 & 13:30-18:00,ALBERTVILLE,73200,55 chemin du Pont Albertin,ALBERTVILLE,Agence Généraliste Terrassement Elévation
765,48.83981,2.34722,00 00 00 00 00,nomail@kilotou.com,Lundi,08:00-12:00 & 13:30-17:00,Mardi,08:00-12:00 & 13:30-17:00,Mercredi,08:00-12:00 & 13:30-17:00,Jeudi,08:00-12:00 & 13:30-17:00,Vendredi,08:00-12:00 & 13:30-17:00,Samedi,08:00-12:00 & 13:30-17:00,Dimanche,08:00-12:00 & 13:30-17:00,PARIS 5ème,75005,37 rue Claude Bernard,PARIS 5EME ARRONDISSEMENT,Généraliste type 3
690,48.8479,2.301,01 89 16 45 96,nomail@kilotou.com,Lundi,07:00-12:15 & 13:45-18:00,Mardi,07:00-12:15 & 13:45-18:00,Mercredi,07:00-12:15 & 13:45-18:00,Jeudi,07:00-12:15 & 13:45-18:00,Vendredi,07:00-12:15 & 13:45-18:00,Samedi,07:00-12:15 & 13:45-18:00,Dimanche,07:00-12:15 & 13:45-18:00,PARIS 15 CAMBRONNE,75015,1 place Cambronne,PARIS 15EME ARRONDISSEMENT,Généraliste type 3
771,48.841,2.2561,01 89 16 45 97,nomail@kilotou.com,Lundi,07:00-12:15 & 13:45-18:00,Mardi,07:00-12:15 & 13:45-18:00,Mercredi,07:00-12:15 & 13:45-18:00,Jeudi,07:00-12:15 & 13:45-18:00,Vendredi,07:00-12:15 & 13:45-18:00,Samedi,07:00-12:15 & 13:45-18:00,Dimanche,07:00-12:15 & 13:45-18:00,PARIS 16 AUTEUIL,75016,84 boulevard Murat,PARIS 16EME ARRONDISSEMENT,Généraliste type 3
395,49.4,1.1115,02 85 52 96 67,nomail@kilotou.com,Lundi,07:00-12:00 & 13:30-18:00,Mardi,07:00-12:00 & 13:30-18:00,Mercredi,07:00-12:00 & 13:30-18:00,Jeudi,07:00-12:00 & 13:30-18:00,Vendredi,07:00-12:00 & 13:30-18:00,Samedi,07:00-12:00 & 13:30-18:00,Dimanche,07:00-12:00 & 13:30-18:00,SOTTEVILLE-LÈS-ROUEN,76300,ZI Nicéphore Niepce,SOTTEVILLE LES ROUEN,Agence Généraliste
396,49.499,0.1885,02 85 52 96 65,nomail@kilotou.com,Lundi,07:30-12:00 & 13:30-17:30,Mardi,07:30-12:00 & 13:30-17:30,Mercredi,07:30-12:00 & 13:30-17:30,Jeudi,07:30-12:00 & 13:30-17:30,Vendredi,07:30-12:00 & 13:30-17:30,Samedi,07:30-12:00 & 13:30-17:30,Dimanche,07:30-12:00 & 13:30-17:30,LE HAVRE,76600,600 boulevard Jules Durand,LE HAVRE,Agence Généraliste Terrassement Elévation
270,48.8157,2.6201,01 89 16 46 08,nomail@kilotou.com,Lundi,07:00-12:00 & 13:30-18:00,Mardi,07:00-12:00 & 13:30-18:00,Mercredi,07:00-12:00 & 13:30-18:00,Jeudi,07:00-12:00 & 13:30-18:00,Vendredi,07:00-12:00 & 13:30-18:00,Samedi,07:00-12:00 & 13:30-18:00,Dimanche,07:00-12:00 & 13:30-18:00,EMERAINVILLE,77184,boulevard de Beaubourg ZI Paris-Est,EMERAINVILLE,Agence K
633,48.7929,2.1439,01 89 16 45 51,nomail@kilotou.com,Lundi,06:30-12:15 & 13:45-18:00,Mardi,06:30-12:15 & 13:45-18:00,Mercredi,06:30-12:15 & 13:45-18:00,Jeudi,06:30-12:15 & 13:45-18:00,Vendredi,06:30-12:15 & 13:45-18:00,Samedi,06:30-12:15 & 13:45-18:00,Dimanche,06:30-12:15 & 13:45-18:00,VERSAILLES,78000,64 rue des Chantiers,Versailles,Généraliste type 3
230,48.6226,1.8265,01 89 16 45 38,nomail@kilotou.com,Lundi,07:00-12:00 & 13:30-18:00,Mardi,07:00-12:00 & 13:30-18:00,Mercredi,07:00-12:00 & 13:30-18:00,Jeudi,07:00-12:00 & 13:30-18:00,Vendredi,07:00-12:00 & 13:30-18:00,Samedi,07:00-12:00 & 13:30-18:00,Dimanche,07:00-12:00 & 13:30-18:00,RAMBOUILLET,78120,4 rue Pierre Métairie ZI du Bel Air,RAMBOUILLET,Agence Généraliste
235,48.7497,1.9269,01 89 16 45 31,nomail@kilotou.com,Lundi,07:00-12:00 & 13:30-18:00,Mardi,07:00-12:00 & 13:30-18:00,Mercredi,07:00-12:00 & 13:30-18:00,Jeudi,07:00-12:00 & 13:30-18:00,Vendredi,07:00-12:00 & 13:30-18:00,Samedi,07:00-12:00 & 13:30-18:00,Dimanche,07:00-12:00 & 13:30-18:00,COIGNIÈRES,78310,100 route Nationale 10,COIGNIERES,Agence Généraliste
346,46.3328,-0.407,05 35 54 91 34,nomail@kilotou.com,Lundi,07:30-12:00 & 13:30-18:00,Mardi,07:30-12:00 & 13:30-18:00,Mercredi,07:30-12:00 & 13:30-18:00,Jeudi,07:30-12:00 & 13:30-18:00,Vendredi,07:30-12:00 & 13:30-18:00,Samedi,07:30-12:00 & 13:30-18:00,Dimanche,07:30-12:00 & 13:30-18:00,NIORT,79000,3 bis rue Toussaint Louverture ZC Mendes France,NIORT,Agence Généraliste Terrassement Elévation
Q173,50.1008,1.8668,00 00 00 00 00,nomail@kilotou.com,Lundi,08:00-12:00 & 13:30-17:00,Mardi,08:00-12:00 & 13:30-17:00,Mercredi,08:00-12:00 & 13:30-17:00,Jeudi,08:00-12:00 & 13:30-17:00,Vendredi,08:00-12:00 & 13:30-17:00,Samedi,08:00-12:00 & 13:30-17:00,Dimanche,08:00-12:00 & 13:30-17:00,AGENCE ELEVATION D'ABBEVILLE,80100,Rue Paul Vimereu Parc d'activité des deux vallées,ABBEVILLE,Quai Elévation Terrassement
171,49.8724,2.3724,03 74 09 82 55,nomail@kilotou.com,Lundi,07:00-12:00 & 13:30-18:00,Mardi,07:00-12:00 & 13:30-18:00,Mercredi,07:00-12:00 & 13:30-18:00,Jeudi,07:00-12:00 & 13:30-18:00,Vendredi,07:00-12:00 & 13:30-18:00,Samedi,07:00-12:00 & 13:30-18:00,Dimanche,07:00-12:00 & 13:30-18:00,AMIENS (Longueau),80330,5 rue Hector Servadac ZAC Jules Verne,LONGUEAU,Agence Généraliste Terrassement Elévation
9171,49.8718244,2.3720996,00 00 00 00 00,nomail@kilotou.com,Lundi,08:00-12:00 & 13:30-17:00,Mardi,08:00-12:00 & 13:30-17:00,Mercredi,08:00-12:00 & 13:30-17:00,Jeudi,08:00-12:00 & 13:30-17:00,Vendredi,08:00-12:00 & 13:30-17:00,Samedi,08:00-12:00 & 13:30-17:00,Dimanche,08:00-12:00 & 13:30-17:00,POLE FIDELISATION PICARDIE ARTOIS,80330,5 rue hector servadac,LONGUEAU,SCET (mode région)
8174,49.8724,2.3726,00 00 00 00 00,nomail@kilotou.com,Lundi,08:00-12:00 & 13:30-17:00,Mardi,08:00-12:00 & 13:30-17:00,Mercredi,08:00-12:00 & 13:30-17:00,Jeudi,08:00-12:00 & 13:30-17:00,Vendredi,08:00-12:00 & 13:30-17:00,Samedi,08:00-12:00 & 13:30-17:00,Dimanche,08:00-12:00 & 13:30-17:00,SCE PICARDIE CHAMPAGNE ARDENNES,80330,5 rue Hector Servadac ZAC Jules Verne-Secteur Ouest,LONGUEAU,Service Commercial Elévation
548,43.6779,5.501,04 28 29 94 75,nomail@kilotou.com,Lundi,07:30-12:00 & 13:30-18:00,Mardi,07:30-12:00 & 13:30-18:00,Mercredi,07:30-12:00 & 13:30-18:00,Jeudi,07:30-12:00 & 13:30-18:00,Vendredi,07:30-12:00 & 13:30-18:00,Samedi,07:30-12:00 & 13:30-18:00,Dimanche,07:30-12:00 & 13:30-18:00,PERTUIS,84120,162 Rue Louis Lumière,PERTUIS,Agence Généraliste Terrassement Elévation
599,45.876,1.2724,05 35 54 91 45,nomail@kilotou.com,Lundi,07:30-12:00 & 13:30-18:00,Mardi,07:30-12:00 & 13:30-18:00,Mercredi,07:30-12:00 & 13:30-18:00,Jeudi,07:30-12:00 & 13:30-18:00,Vendredi,07:30-12:00 & 13:30-18:00,Samedi,07:30-12:00 & 13:30-18:00,Dimanche,07:30-12:00 & 13:30-18:00,LIMOGES,87000,36 rue Auguste Comte,LIMOGES,Agence Généraliste Terrassement Elévation
9220,48.6214,2.4202,00 00 00 00 00,nomail@kilotou.com,Lundi,07:30-12:00 & 13:30-18:30,Mardi,07:30-12:00 & 13:30-18:30,Mercredi,07:30-12:00 & 13:30-18:30,Jeudi,07:30-12:00 & 13:30-18:30,Vendredi,07:30-12:00 & 13:30-18:30,Samedi,07:30-12:00 & 13:30-18:30,Dimanche,07:30-12:00 & 13:30-18:30,SCT REGION IDF SUD,91080,4 bis rue du Bois Briard,Courcouronnes,Service Commercial Terrassement
225,48.62483,2.351,00 00 00 00 00,nomail@kilotou.com,Lundi,08:00-12:00 & 14:00-18:00,Mardi,08:00-12:00 & 14:00-18:00,Mercredi,08:00-12:00 & 14:00-18:00,Jeudi,08:00-12:00 & 14:00-18:00,Vendredi,08:00-12:00 & 14:00-18:00,Samedi,08:00-12:00 & 14:00-18:00,Dimanche,08:00-12:00 & 14:00-18:00,LOCA-RECEPTION - STE-GENEVIÈVE-DES-BOIS,91270,7 Rue de la Longueraie,VIGNEUX,Agence Event
221,48.7222,2.4426,00 00 00 00 00,nomail@kilotou.com,Lundi,07:00-12:00 & 13:30-18:00,Mardi,07:00-12:00 & 13:30-18:00,Mercredi,07:00-12:00 & 13:30-18:00,Jeudi,07:00-12:00 & 13:30-18:00,Vendredi,07:00-12:00 & 13:30-18:00,Samedi,07:00-12:00 & 13:30-18:00,Dimanche,07:00-12:00 & 13:30-18:00,VIGNEUX,91270,7 Rue de la Longueraie,VIGNEUX,Agence Généraliste
222,48.6257,2.3496,01 89 16 46 28,nomail@kilotou.com,Lundi,07:00-12:00 & 13:30-18:30,Mardi,07:00-12:00 & 13:30-18:30,Mercredi,07:00-12:00 & 13:30-18:30,Jeudi,07:00-12:00 & 13:30-18:30,Vendredi,07:00-12:00 & 13:30-18:30,Samedi,07:00-12:00 & 13:30-18:30,Dimanche,07:00-12:00 & 13:30-18:30,STE-GENEVIÈVE-DES-BOIS,91700,avenue du Hurepoix ZAC de la Croix Blanche,STE GENEVIEVE DES BOIS,Agence Généraliste
715,48.8398,2.237,01 89 16 45 61,nomail@kilotou.com,Lundi,06:30-12:15 & 13:45-18:00,Mardi,06:30-12:15 & 13:45-18:00,Mercredi,06:30-12:15 & 13:45-18:00,Jeudi,06:30-12:15 & 13:45-18:00,Vendredi,06:30-12:15 & 13:45-18:00,Samedi,06:30-12:15 & 13:45-18:00,Dimanche,06:30-12:15 & 13:45-18:00,BOULOGNE-BILLANCOURT,92100,101 route de la Reine RN 307,BOULOGNE BILLANCOURT,Généraliste type 3
632,48.7795,2.24,01 89 16 45 62,nomail@kilotou.com,Lundi,06:30 - 18:30,Mardi,06:30 - 18:30,Mercredi,06:30 - 18:30,Jeudi,06:30 - 18:30,Vendredi,06:30 - 18:30,Samedi,06:30 - 18:30,Dimanche,06:30 - 18:30,CLAMART- La Plateforme,92140,2 rue Réaumur La Plateforme du Bâtiment,CLAMART,Généraliste type 4
630,48.787,2.256,01 89 16 45 76,nomail@kilotou.com,Lundi,06:30-12:15 & 13:45-18:30,Mardi,06:30-12:15 & 13:45-18:30,Mercredi,06:30-12:15 & 13:45-18:30,Jeudi,06:30-12:15 & 13:45-18:30,Vendredi,06:30-12:15 & 13:45-18:30,Samedi,06:30-12:15 & 13:45-18:30,Dimanche,06:30-12:15 & 13:45-18:30,CLAMART,92140,231 avenue du Général De Gaulle,CLAMART,Agence Généraliste
Q643,48.931324,2.3169621,00 00 00 00 00,nomail@kilotou.com,Lundi,06:30-12:15 & 13:45-17:30,Mardi,06:30-12:15 & 13:45-17:30,Mercredi,06:30-12:15 & 13:45-17:30,Jeudi,06:30-12:15 & 13:45-17:30,Vendredi,06:30-12:15 & 13:45-17:30,Samedi,06:30-12:15 & 13:45-17:30,Dimanche,06:30-12:15 & 13:45-17:30,QUAI INNOVATION GENEVILLIERS,92230,88 Av.du Vx Chemin de St Deni,GENNEVILLIERS,Quai Elévation Terrassement
631,48.8182,2.1969,01 89 16 45 59,nomail@kilotou.com,Lundi,06:30-12:15 & 13:45-18:00,Mardi,06:30-12:15 & 13:45-18:00,Mercredi,06:30-12:15 & 13:45-18:00,Jeudi,06:30-12:15 & 13:45-18:00,Vendredi,06:30-12:15 & 13:45-18:00,Samedi,06:30-12:15 & 13:45-18:00,Dimanche,06:30-12:15 & 13:45-18:00,CHAVILLE,92370,264 avenue Roger Salengro,CHAVILLE,Agence Généraliste
670,48.9425,2.3412,01 89 16 45 87,nomail@kilotou.com,Lundi,06:30-12:15 & 13:45-18:30,Mardi,06:30-12:15 & 13:45-18:30,Mercredi,06:30-12:15 & 13:45-18:30,Jeudi,06:30-12:15 & 13:45-18:30,Vendredi,06:30-12:15 & 13:45-18:30,Samedi,06:30-12:15 & 13:45-18:30,Dimanche,06:30-12:15 & 13:45-18:30,SAINT-DENIS,93200,36 rue de la Briche,ST DENIS,Agence Généraliste
681,48.9546,2.3331,01 89 16 46 31,nomail@kilotou.com,Lundi,06:30-12:15 & 13:45-18:00,Mardi,06:30-12:15 & 13:45-18:00,Mercredi,06:30-12:15 & 13:45-18:00,Jeudi,06:30-12:15 & 13:45-18:00,Vendredi,06:30-12:15 & 13:45-18:00,Samedi,06:30-12:15 & 13:45-18:00,Dimanche,06:30-12:15 & 13:45-18:00,EPINAY SUR SEINE,93800,187 route de St Leu,EPINAY SUR SEINE,Agence Généraliste
7201,48.7525,2.37638889,00 00 00 00 00,nomail@kilotou.com,Lundi,07:00-12:15 & 13:45-18:30,Mardi,07:00-12:15 & 13:45-18:30,Mercredi,07:00-12:15 & 13:45-18:30,Jeudi,07:00-12:15 & 13:45-18:30,Vendredi,07:00-12:15 & 13:45-18:30,Samedi,07:00-12:15 & 13:45-18:30,Dimanche,07:00-12:15 & 13:45-18:30,POLE FIDELISATION,94320,5 rue des Alouettes Face C.Ccial Belle Epine,POLE FIDELISATION,Agence K
290,48.7525,2.3764,01 89 16 45 78,nomail@kilotou.com,Lundi,06:30-12:15 & 13:45-18:30,Mardi,06:30-12:15 & 13:45-18:30,Mercredi,06:30-12:15 & 13:45-18:30,Jeudi,06:30-12:15 & 13:45-18:30,Vendredi,06:30-12:15 & 13:45-18:30,Samedi,06:30-12:15 & 13:45-18:30,Dimanche,06:30-12:15 & 13:45-18:30,THIAIS,94320,5 rue des Alouettes Face C.Ccial Belle Epine,THIAIS,Agence K
Q293,48.7543593,2.3841278,00 00 00 00 00,nomail@kilotou.com,Lundi,06:30-12:15 & 13:45-17:30,Mardi,06:30-12:15 & 13:45-17:30,Mercredi,06:30-12:15 & 13:45-17:30,Jeudi,06:30-12:15 & 13:45-17:30,Vendredi,06:30-12:15 & 13:45-17:30,Samedi,06:30-12:15 & 13:45-17:30,Dimanche,06:30-12:15 & 13:45-17:30,QUAI INNOVATION THIAIS,94320,5-7 rue des Alouettes Zone SENIA,THIAIS,Quai Elévation Terrassement
256,48.9537,2.2085,01 89 16 45 54,nomail@kilotou.com,Lundi,07:30-12:00 & 13:30-18:00,Mardi,07:30-12:00 & 13:30-18:00,Mercredi,07:30-12:00 & 13:30-18:00,Jeudi,07:30-12:00 & 13:30-18:00,Vendredi,07:30-12:00 & 13:30-18:00,Samedi,07:30-12:00 & 13:30-18:00,Dimanche,07:30-12:00 & 13:30-18:00,ARGENTEUIL - TP,95100,12 rue Jules Vercruysse ZI Val d'Argent,ARGENTEUIL,Agence Terrassement
283,49.0179,2.4604,01 89 16 45 48,nomail@kilotou.com,Lundi,07:00-12:00 & 13:30-18:00,Mardi,07:00-12:00 & 13:30-18:00,Mercredi,07:00-12:00 & 13:30-18:00,Jeudi,07:00-12:00 & 13:30-18:00,Vendredi,07:00-12:00 & 13:30-18:00,Samedi,07:00-12:00 & 13:30-18:00,Dimanche,07:00-12:00 & 13:30-18:00,GOUSSAINVILLE,95190,rue Le Notre Parc d`activité Charles de Gaulle,GOUSSAINVILLE,Agence Généraliste
Q251,48.9982,2.1835,00 00 00 00 00,nomail@kilotou.com,Lundi,07:00-12:00 & 13:30-18:30,Mardi,07:00-12:00 & 13:30-18:30,Mercredi,07:00-12:00 & 13:30-18:30,Jeudi,07:00-12:00 & 13:30-18:30,Vendredi,07:00-12:00 & 13:30-18:30,Samedi,07:00-12:00 & 13:30-18:30,Dimanche,07:00-12:00 & 13:30-18:30,QUAI HERBLAY,95220,6B rue René Cassin,HERBLAY,Quai Elévation Terrassement
250,49.0001,2.1831,01 86 26 97 55,nomail@kilotou.com,Lundi,07:00-12:00 & 13:30-18:00,Mardi,07:00-12:00 & 13:30-18:00,Mercredi,07:00-12:00 & 13:30-18:00,Jeudi,07:00-12:00 & 13:30-18:00,Vendredi,07:00-12:00 & 13:30-18:00,Samedi,07:00-12:00 & 13:30-18:00,Dimanche,07:00-12:00 & 13:30-18:00,HERBLAY,95220,12 rue Cassin La Patte d`Oie,HERBLAY,Agence Généraliste
252,49.013,2.16,01 89 16 45 43,nomail@kilotou.com,Lundi,06:30 - 18:00,Mardi,06:30 - 18:00,Mercredi,06:30 - 18:00,Jeudi,06:30 - 18:00,Vendredi,06:30 - 18:00,Samedi,06:30 - 18:00,Dimanche,06:30 - 18:00,PIERRELAYE - La Plateforme,95220,2 avenue du Général Leclerc La Plateforme du Bâtiment,PIERRELAYE,Généraliste type 4
Q250,49.0516,2.1465,00 00 00 00 00,nomail@kilotou.com,Lundi,07:00-12:00 & 13:30-18:30,Mardi,07:00-12:00 & 13:30-18:30,Mercredi,07:00-12:00 & 13:30-18:30,Jeudi,07:00-12:00 & 13:30-18:30,Vendredi,07:00-12:00 & 13:30-18:30,Samedi,07:00-12:00 & 13:30-18:30,Dimanche,07:00-12:00 & 13:30-18:30,AGENCE ELEVATION TERRASSEMENT VAL D'OISE,95310,28 Avenue du Fond de Vaux,ST OUEN L AUMONE,Quai Elévation Terrassement
254,49.0516,2.1465,00 00 00 00 00,nomail@kilotou.com,Lundi,08:00-12:00 & 14:00-18:00,Mardi,08:00-12:00 & 14:00-18:00,Mercredi,08:00-12:00 & 14:00-18:00,Jeudi,08:00-12:00 & 14:00-18:00,Vendredi,08:00-12:00 & 14:00-18:00,Samedi,08:00-12:00 & 14:00-18:00,Dimanche,08:00-12:00 & 14:00-18:00,LOCA-RECEPTION - ST-OUEN-L'AUMONE,95310,30 avenue du Fond de Vaux,ST OUEN L AUMONE,Agence Event
255,49.0515,2.1464,01 89 16 45 36,nomail@kilotou.com,Lundi,07:30-12:00 & 13:30-18:00,Mardi,07:30-12:00 & 13:30-18:00,Mercredi,07:30-12:00 & 13:30-18:00,Jeudi,07:30-12:00 & 13:30-18:00,Vendredi,07:30-12:00 & 13:30-18:00,Samedi,07:30-12:00 & 13:30-18:00,Dimanche,07:30-12:00 & 13:30-18:00,SAINT-OUEN-L'AUMÔNE - TP,95310,30 avenue du fond de Vaux,SAINT-OUEN-L' AUMÔNE,Agence Terrassement
282,48.9918,2.3634,01 89 16 45 47,nomail@kilotou.com,Lundi,06:30 - 18:00,Mardi,06:30 - 18:00,Mercredi,06:30 - 18:00,Jeudi,06:30 - 18:00,Vendredi,06:30 - 18:00,Samedi,06:30 - 18:00,Dimanche,06:30 - 18:00,ST-BRICE-SOUS-FORÊT - La Plateforme,95350,La Chapelle St-Nicolas La Plateforme du Bâtiment,ST BRICE SOUS FORET,Généraliste type 4
280,49.008,2.3527,01 89 16 45 56,nomail@kilotou.com,Lundi,07:00-12:00 & 13:30-18:00,Mardi,07:00-12:00 & 13:30-18:00,Mercredi,07:00-12:00 & 13:30-18:00,Jeudi,07:00-12:00 & 13:30-18:00,Vendredi,07:00-12:00 & 13:30-18:00,Samedi,07:00-12:00 & 13:30-18:00,Dimanche,07:00-12:00 & 13:30-18:00,ST-BRICE-SOUS-FORÊT,95350,rue du Luat C.Cial Carrefour,ST BRICE SOUS FORET,Agence Généraliste
251,49.0724,2.0801,01 89 16 45 40,nomail@kilotou.com,Lundi,07:00-12:00 & 13:30-18:00,Mardi,07:00-12:00 & 13:30-18:00,Mercredi,07:00-12:00 & 13:30-18:00,Jeudi,07:00-12:00 & 13:30-18:00,Vendredi,07:00-12:00 & 13:30-18:00,Samedi,07:00-12:00 & 13:30-18:00,Dimanche,07:00-12:00 & 13:30-18:00,OSNY,95520,RD 915 Zone d`activité La Demi Lieue,OSNY,Généraliste type 3
258,48.9832,2.5084,01 89 16 46 01,nomail@kilotou.com,Lundi,07:30-12:00 & 13:30-18:00,Mardi,07:30-12:00 & 13:30-18:00,Mercredi,07:30-12:00 & 13:30-18:00,Jeudi,07:30-12:00 & 13:30-18:00,Vendredi,07:30-12:00 & 13:30-18:00,Samedi,07:30-12:00 & 13:30-18:00,Dimanche,07:30-12:00 & 13:30-18:00,ROISSY,95934,178 rue de la Belle Etoile,ROISSY-CHARLES-DE-GAULLE,Agence Généraliste Terrassement Elévation
807,46.1176,5.8102,04 50 56 01 31,agence0807@kiloutou.fr,Lundi,07:30-12:00 & 13:30-18:00,Mardi,07:30-12:00 & 13:30-18:00,Mercredi,07:30-12:00 & 13:30-18:00,Jeudi,07:30-12:00 & 13:30-18:00,Vendredi,07:30-12:00 & 13:30-18:00,Samedi,07:30-12:00 & 13:30-18:00,Dimanche,07:30-12:00 & 13:30-18:00,BELLEGARDE-SUR-VALSERINE,01200,22 avenue du Maréchal Leclerc,CHATILLON EN MICHAILLE,Agence Généraliste Terrassement Elévation
172,49.854,3.273,03 23 50 50 60,agence0172@kiloutou.fr,Lundi,07:00-12:00 & 13:30-18:00,Mardi,07:00-12:00 & 13:30-18:00,Mercredi,07:00-12:00 & 13:30-18:00,Jeudi,07:00-12:00 & 13:30-18:00,Vendredi,07:00-12:00 & 13:30-18:00,Samedi,07:00-12:00 & 13:30-18:00,Dimanche,07:00-12:00 & 13:30-18:00,SAINT-QUENTIN,02101,155 rue de Fayet,ST QUENTIN CEDEX,Agence Généraliste Terrassement Elévation
288,49.3578,3.3205,03 23 55 15 15,agence0288@kiloutou.fr,Lundi,07:00-12:00 & 13:30-17:30,Mardi,07:00-12:00 & 13:30-17:30,Mercredi,07:00-12:00 & 13:30-17:30,Jeudi,07:00-12:00 & 13:30-17:30,Vendredi,07:00-12:00 & 13:30-17:30,Samedi,07:00-12:00 & 13:30-17:30,Dimanche,07:00-12:00 & 13:30-17:30,SOISSONS (Courmelles),02200,Chemin Départemental 913 ZA La Plaine de Chevreux,COURMELLES,Agence Généraliste Terrassement Elévation
597,46.5348,3.6986,04 70 45 55 28,agence0597@kiloutou.fr,Lundi,07:00-12:00 & 13:30-18:00,Mardi,07:00-12:00 & 13:30-18:00,Mercredi,07:00-12:00 & 13:30-18:00,Jeudi,07:00-12:00 & 13:30-18:00,Vendredi,07:00-12:00 & 13:30-18:00,Samedi,07:00-12:00 & 13:30-18:00,Dimanche,07:00-12:00 & 13:30-18:00,DOMPIERRE SUR BESBRE,03290,ZA Sept Fons,DOMPIERRE-SUR-BESBRE,Agence Généraliste Terrassement Elévation
456,46.1407,3.4345,04 70 50 20 00,agence0456@kiloutou.fr,Lundi,07:30-12:15 & 13:45-18:00,Mardi,07:30-12:15 & 13:45-18:00,Mercredi,07:30-12:15 & 13:45-18:00,Jeudi,07:30-12:15 & 13:45-18:00,Vendredi,07:30-12:15 & 13:45-18:00,Samedi,07:30-12:15 & 13:45-18:00,Dimanche,07:30-12:15 & 13:45-18:00,VICHY (Cusset),03300,9 rue de Romainville ZI des Graves,CUSSET,Agence Généraliste Terrassement Elévation
453,46.3684,2.5698,04 70 28 13 13,agence0453@kiloutou.fr,Lundi,07:30-12:00 & 13:45-18:00,Mardi,07:30-12:00 & 13:45-18:00,Mercredi,07:30-12:00 & 13:45-18:00,Jeudi,07:30-12:00 & 13:45-18:00,Vendredi,07:30-12:00 & 13:45-18:00,Samedi,07:30-12:00 & 13:45-18:00,Dimanche,07:30-12:00 & 13:45-18:00,MONTLUÇON (Domérat),03410,10 rue Jean Moulin ZAC de Chateaugay,DOMERAT,Agence Généraliste Terrassement Elévation
526,43.8219,5.8002,04 92 71 78 78,agence0526@kiloutou.fr,Lundi,07:30-12:00 & 13:30-18:00,Mardi,07:30-12:00 & 13:30-18:00,Mercredi,07:30-12:00 & 13:30-18:00,Jeudi,07:30-12:00 & 13:30-18:00,Vendredi,07:30-12:00 & 13:30-18:00,Samedi,07:30-12:00 & 13:30-18:00,Dimanche,07:30-12:00 & 13:30-18:00,MANOSQUE,04100,531 avenue Joseph Cugnot ZI Saint-Joseph,MANOSQUE,Agence Généraliste Terrassement Elévation
551,43.5733,7.0122,04 92 18 41 00,agence0551@kiloutou.fr,Lundi,07:30-12:00 & 14:00-17:30,Mardi,07:30-12:00 & 14:00-17:30,Mercredi,07:30-12:00 & 14:00-17:30,Jeudi,07:30-12:00 & 14:00-17:30,Vendredi,07:30-12:00 & 14:00-17:30,Samedi,07:30-12:00 & 14:00-17:30,Dimanche,07:30-12:00 & 14:00-17:30,LE CANNET,06110,982 avenue du Campon,LE CANNET,Agence Généraliste
555,43.6543,6.9319,04 93 09 11 11,agence0555@kiloutou.fr,Lundi,07:00-12:00 & 13:30-18:00,Mardi,07:00-12:00 & 13:30-18:00,Mercredi,07:00-12:00 & 13:30-18:00,Jeudi,07:00-12:00 & 13:30-18:00,Vendredi,07:00-12:00 & 13:30-18:00,Samedi,07:00-12:00 & 13:30-18:00,Dimanche,07:00-12:00 & 13:30-18:00,GRASSE,06130,43 route de la Marigarde ZI du Carré,GRASSE,Agence Généraliste
554,43.5435,6.9605,04 93 47 84 44,agence0554@kiloutou.fr,Lundi,07:00-12:00 & 13:30-18:00,Mardi,07:00-12:00 & 13:30-18:00,Mercredi,07:00-12:00 & 13:30-18:00,Jeudi,07:00-12:00 & 13:30-18:00,Vendredi,07:00-12:00 & 13:30-18:00,Samedi,07:00-12:00 & 13:30-18:00,Dimanche,07:00-12:00 & 13:30-18:00,CANNES LA BOCCA,06150,150 avenue de la Roubine Face Balitrand,CANNES LA BOCCA,Agence Généraliste
550,43.6749,7.2234,04 92 29 88 00,agence0550@kiloutou.fr,Lundi,07:00-12:00 & 13:30-18:00,Mardi,07:00-12:00 & 13:30-18:00,Mercredi,07:00-12:00 & 13:30-18:00,Jeudi,07:00-12:00 & 13:30-18:00,Vendredi,07:00-12:00 & 13:30-18:00,Samedi,07:00-12:00 & 13:30-18:00,Dimanche,07:00-12:00 & 13:30-18:00,NICE,06200,58 avenue Saint-Augustin,NICE,Agence Généraliste
Q560,43.6002,6.97,04 97 97 99 99,polefidsud@kiloutou.fr,Lundi,07:00-12:00 & 13:45-18:00,Mardi,07:00-12:00 & 13:45-18:00,Mercredi,07:00-12:00 & 13:45-18:00,Jeudi,07:00-12:00 & 13:45-18:00,Vendredi,07:00-12:00 & 13:45-18:00,Samedi,07:00-12:00 & 13:45-18:00,Dimanche,07:00-12:00 & 13:45-18:00,AGENCE ELEVATION TERRASSEMENT DE MOUGINS,06250,1451 chemin de la plaine,MOUGINS,Quai Elévation Terrassement
7500,43.6002,6.97,04 97 97 99 99,kiloutou-7500@kiloutou.fr,Lundi,07:00-12:00 & 13:45-18:00,Mardi,07:00-12:00 & 13:45-18:00,Mercredi,07:00-12:00 & 13:45-18:00,Jeudi,07:00-12:00 & 13:45-18:00,Vendredi,07:00-12:00 & 13:45-18:00,Samedi,07:00-12:00 & 13:45-18:00,Dimanche,07:00-12:00 & 13:45-18:00,SCET DE MOUGINS,06250,REGION PROVENCE ALPES COTE D'AZUR 1451 AVENUE DE LA PLAINE,MOUGINS,SCET (mode région)
552,43.7344,7.2936,04 93 27 60 60,agence0552@kiloutou.fr,Lundi,06:30-12:00 & 12:00-18:30,Mardi,06:30-12:00 & 12:00-18:30,Mercredi,06:30-12:00 & 12:00-18:30,Jeudi,06:30-12:00 & 12:00-18:30,Vendredi,06:30-12:00 & 12:00-18:30,Samedi,06:30-12:00 & 12:00-18:30,Dimanche,06:30-12:00 & 12:00-18:30,NICE - La Plateforme,06300,45 boulevard de l'Ariane La Plateforme du Bâtiment,NICE,Généraliste type 4
563,43.8058,7.4876,04 92 07 90 80,agence0563@kiloutou.fr,Lundi,07:00-12:00 & 14:00-17:00,Mardi,07:00-12:00 & 14:00-17:00,Mercredi,07:00-12:00 & 14:00-17:00,Jeudi,07:00-12:00 & 14:00-17:00,Vendredi,07:00-12:00 & 14:00-17:00,Samedi,07:00-12:00 & 14:00-17:00,Dimanche,07:00-12:00 & 14:00-17:00,MENTON (Castellar),06500,716 avenue de Saint Roman ZI Haut Carreï,MENTON,Agence Généraliste
553,43.8064,7.1904,04 92 02 61 41,agence0553@kiloutou.fr,Lundi,07:00-12:00 & 13:30-18:00,Mardi,07:00-12:00 & 13:30-18:00,Mercredi,07:00-12:00 & 13:30-18:00,Jeudi,07:00-12:00 & 13:30-18:00,Vendredi,07:00-12:00 & 13:30-18:00,Samedi,07:00-12:00 & 13:30-18:00,Dimanche,07:00-12:00 & 13:30-18:00,NICE CARROS,06510,ZI Carros le Broc 17e rue,LE BROC,Agence Généraliste Terrassement Elévation
559,43.6996,7.1837,04 93 19 00 36,agence0559@kiloutou.fr,Lundi,07:00-12:00 & 13:30-18:00,Mardi,07:00-12:00 & 13:30-18:00,Mercredi,07:00-12:00 & 13:30-18:00,Jeudi,07:00-12:00 & 13:30-18:00,Vendredi,07:00-12:00 & 13:30-18:00,Samedi,07:00-12:00 & 13:30-18:00,Dimanche,07:00-12:00 & 13:30-18:00,SAINT-LAURENT-DU-VAR,06700,1881 avenue Pierre et Marie Curie ZI Secteur C,ST LAURENT DU VAR,Agence Généraliste Terrassement Elévation
144,49.7871,4.6767,03 51 38 20 30,agence0144@kiloutou.fr,Lundi,07:30-12:00 & 13:30-17:30,Mardi,07:30-12:00 & 13:30-17:30,Mercredi,07:30-12:00 & 13:30-17:30,Jeudi,07:30-12:00 & 13:30-17:30,Vendredi,07:30-12:00 & 13:30-17:30,Samedi,07:30-12:00 & 13:30-17:30,Dimanche,07:30-12:00 & 13:30-17:30,CHARLEVILLE MEZIERES,08000,8 rue du commerce,WARCQ,Agence Généraliste Terrassement Elévation
339,43.13,1.622,05 61 60 91 91,agence0339@kiloutou.fr,Lundi,07:30-12:00 & 13:30-18:00,Mardi,07:30-12:00 & 13:30-18:00,Mercredi,07:30-12:00 & 13:30-18:00,Jeudi,07:30-12:00 & 13:30-18:00,Vendredi,07:30-12:00 & 13:30-18:00,Samedi,07:30-12:00 & 13:30-18:00,Dimanche,07:30-12:00 & 13:30-18:00,FOIX - PAMIERS,09100,Route de Villeneuve ZA du Pic,PAMIERS,Agence Généraliste Terrassement Elévation
265,48.3026,4.028,03 25 46 24 24,agence0265@kiloutou.fr,Lundi,07:30-12:00 & 13:30-18:00,Mardi,07:30-12:00 & 13:30-18:00,Mercredi,07:30-12:00 & 13:30-18:00,Jeudi,07:30-12:00 & 13:30-18:00,Vendredi,07:30-12:00 & 13:30-18:00,Samedi,07:30-12:00 & 13:30-18:00,Dimanche,07:30-12:00 & 13:30-18:00,TROYES (La Chapelle-St-Luc),10600,130 rue du Général Sarrail,LA CHAPELLE ST LUC,Agence Généraliste
538,43.2082,2.3195,04 68 11 10 10,agence0538@kiloutou.fr,Lundi,07:00-12:00 & 13:30-18:00,Mardi,07:00-12:00 & 13:30-18:00,Mercredi,07:00-12:00 & 13:30-18:00,Jeudi,07:00-12:00 & 13:30-18:00,Vendredi,07:00-12:00 & 13:30-18:00,Samedi,07:00-12:00 & 13:30-18:00,Dimanche,07:00-12:00 & 13:30-18:00,CARCASSONNE,11000,560 boulevard Denis Papin ZI de la Bourriette,CARCASSONNE,Agence Généraliste Terrassement Elévation
536,43.1716,2.9801,04 68 40 48 48,agence0536@kiloutou.fr,Lundi,07:00-12:00 & 13:30-18:00,Mardi,07:00-12:00 & 13:30-18:00,Mercredi,07:00-12:00 & 13:30-18:00,Jeudi,07:00-12:00 & 13:30-18:00,Vendredi,07:00-12:00 & 13:30-18:00,Samedi,07:00-12:00 & 13:30-18:00,Dimanche,07:00-12:00 & 13:30-18:00,NARBONNE,11100,39 avenue du Champ de Mars,NARBONNE,Agence Généraliste Terrassement Elévation
305,44.371,2.548,05 65 59 60 60,agence0305@kiloutou.fr,Lundi,07:00-12:00 & 13:30-18:00,Mardi,07:00-12:00 & 13:30-18:00,Mercredi,07:00-12:00 & 13:30-18:00,Jeudi,07:00-12:00 & 13:30-18:00,Vendredi,07:00-12:00 & 13:30-18:00,Samedi,07:00-12:00 & 13:30-18:00,Dimanche,07:00-12:00 & 13:30-18:00,RODEZ,12000,341 rue Nicolas Appert ZA de Bel Air,RODEZ,Agence Généraliste Terrassement Elévation
511,43.2756,5.3961,04 91 32 34 50,agence0511@kiloutou.fr,Lundi,07:00-12:00 & 13:30-18:00,Mardi,07:00-12:00 & 13:30-18:00,Mercredi,07:00-12:00 & 13:30-18:00,Jeudi,07:00-12:00 & 13:30-18:00,Vendredi,07:00-12:00 & 13:30-18:00,Samedi,07:00-12:00 & 13:30-18:00,Dimanche,07:00-12:00 & 13:30-18:00,MARSEILLE,13008,71 boulevard Rabatau,MARSEILLE,Agence Généraliste
512,43.3308,5.3721,04 95 05 32 32,agence0512@kiloutou.fr,Lundi,06:30 - 18:30,Mardi,06:30 - 18:30,Mercredi,06:30 - 18:30,Jeudi,06:30 - 18:30,Vendredi,06:30 - 18:30,Samedi,06:30 - 18:30,Dimanche,06:30 - 18:30,MARSEILLE (bd Capitaine Gèze) - La Plateforme,13014,53 boulevard du Capitaine Gèze La Plateforme du Bâtiment,MARSEILLE 14EME ARRONDISS,Généraliste type 4
613,43.3468,5.3659,04 91 23 03 50,agence0613@kiloutou.fr,Lundi,07:00-12:00 & 13:30-18:00,Mardi,07:00-12:00 & 13:30-18:00,Mercredi,07:00-12:00 & 13:30-18:00,Jeudi,07:00-12:00 & 13:30-18:00,Vendredi,07:00-12:00 & 13:30-18:00,Samedi,07:00-12:00 & 13:30-18:00,Dimanche,07:00-12:00 & 13:30-18:00,MARSEILLE AYGALADES,13015,179 avenue des Aygalades,MARSEILLE,Agence Généraliste Terrassement Elévation
566,43.483,5.3839,04 42 90 50 00,agence0566@kiloutou.fr,Lundi,07:00-12:00 & 13:30-18:00,Mardi,07:00-12:00 & 13:30-18:00,Mercredi,07:00-12:00 & 13:30-18:00,Jeudi,07:00-12:00 & 13:30-18:00,Vendredi,07:00-12:00 & 13:30-18:00,Samedi,07:00-12:00 & 13:30-18:00,Dimanche,07:00-12:00 & 13:30-18:00,AIX-LES-MILLES,13100,130 rue Claude Nicolas Ledoux ZAC des Milles,AIX EN PROVENCE,Agence Généraliste Terrassement Elévation
8513,43.483,5.384,04 42 41 52 55,kiloutou-8513@kiloutou.fr,Lundi,07:00-12:00 & 13:45-18:00,Mardi,07:00-12:00 & 13:45-18:00,Mercredi,07:00-12:00 & 13:45-18:00,Jeudi,07:00-12:00 & 13:45-18:00,Vendredi,07:00-12:00 & 13:45-18:00,Samedi,07:00-12:00 & 13:45-18:00,Dimanche,07:00-12:00 & 13:45-18:00,SCE DE VITROLLES,13100,130 RUE CLAUDE NICOLAS LEDOUX ZAC DES MILLES,AIX EN PROVENCE,SCET (mode région)
513,43.4269,5.2569,04 42 41 52 52,agence0513@kiloutou.fr,Lundi,07:00-12:00 & 13:30-18:00,Mardi,07:00-12:00 & 13:30-18:00,Mercredi,07:00-12:00 & 13:30-18:00,Jeudi,07:00-12:00 & 13:30-18:00,Vendredi,07:00-12:00 & 13:30-18:00,Samedi,07:00-12:00 & 13:30-18:00,Dimanche,07:00-12:00 & 13:30-18:00,VITROLLES,13127,ZI des Estroublans 21 rue de Madrid,VITROLLES,Agence Généraliste Terrassement Elévation
541,43.6657,4.6456,04 90 18 70 70,agence0541@kiloutou.fr,Lundi,07:00-12:00 & 13:30-18:00,Mardi,07:00-12:00 & 13:30-18:00,Mercredi,07:00-12:00 & 13:30-18:00,Jeudi,07:00-12:00 & 13:30-18:00,Vendredi,07:00-12:00 & 13:30-18:00,Samedi,07:00-12:00 & 13:30-18:00,Dimanche,07:00-12:00 & 13:30-18:00,ARLES,13200,avenue des Arches ZAC Fourchon,ARLES,Agence Généraliste
514,43.4489,4.936,04 42 11 02 02,agence0514@kiloutou.fr,Lundi,07:00-12:00 & 13:30-18:00,Mardi,07:00-12:00 & 13:30-18:00,Mercredi,07:00-12:00 & 13:30-18:00,Jeudi,07:00-12:00 & 13:30-18:00,Vendredi,07:00-12:00 & 13:30-18:00,Samedi,07:00-12:00 & 13:30-18:00,Dimanche,07:00-12:00 & 13:30-18:00,FOS-SUR-MER,13270,Impasse des joncs Route Nationale 568,FOS SUR MER,Agence Généraliste Terrassement Elévation
525,43.6331,5.0965,04 90 45 65 65,agence0525@kiloutou.fr,Lundi,07:00-12:00 & 13:30-18:00,Mardi,07:00-12:00 & 13:30-18:00,Mercredi,07:00-12:00 & 13:30-18:00,Jeudi,07:00-12:00 & 13:30-18:00,Vendredi,07:00-12:00 & 13:30-18:00,Samedi,07:00-12:00 & 13:30-18:00,Dimanche,07:00-12:00 & 13:30-18:00,SALON-DE-PROVENCE,13300,20 rue des Ventadouiro,SALON DE PROVENCE,Agence Généraliste Terrassement Elévation
520,43.2917,5.5865,04 42 84 46 42,agence0520@kiloutou.fr,Lundi,07:00-12:00 & 13:30-18:00,Mardi,07:00-12:00 & 13:30-18:00,Mercredi,07:00-12:00 & 13:30-18:00,Jeudi,07:00-12:00 & 13:30-18:00,Vendredi,07:00-12:00 & 13:30-18:00,Samedi,07:00-12:00 & 13:30-18:00,Dimanche,07:00-12:00 & 13:30-18:00,AUBAGNE,13400,775 chemin de Ceinture,AUBAGNE,Agence Généraliste
522,43.277,5.626,04 42 32 23 14,agence0522@kiloutou.fr,Lundi,07:00-12:00 & 13:30-18:00,Mardi,07:00-12:00 & 13:30-18:00,Mercredi,07:00-12:00 & 13:30-18:00,Jeudi,07:00-12:00 & 13:30-18:00,Vendredi,07:00-12:00 & 13:30-18:00,Samedi,07:00-12:00 & 13:30-18:00,Dimanche,07:00-12:00 & 13:30-18:00,GÉMENOS - TP,13420,1496 RN 8,GEMENOS,Agence Terrassement
510,43.4183,5.3655,04 42 02 72 72,agence0510@kiloutou.fr,Lundi,07:00-12:00 & 13:30-18:00,Mardi,07:00-12:00 & 13:30-18:00,Mercredi,07:00-12:00 & 13:30-18:00,Jeudi,07:00-12:00 & 13:30-18:00,Vendredi,07:00-12:00 & 13:30-18:00,Samedi,07:00-12:00 & 13:30-18:00,Dimanche,07:00-12:00 & 13:30-18:00,PLAN-DE-CAMPAGNE (Cabriès),13480,Centre Commercial Barnéoud Magnan Zone de Cabriès,CABRIES,Agence Généraliste
567,43.4912,5.5315,04 42 12 67 50,agence0567@kiloutou.fr,Lundi,07:00-12:00 & 13:30-18:00,Mardi,07:00-12:00 & 13:30-18:00,Mercredi,07:00-12:00 & 13:30-18:00,Jeudi,07:00-12:00 & 13:30-18:00,Vendredi,07:00-12:00 & 13:30-18:00,Samedi,07:00-12:00 & 13:30-18:00,Dimanche,07:00-12:00 & 13:30-18:00,AIX-MEYREUIL,13590,Route Nationale 7 Parc la Garderine,AIX-MEYREUIL,Agence K
521,43.2846,5.5246,04 91 87 74 74,agence0521@kiloutou.fr,Lundi,07:30-12:00 & 14:00-18:00,Mardi,07:30-12:00 & 14:00-18:00,Mercredi,07:30-12:00 & 14:00-18:00,Jeudi,07:30-12:00 & 14:00-18:00,Vendredi,07:30-12:00 & 14:00-18:00,Samedi,07:30-12:00 & 14:00-18:00,Dimanche,07:30-12:00 & 14:00-18:00,AUBAGNE (Z.I. St-Mitre) - La Plateforme,13683,1755 chemin de la Vallée La Plateforme du Bâtiment ZI St-Mitre,AUBAGNE CEDEX,Généraliste type 4
472,49.146,0.2624,02 31 32 16 00,agence0472@kiloutou.fr,Lundi,07:30-12:00 & 13:30-18:00,Mardi,07:30-12:00 & 13:30-18:00,Mercredi,07:30-12:00 & 13:30-18:00,Jeudi,07:30-12:00 & 13:30-18:00,Vendredi,07:30-12:00 & 13:30-18:00,Samedi,07:30-12:00 & 13:30-18:00,Dimanche,07:30-12:00 & 13:30-18:00,LISIEUX,14100,574 rue Edouard Branly Pôle d'Activités de l'Espérance,LISIEUX,Agence Généraliste Terrassement Elévation
390,49.1673,-0.3181,02 31 82 80 80,agence0390@kiloutou.fr,Lundi,07:30-12:00 & 13:30-18:00,Mardi,07:30-12:00 & 13:30-18:00,Mercredi,07:30-12:00 & 13:30-18:00,Jeudi,07:30-12:00 & 13:30-18:00,Vendredi,07:30-12:00 & 13:30-18:00,Samedi,07:30-12:00 & 13:30-18:00,Dimanche,07:30-12:00 & 13:30-18:00,CAEN (Mondeville),14120,rue Charles de Coulomb,MONDEVILLE,Agence Généraliste Terrassement Elévation
493,49.156,-0.3036,02 31 83 51 85,agence0493@kiloutou.fr,Lundi,07:30-12:00 & 13:30-18:00,Mardi,07:30-12:00 & 13:30-18:00,Mercredi,07:30-12:00 & 13:30-18:00,Jeudi,07:30-12:00 & 13:30-18:00,Vendredi,07:30-12:00 & 13:30-18:00,Samedi,07:30-12:00 & 13:30-18:00,Dimanche,07:30-12:00 & 13:30-18:00,CAEN (Mondeville) - TP,14120,rue Nicéphore Niepce ZAC Mondeville Sud,MONDEVILLE,Agence Terrassement
478,49.1943,-0.4503,02 50 28 70 34,agence0478@kiloutou.fr,Lundi,07:30-12:00 & 13:30-18:00,Mardi,07:30-12:00 & 13:30-18:00,Mercredi,07:30-12:00 & 13:30-18:00,Jeudi,07:30-12:00 & 13:30-18:00,Vendredi,07:30-12:00 & 13:30-18:00,Samedi,07:30-12:00 & 13:30-18:00,Dimanche,07:30-12:00 & 13:30-18:00,CAEN (Carpiquet),14650,12 rue de la Vigne,CARPIQUET,Agence Généraliste Terrassement Elévation
405,45.6656,0.1795,05 45 69 60 60,agence0405@kiloutou.fr,Lundi,07:30-12:00 & 13:30-18:00,Mardi,07:30-12:00 & 13:30-18:00,Mercredi,07:30-12:00 & 13:30-18:00,Jeudi,07:30-12:00 & 13:30-18:00,Vendredi,07:30-12:00 & 13:30-18:00,Samedi,07:30-12:00 & 13:30-18:00,Dimanche,07:30-12:00 & 13:30-18:00,ANGOULÊME (L'Isle-d'Espagnac),16340,9 avenue du Maréchal Juin Zone Industrielle n°3,L'ISLE D ESPAGNAC,Agence Généraliste Terrassement Elévation
403,45.7477,-0.6691,05 46 95 42 42,agence0403@kiloutou.fr,Lundi,07:30-12:00 & 13:30-18:00,Mardi,07:30-12:00 & 13:30-18:00,Mercredi,07:30-12:00 & 13:30-18:00,Jeudi,07:30-12:00 & 13:30-18:00,Vendredi,07:30-12:00 & 13:30-18:00,Samedi,07:30-12:00 & 13:30-18:00,Dimanche,07:30-12:00 & 13:30-18:00,SAINTES,17100,5 rue de la Côte de Beauté ZA de l'Ormeau de Pied,SAINTES,Agence Généraliste Terrassement Elévation
594,46.1603,-1.1031,05 46 30 69 30,agence0594@kiloutou.fr,Lundi,07:30-12:00 & 13:30-18:00,Mardi,07:30-12:00 & 13:30-18:00,Mercredi,07:30-12:00 & 13:30-18:00,Jeudi,07:30-12:00 & 13:30-18:00,Vendredi,07:30-12:00 & 13:30-18:00,Samedi,07:30-12:00 & 13:30-18:00,Dimanche,07:30-12:00 & 13:30-18:00,LA ROCHELLE (Périgny),17180,13 avenue Louis Lumière,PERIGNY,Agence Généraliste Terrassement Elévation
402,45.9508,-0.936,05 46 88 35 30,agence0402@kiloutou.fr,Lundi,07:30-12:00 & 13:30-18:00,Mardi,07:30-12:00 & 13:30-18:00,Mercredi,07:30-12:00 & 13:30-18:00,Jeudi,07:30-12:00 & 13:30-18:00,Vendredi,07:30-12:00 & 13:30-18:00,Samedi,07:30-12:00 & 13:30-18:00,Dimanche,07:30-12:00 & 13:30-18:00,ROCHEFORT (Tonnay-Charente),17430,rue de la Fraternité ZAC de la Fraternité,TONNAY CHARENTE,Agence Généraliste
347,46.1328,-1.0975,05 46 31 79 79,agence0347@kiloutou.fr,Lundi,07:30-12:00 & 13:30-18:00,Mardi,07:30-12:00 & 13:30-18:00,Mercredi,07:30-12:00 & 13:30-18:00,Jeudi,07:30-12:00 & 13:30-18:00,Vendredi,07:30-12:00 & 13:30-18:00,Samedi,07:30-12:00 & 13:30-18:00,Dimanche,07:30-12:00 & 13:30-18:00,LA ROCHELLE (Aytré),17440,15 rue Léonard de Vinci ZAC de Belle Aire Nord,AYTRE,Agence Généraliste Terrassement Elévation
356,47.1058,2.3819,02 48 27 24 24,agence0356@kiloutou.fr,Lundi,07:30-12:00 & 13:30-18:00,Mardi,07:30-12:00 & 13:30-18:00,Mercredi,07:30-12:00 & 13:30-18:00,Jeudi,07:30-12:00 & 13:30-18:00,Vendredi,07:30-12:00 & 13:30-18:00,Samedi,07:30-12:00 & 13:30-18:00,Dimanche,07:30-12:00 & 13:30-18:00,BOURGES (Saint-Doulchard),18230,21 rue du Paradis Angle rue de Malitorne,ST DOULCHARD,Agence Généraliste Terrassement Elévation
146,45.1613,1.4818,05 55 88 14 14,agence0146@kiloutou.fr,Lundi,07:30-12:00 & 14:00-18:00,Mardi,07:30-12:00 & 14:00-18:00,Mercredi,07:30-12:00 & 14:00-18:00,Jeudi,07:30-12:00 & 14:00-18:00,Vendredi,07:30-12:00 & 14:00-18:00,Samedi,07:30-12:00 & 14:00-18:00,Dimanche,07:30-12:00 & 14:00-18:00,BRIVE - TP,19100,1 bis rue Jules Bouchet ZA Cana Ouest,BRIVE,Agence Terrassement
314,45.1524,1.4805,05 55 22 10 10,agence0314@kiloutou.fr,Lundi,07:30-12:00 & 13:30-18:00,Mardi,07:30-12:00 & 13:30-18:00,Mercredi,07:30-12:00 & 13:30-18:00,Jeudi,07:30-12:00 & 13:30-18:00,Vendredi,07:30-12:00 & 13:30-18:00,Samedi,07:30-12:00 & 13:30-18:00,Dimanche,07:30-12:00 & 13:30-18:00,BRIVE-LA-GAILLARDE,19100,rue ernest comte,BRIVE LA GAILLARDE,Agence Généraliste Terrassement Elévation
Q442,47.3452,5.0744,03 80 36 77 77,agenceQ442@kiloutou.fr,Lundi,07:00-12:00 & 13:30-18:00,Mardi,07:00-12:00 & 13:30-18:00,Mercredi,07:00-12:00 & 13:30-18:00,Jeudi,07:00-12:00 & 13:30-18:00,Vendredi,07:00-12:00 & 13:30-18:00,Samedi,07:00-12:00 & 13:30-18:00,Dimanche,07:00-12:00 & 13:30-18:00,AGENCE ELEVATION DE DIJON,21000,8 Rue Breuchillière,DIJON,Quai Elévation Terrassement
442,47.2802,5.1998,03 80 51 50 50,agence0442@kiloutou.fr,Lundi,07:30-11:30 & 14:00-17:30,Mardi,07:30-11:30 & 14:00-17:30,Mercredi,07:30-11:30 & 14:00-17:30,Jeudi,07:30-11:30 & 14:00-17:30,Vendredi,07:30-11:30 & 14:00-17:30,Samedi,07:30-11:30 & 14:00-17:30,Dimanche,07:30-11:30 & 14:00-17:30,DIJON (Marsannay-la-Côte) - La Plateforme,21160,11 rue Gustave Eiffel La Plateforme du Bâtiment,MARSANNAY LA COTE,Généraliste type 4
440,47.3081,5.1009,03 80 46 63 00,agence0440@kiloutou.fr,Lundi,07:00-12:00 & 13:30-18:00,Mardi,07:00-12:00 & 13:30-18:00,Mercredi,07:00-12:00 & 13:30-18:00,Jeudi,07:00-12:00 & 13:30-18:00,Vendredi,07:00-12:00 & 13:30-18:00,Samedi,07:00-12:00 & 13:30-18:00,Dimanche,07:00-12:00 & 13:30-18:00,DIJON (Quetigny),21800,boulevard du Grand Marché ZAC Les Charrières,QUETIGNY,Agence Généraliste
387,48.5018,-2.7425,02 96 68 64 64,agence0387@kiloutou.fr,Lundi,07:30-12:00 & 13:30-18:00,Mardi,07:30-12:00 & 13:30-18:00,Mercredi,07:30-12:00 & 13:30-18:00,Jeudi,07:30-12:00 & 13:30-18:00,Vendredi,07:30-12:00 & 13:30-18:00,Samedi,07:30-12:00 & 13:30-18:00,Dimanche,07:30-12:00 & 13:30-18:00,SAINT-BRIEUC,22000,2 rue Pierre-Gilles de Gennes ZA de Beaufeuillage,ST BRIEUC,Agence Généraliste Terrassement Elévation
573,48.7635,-3.4516,02 96 54 54 54,agence0573@kiloutou.fr,Lundi,07:30-12:00 & 13:30-18:00,Mardi,07:30-12:00 & 13:30-18:00,Mercredi,07:30-12:00 & 13:30-18:00,Jeudi,07:30-12:00 & 13:30-18:00,Vendredi,07:30-12:00 & 13:30-18:00,Samedi,07:30-12:00 & 13:30-18:00,Dimanche,07:30-12:00 & 13:30-18:00,LANNION (Saint-Quay-Perros),22700,8 rue de Keringant,ST QUAY PERROS,Agence Généraliste Terrassement Elévation
145,44.8585,0.5126,05 53 23 62 62,agence0145@kiloutou.fr,Lundi,07:30-12:00 & 14:00-18:00,Mardi,07:30-12:00 & 14:00-18:00,Mercredi,07:30-12:00 & 14:00-18:00,Jeudi,07:30-12:00 & 14:00-18:00,Vendredi,07:30-12:00 & 14:00-18:00,Samedi,07:30-12:00 & 14:00-18:00,Dimanche,07:30-12:00 & 14:00-18:00,BERGERAC - TP,24100,14 rue Jean Brun ZI Campreal,BERGERAC,Agence Terrassement
404,44.8262,0.4845,05 53 74 89 89,agence0404@kiloutou.fr,Lundi,07:30-12:00 & 14:00-18:00,Mardi,07:30-12:00 & 14:00-18:00,Mercredi,07:30-12:00 & 14:00-18:00,Jeudi,07:30-12:00 & 14:00-18:00,Vendredi,07:30-12:00 & 14:00-18:00,Samedi,07:30-12:00 & 14:00-18:00,Dimanche,07:30-12:00 & 14:00-18:00,BERGERAC,24100,D936 route d'Agen ZA de la Vallade Sud,BERGERAC,Agence Généraliste Terrassement Elévation
Q446,47.2354,5.9835,03 81 40 24 24,kiloutou-8446@kiloutou.fr,Lundi,07:00-12:00 & 13:30-18:00,Mardi,07:00-12:00 & 13:30-18:00,Mercredi,07:00-12:00 & 13:30-18:00,Jeudi,07:00-12:00 & 13:30-18:00,Vendredi,07:00-12:00 & 13:30-18:00,Samedi,07:00-12:00 & 13:30-18:00,Dimanche,07:00-12:00 & 13:30-18:00,AGENCE ELEVATION DE BESANCON,25000,ZA du Trépillot 9,AGENCE ELEVATION DE BESANCON,Agence K
8446,47.2354,5.9834,03 81 57 62 71,kiloutou-8446@kiloutou.fr,Lundi,07:45-12:00 & 13:30-17:45,Mardi,07:45-12:00 & 13:30-17:45,Mercredi,07:45-12:00 & 13:30-17:45,Jeudi,07:45-12:00 & 13:30-17:45,Vendredi,07:45-12:00 & 13:30-17:45,Samedi,07:45-12:00 & 13:30-17:45,Dimanche,07:45-12:00 & 13:30-17:45,SCE FRANCHE COMTE,25000,9 rue Berthelot ZA Trepillot,BESANCON,SCET (mode région)
446,47.2354,5.9834,03 81 40 24 24,agence0446@kiloutou.fr,Lundi,07:00-12:00 & 13:30-18:00,Mardi,07:00-12:00 & 13:30-18:00,Mercredi,07:00-12:00 & 13:30-18:00,Jeudi,07:00-12:00 & 13:30-18:00,Vendredi,07:00-12:00 & 13:30-18:00,Samedi,07:00-12:00 & 13:30-18:00,Dimanche,07:00-12:00 & 13:30-18:00,BESANÇON,25000,9 rue Berthelot ZA Trepillot,BESANCON,Agence Généraliste Terrassement Elévation
408,47.239,5.9825,03 81 85 06 06,agence0408@kiloutou.fr,Lundi,07:30-12:00 & 13:30-18:00,Mardi,07:30-12:00 & 13:30-18:00,Mercredi,07:30-12:00 & 13:30-18:00,Jeudi,07:30-12:00 & 13:30-18:00,Vendredi,07:30-12:00 & 13:30-18:00,Samedi,07:30-12:00 & 13:30-18:00,Dimanche,07:30-12:00 & 13:30-18:00,BESANÇON TP,25000,27 Rue Albert Thomas,Besançon,Agence Terrassement
409,47.4876,6.8477,03 81 30 32 33,agence0409@kiloutou.fr,Lundi,07:30-12:00 & 13:30-18:00,Mardi,07:30-12:00 & 13:30-18:00,Mercredi,07:30-12:00 & 13:30-18:00,Jeudi,07:30-12:00 & 13:30-18:00,Vendredi,07:30-12:00 & 13:30-18:00,Samedi,07:30-12:00 & 13:30-18:00,Dimanche,07:30-12:00 & 13:30-18:00,AUDINCOURT,25400,rue René Girardot ZI Arbletiers,Audincourt,Agence Terrassement
424,44.9001,4.884,04 75 78 25 10,agence0424@kiloutou.fr,Lundi,07:00-12:00 & 13:30-18:00,Mardi,07:00-12:00 & 13:30-18:00,Mercredi,07:00-12:00 & 13:30-18:00,Jeudi,07:00-12:00 & 13:30-18:00,Vendredi,07:00-12:00 & 13:30-18:00,Samedi,07:00-12:00 & 13:30-18:00,Dimanche,07:00-12:00 & 13:30-18:00,VALENCE,26000,52 avenue des Auréats ZI des Auréats,VALENCE,Agence Généraliste Terrassement Elévation
607,44.3618,4.7095,04 75 54 75 50,agence0607@kiloutou.fr,Lundi,07:00-12:00 & 13:30-18:00,Mardi,07:00-12:00 & 13:30-18:00,Mercredi,07:00-12:00 & 13:30-18:00,Jeudi,07:00-12:00 & 13:30-18:00,Vendredi,07:00-12:00 & 13:30-18:00,Samedi,07:00-12:00 & 13:30-18:00,Dimanche,07:00-12:00 & 13:30-18:00,PIERRELATTE,26700,rue du Gardon ZI du Gardon,PIERRELATTE,Agence Généraliste Terrassement Elévation
398,49.0012,1.1535,02 32 23 53 53,agence0398@kiloutou.fr,Lundi,07:00-12:00 & 13:30-18:00,Mardi,07:00-12:00 & 13:30-18:00,Mercredi,07:00-12:00 & 13:30-18:00,Jeudi,07:00-12:00 & 13:30-18:00,Vendredi,07:00-12:00 & 13:30-18:00,Samedi,07:00-12:00 & 13:30-18:00,Dimanche,07:00-12:00 & 13:30-18:00,EVREUX,27000,81 route d'Orléans RN154 ZI de la Madeleine,EVREUX,Agence Généraliste
492,48.9974,1.15,02 32 28 27 41,agence0492@kiloutou.fr,Lundi,07:30-12:00 & 13:30-18:00,Mardi,07:30-12:00 & 13:30-18:00,Mercredi,07:30-12:00 & 13:30-18:00,Jeudi,07:30-12:00 & 13:30-18:00,Vendredi,07:30-12:00 & 13:30-18:00,Samedi,07:30-12:00 & 13:30-18:00,Dimanche,07:30-12:00 & 13:30-18:00,EVREUX - TP,27000,rue Henri Becquerel,EVREUX,Agence Terrassement
479,49.2443,1.177,02 32 25 16 20,agence0479@kiloutou.fr,Lundi,07:30-12:00 & 13:30-18:00,Mardi,07:30-12:00 & 13:30-18:00,Mercredi,07:30-12:00 & 13:30-18:00,Jeudi,07:30-12:00 & 13:30-18:00,Vendredi,07:30-12:00 & 13:30-18:00,Samedi,07:30-12:00 & 13:30-18:00,Dimanche,07:30-12:00 & 13:30-18:00,VAL-DE-REUIL (Louviers),27100,voie Babeurre ZA La Fringale,VAL DE REUIL,Agence Généraliste Terrassement Elévation
477,49.338,0.3504,02 32 42 94 00,agence0477@kiloutou.fr,Lundi,07:30-12:00 & 13:30-17:30,Mardi,07:30-12:00 & 13:30-17:30,Mercredi,07:30-12:00 & 13:30-17:30,Jeudi,07:30-12:00 & 13:30-17:30,Vendredi,07:30-12:00 & 13:30-17:30,Samedi,07:30-12:00 & 13:30-17:30,Dimanche,07:30-12:00 & 13:30-17:30,BEUZEVILLE,27210,rue des Prés Verts,BEUZEVILLE,Agence Généraliste Terrassement Elévation
232,48.7402,1.3441,02 37 43 04 04,agence0232@kiloutou.fr,Lundi,07:30-12:00 & 13:30-18:00,Mardi,07:30-12:00 & 13:30-18:00,Mercredi,07:30-12:00 & 13:30-18:00,Jeudi,07:30-12:00 & 13:30-18:00,Vendredi,07:30-12:00 & 13:30-18:00,Samedi,07:30-12:00 & 13:30-18:00,Dimanche,07:30-12:00 & 13:30-18:00,DREUX,28100,6 avenue des Bâtes,DREUX,Agence Généraliste Terrassement Elévation
231,48.4176,1.45,02 37 88 27 27,agence0231@kiloutou.fr,Lundi,07:30-12:00 & 13:30-18:30,Mardi,07:30-12:00 & 13:30-18:30,Mercredi,07:30-12:00 & 13:30-18:30,Jeudi,07:30-12:00 & 13:30-18:30,Vendredi,07:30-12:00 & 13:30-18:30,Samedi,07:30-12:00 & 13:30-18:30,Dimanche,07:30-12:00 & 13:30-18:30,CHARTRES (LUISANT),28600,12 rue Jean Perrin,LUISANT,Agence Généraliste Terrassement Elévation
373,48.4304,-4.4419,02 29 61 19 19,agence0373@kiloutou.fr,Lundi,07:00-12:00 & 13:30-18:00,Mardi,07:00-12:00 & 13:30-18:00,Mercredi,07:00-12:00 & 13:30-18:00,Jeudi,07:00-12:00 & 13:30-18:00,Vendredi,07:00-12:00 & 13:30-18:00,Samedi,07:00-12:00 & 13:30-18:00,Dimanche,07:00-12:00 & 13:30-18:00,BREST (Guipavas),29490,22 rue Henri Becquerel ZAC de Kergaradec,GUIPAVAS,Agence Généraliste Terrassement Elévation
542,44.1086,4.1033,04 66 60 51 51,agence0542@kiloutou.fr,Lundi,07:00-12:00 & 13:30-18:00,Mardi,07:00-12:00 & 13:30-18:00,Mercredi,07:00-12:00 & 13:30-18:00,Jeudi,07:00-12:00 & 13:30-18:00,Vendredi,07:00-12:00 & 13:30-18:00,Samedi,07:00-12:00 & 13:30-18:00,Dimanche,07:00-12:00 & 13:30-18:00,ALÈS,30100,50 rue des Mésanges ZAC route de Nîmes,ALES,Agence Généraliste Terrassement Elévation
531,43.8131,4.3687,04 66 04 76 60,agence0531@kiloutou.fr,Lundi,07:00-12:00 & 13:30-18:00,Mardi,07:00-12:00 & 13:30-18:00,Mercredi,07:00-12:00 & 13:30-18:00,Jeudi,07:00-12:00 & 13:30-18:00,Vendredi,07:00-12:00 & 13:30-18:00,Samedi,07:00-12:00 & 13:30-18:00,Dimanche,07:00-12:00 & 13:30-18:00,NÎMES,30900,271 rue Michel Debré ZAC Mas des Abeilles,NIMES,Agence Généraliste
549,43.8098,4.333,04 66 38 12 33,agence0549@kiloutou.fr,Lundi,07:00-12:00 & 13:30-18:00,Mardi,07:00-12:00 & 13:30-18:00,Mercredi,07:00-12:00 & 13:30-18:00,Jeudi,07:00-12:00 & 13:30-18:00,Vendredi,07:00-12:00 & 13:30-18:00,Samedi,07:00-12:00 & 13:30-18:00,Dimanche,07:00-12:00 & 13:30-18:00,NÎMES - TP,30900,837 rue Etienne Lenoir,NIMES,Agence Terrassement
306,43.5414,1.4001,05 34 46 10 28,agence0306@kiloutou.fr,Lundi,07:00-12:00 & 13:30-18:00,Mardi,07:00-12:00 & 13:30-18:00,Mercredi,07:00-12:00 & 13:30-18:00,Jeudi,07:00-12:00 & 13:30-18:00,Vendredi,07:00-12:00 & 13:30-18:00,Samedi,07:00-12:00 & 13:30-18:00,Dimanche,07:00-12:00 & 13:30-18:00,PORTET-SUR-GARONNE - TP,31120,10 chemin des Mésanges,PORTET SUR GARONNE,Agence Terrassement
330,43.5362,1.41,05 61 76 36 78,agence0330@kiloutou.fr,Lundi,07:30-12:00 & 13:30-18:00,Mardi,07:30-12:00 & 13:30-18:00,Mercredi,07:30-12:00 & 13:30-18:00,Jeudi,07:30-12:00 & 13:30-18:00,Vendredi,07:30-12:00 & 13:30-18:00,Samedi,07:30-12:00 & 13:30-18:00,Dimanche,07:30-12:00 & 13:30-18:00,PORTET-SUR-GARONNE,31120,14 allée Pablo Picasso C.Ccial Carrefour RN 20,PORTET SUR GARONNE,Agence Généraliste
8336,43.7211,1.3833,05 61 37 52 64,kiloutou-8336@kiloutou.fr,Lundi,07:00-12:15 & 13:30-18:00,Mardi,07:00-12:15 & 13:30-18:00,Mercredi,07:00-12:15 & 13:30-18:00,Jeudi,07:00-12:15 & 13:30-18:00,Vendredi,07:00-12:15 & 13:30-18:00,Samedi,07:00-12:15 & 13:30-18:00,Dimanche,07:00-12:15 & 13:30-18:00,SCE MIDI-PYRENEES,31140,Impasse des Battants,SAINT-ALBAN,Service Commercial Elévation
Q336,43.696,1.4028,00 00 00 00 00,agenceQ336@kiloutou.fr,Lundi,08:00-12:00 & 13:30-17:00,Mardi,08:00-12:00 & 13:30-17:00,Mercredi,08:00-12:00 & 13:30-17:00,Jeudi,08:00-12:00 & 13:30-17:00,Vendredi,08:00-12:00 & 13:30-17:00,Samedi,08:00-12:00 & 13:30-17:00,Dimanche,08:00-12:00 & 13:30-17:00,AGENCE ELEVATION TOULOUSE,31140,Impasse des Battants,SAINT-ALBAN,Quai Elévation Terrassement
336,43.6821,1.4076,05 61 37 52 52,agence0336@kiloutou.fr,Lundi,07:30-12:00 & 13:30-18:00,Mardi,07:30-12:00 & 13:30-18:00,Mercredi,07:30-12:00 & 13:30-18:00,Jeudi,07:30-12:00 & 13:30-18:00,Vendredi,07:30-12:00 & 13:30-18:00,Samedi,07:30-12:00 & 13:30-18:00,Dimanche,07:30-12:00 & 13:30-18:00,TOULOUSE (Fenouillet),31150,chemin de Mazurié RN 20 - ZI de Mazurié,FENOUILLET,Agence Généraliste Terrassement Elévation
333,43.6334,1.4863,05 34 25 31 60,agence0333@kiloutou.fr,Lundi,06:30 - 18:30,Mardi,06:30 - 18:30,Mercredi,06:30 - 18:30,Jeudi,06:30 - 18:30,Vendredi,06:30 - 18:30,Samedi,06:30 - 18:30,Dimanche,06:30 - 18:30,TOULOUSE (Gramont) - La Plateforme,31200,13 rue Henri Jansou La Plateforme du Bâtiment - ZA Gramont,TOULOUSE,Généraliste type 4
334,43.6204,1.4202,05 62 73 39 39,agence0334@kiloutou.fr,Lundi,06:30 - 18:30,Mardi,06:30 - 18:30,Mercredi,06:30 - 18:30,Jeudi,06:30 - 18:30,Vendredi,06:30 - 18:30,Samedi,06:30 - 18:30,Dimanche,06:30 - 18:30,TOULOUSE (Les Minimes) - La Plateforme,31200,131 chemin du Sang de Serp La Plateforme du Bâtiment - sortie 37,TOULOUSE,Généraliste type 4
337,43.6079,1.3559,05 34 56 10 10,agence0337@kiloutou.fr,Lundi,07:30-12:00 & 13:30-18:00,Mardi,07:30-12:00 & 13:30-18:00,Mercredi,07:30-12:00 & 13:30-18:00,Jeudi,07:30-12:00 & 13:30-18:00,Vendredi,07:30-12:00 & 13:30-18:00,Samedi,07:30-12:00 & 13:30-18:00,Dimanche,07:30-12:00 & 13:30-18:00,TOULOUSE (Colomiers),31300,9 rue Marius Tercé Saint Martin du Touch,TOULOUSE,Agence Généraliste
331,43.6268,1.4769,05 34 25 39 00,agence0331@kiloutou.fr,Lundi,07:30-12:00 & 13:30-18:00,Mardi,07:30-12:00 & 13:30-18:00,Mercredi,07:30-12:00 & 13:30-18:00,Jeudi,07:30-12:00 & 13:30-18:00,Vendredi,07:30-12:00 & 13:30-18:00,Samedi,07:30-12:00 & 13:30-18:00,Dimanche,07:30-12:00 & 13:30-18:00,TOULOUSE (Roseraie),31500,67 route d`Agde Angle avenue d'Atlanta,TOULOUSE,Généraliste type 3
332,43.5513,1.4174,05 62 20 75 75,agence0332@kiloutou.fr,Lundi,06:30 - 18:30,Mardi,06:30 - 18:30,Mercredi,06:30 - 18:30,Jeudi,06:30 - 18:30,Vendredi,06:30 - 18:30,Samedi,06:30 - 18:30,Dimanche,06:30 - 18:30,TOULOUSE (Chapître) - La Plateforme,31500,3 rue Jean Perrin La Plateforme du Bâtiment ZI du Chapître,TOULOUSE,Généraliste type 4
242,43.1153,0.7673,05 61 79 77 19,agence0242@kiloutou.fr,Lundi,07:00-12:00 & 13:30-18:00,Mardi,07:00-12:00 & 13:30-18:00,Mercredi,07:00-12:00 & 13:30-18:00,Jeudi,07:00-12:00 & 13:30-18:00,Vendredi,07:00-12:00 & 13:30-18:00,Samedi,07:00-12:00 & 13:30-18:00,Dimanche,07:00-12:00 & 13:30-18:00,ST GAUDENS,31800,avenue du Crabere ZAC Des Landes,ESTANCARBON,Agence Généraliste Terrassement Elévation
304,43.67,0.6,05 62 07 50 50,agence0304@kiloutou.fr,Lundi,07:30-12:00 & 13:30-18:00,Mardi,07:30-12:00 & 13:30-18:00,Mercredi,07:30-12:00 & 13:30-18:00,Jeudi,07:30-12:00 & 13:30-18:00,Vendredi,07:30-12:00 & 13:30-18:00,Samedi,07:30-12:00 & 13:30-18:00,Dimanche,07:30-12:00 & 13:30-18:00,AUCH,32000,11 bis rue Federico Garcia Lorca ZI de l'Hippodrome,AUCH,Agence Généraliste Terrassement Elévation
312,44.8175,-0.5486,05 57 59 23 23,agence0312@kiloutou.fr,Lundi,06:30-12:00 & 12:00-18:30,Mardi,06:30-12:00 & 12:00-18:30,Mercredi,06:30-12:00 & 12:00-18:30,Jeudi,06:30-12:00 & 12:00-18:30,Vendredi,06:30-12:00 & 12:00-18:30,Samedi,06:30-12:00 & 12:00-18:30,Dimanche,06:30-12:00 & 12:00-18:30,BORDEAUX - La Plateforme,33000,boulevard JJ Bosc La Plateforme du Bâtiment rue L.Pallière,BORDEAUX,Généraliste type 4
320,44.8763,-0.56,05 56 43 02 57,agence0320@kiloutou.fr,Lundi,07:00-12:00 & 13:45-18:00,Mardi,07:00-12:00 & 13:45-18:00,Mercredi,07:00-12:00 & 13:45-18:00,Jeudi,07:00-12:00 & 13:45-18:00,Vendredi,07:00-12:00 & 13:45-18:00,Samedi,07:00-12:00 & 13:45-18:00,Dimanche,07:00-12:00 & 13:45-18:00,BORDEAUX-LAC,33000,rue du Docteur Jean Vincent,BORDEAUX,Agence Généraliste
326,44.5477,-0.2642,05 56 63 83 83,agence0326@kiloutou.fr,Lundi,07:30-12:00 & 13:30-18:00,Mardi,07:30-12:00 & 13:30-18:00,Mercredi,07:30-12:00 & 13:30-18:00,Jeudi,07:30-12:00 & 13:30-18:00,Vendredi,07:30-12:00 & 13:30-18:00,Samedi,07:30-12:00 & 13:30-18:00,Dimanche,07:30-12:00 & 13:30-18:00,LANGON,33210,23 avenue Léon Jouhaux,LANGON,Agence Généraliste
148,44.6155,-1.1199,05 56 54 77 17,agence0148@kiloutou.fr,Lundi,07:30-12:00 & 13:30-18:00,Mardi,07:30-12:00 & 13:30-18:00,Mercredi,07:30-12:00 & 13:30-18:00,Jeudi,07:30-12:00 & 13:30-18:00,Vendredi,07:30-12:00 & 13:30-18:00,Samedi,07:30-12:00 & 13:30-18:00,Dimanche,07:30-12:00 & 13:30-18:00,LA TESTE,33260,290 Allée du Parc des Expositions,LA TESTE DE BUCH,Agence Généraliste Terrassement Elévation
177,44.881,-0.5117,05 56 40 09 09,agence0177@kiloutou.fr,Lundi,07:00-12:00 & 13:30-18:00,Mardi,07:00-12:00 & 13:30-18:00,Mercredi,07:00-12:00 & 13:30-18:00,Jeudi,07:00-12:00 & 13:30-18:00,Vendredi,07:00-12:00 & 13:30-18:00,Samedi,07:00-12:00 & 13:30-18:00,Dimanche,07:00-12:00 & 13:30-18:00,LORMONT - TP,33310,avenue de Paris ZA La Gardette,LORMONT,Agence Terrassement
328,44.8362,-0.4795,05 56 68 11 11,agence0328@kiloutou.fr,Lundi,07:00-12:00 & 13:30-17:30,Mardi,07:00-12:00 & 13:30-17:30,Mercredi,07:00-12:00 & 13:30-17:30,Jeudi,07:00-12:00 & 13:30-17:30,Vendredi,07:00-12:00 & 13:30-17:30,Samedi,07:00-12:00 & 13:30-17:30,Dimanche,07:00-12:00 & 13:30-17:30,TRESSES,33370,avenue de Branne Gédimat - Parc d`Activité,TRESSES,Généraliste type 4
323,44.641,-0.9532,05 57 17 18 18,agence0323@kiloutou.fr,Lundi,07:30-12:00 & 13:30-18:00,Mardi,07:30-12:00 & 13:30-18:00,Mercredi,07:30-12:00 & 13:30-18:00,Jeudi,07:30-12:00 & 13:30-18:00,Vendredi,07:30-12:00 & 13:30-18:00,Samedi,07:30-12:00 & 13:30-18:00,Dimanche,07:30-12:00 & 13:30-18:00,ARCACHON (BIGANOS),33380,16 rue Gutenberg,BIGANOS,Agence Généraliste
327,45.0374,-0.8013,05 57 71 57 57,agence0327@kiloutou.fr,Lundi,07:30-12:00 & 13:30-18:00,Mardi,07:30-12:00 & 13:30-18:00,Mercredi,07:30-12:00 & 13:30-18:00,Jeudi,07:30-12:00 & 13:30-18:00,Vendredi,07:30-12:00 & 13:30-18:00,Samedi,07:30-12:00 & 13:30-18:00,Dimanche,07:30-12:00 & 13:30-18:00,MEDOC,33480,ZA Pomeys,CASTELNAU DE MEDOC,Agence Généraliste Terrassement Elévation
322,44.944,-0.2314,05 57 55 18 18,agence0322@kiloutou.fr,Lundi,07:30-12:00 & 13:30-18:00,Mardi,07:30-12:00 & 13:30-18:00,Mercredi,07:30-12:00 & 13:30-18:00,Jeudi,07:30-12:00 & 13:30-18:00,Vendredi,07:30-12:00 & 13:30-18:00,Samedi,07:30-12:00 & 13:30-18:00,Dimanche,07:30-12:00 & 13:30-18:00,LIBOURNE,33500,avenue Georges Pompidou ZI de la Ballastière,LIBOURNE,Agence Généraliste
176,44.9462,-0.2402,05 57 55 11 11,agence0176@kiloutou.fr,Lundi,07:00-12:00 & 14:00-18:00,Mardi,07:00-12:00 & 14:00-18:00,Mercredi,07:00-12:00 & 14:00-18:00,Jeudi,07:00-12:00 & 14:00-18:00,Vendredi,07:00-12:00 & 14:00-18:00,Samedi,07:00-12:00 & 14:00-18:00,Dimanche,07:00-12:00 & 14:00-18:00,LIBOURNE - TP,33500,rue Firmin Didot ZI Les Dagueys,LIBOURNE,Agence Généraliste Terrassement Elévation
119,44.7642,-1.0693,05 56 60 59 33,agence0119@kiloutou.fr,Lundi,07:30-12:00 & 13:30-17:00,Mardi,07:30-12:00 & 13:30-17:00,Mercredi,07:30-12:00 & 13:30-17:00,Jeudi,07:30-12:00 & 13:30-17:00,Vendredi,07:30-12:00 & 13:30-17:00,Samedi,07:30-12:00 & 13:30-17:00,Dimanche,07:30-12:00 & 13:30-17:00,ANDERNOS,33510,2 rue Bernard Palissy Zone Artisanale,ANDERNOS,Agence Généraliste
310,44.8309,-0.6719,05 56 55 94 14,agence0310@kiloutou.fr,Lundi,07:00-12:00 & 13:45-18:00,Mardi,07:00-12:00 & 13:45-18:00,Mercredi,07:00-12:00 & 13:45-18:00,Jeudi,07:00-12:00 & 13:45-18:00,Vendredi,07:00-12:00 & 13:45-18:00,Samedi,07:00-12:00 & 13:45-18:00,Dimanche,07:00-12:00 & 13:45-18:00,MÉRIGNAC,33700,rue Isaac Newton ZAC Chemin Long,MERIGNAC,Agence Généraliste
311,44.835,-0.6714,05 56 12 77 00,agence0311@kiloutou.fr,Lundi,06:30-12:00 & 12:00-18:30,Mardi,06:30-12:00 & 12:00-18:30,Mercredi,06:30-12:00 & 12:00-18:30,Jeudi,06:30-12:00 & 12:00-18:30,Vendredi,06:30-12:00 & 12:00-18:30,Samedi,06:30-12:00 & 12:00-18:30,Dimanche,06:30-12:00 & 12:00-18:30,MÉRIGNAC - La Plateforme,33700,21 avenue Jean Perrin La Plateforme du Bâtiment,MERIGNAC,Généraliste type 4
195,44.8561,-0.6767,05 56 13 14 14,agence0195@kiloutou.fr,Lundi,07:00-12:00 & 13:30-18:00,Mardi,07:00-12:00 & 13:30-18:00,Mercredi,07:00-12:00 & 13:30-18:00,Jeudi,07:00-12:00 & 13:30-18:00,Vendredi,07:00-12:00 & 13:30-18:00,Samedi,07:00-12:00 & 13:30-18:00,Dimanche,07:00-12:00 & 13:30-18:00,MERIGNAC - TP,33708,38 avenue de la Grange Noire Espace Mérignac Phare,MERIGNAC,Agence Terrassement
324,44.7805,-0.5889,05 57 96 53 00,agence0324@kiloutou.fr,Lundi,07:30-12:00 & 13:30-18:00,Mardi,07:30-12:00 & 13:30-18:00,Mercredi,07:30-12:00 & 13:30-18:00,Jeudi,07:30-12:00 & 13:30-18:00,Vendredi,07:30-12:00 & 13:30-18:00,Samedi,07:30-12:00 & 13:30-18:00,Dimanche,07:30-12:00 & 13:30-18:00,VILLENAVE-D'ORNON,33884,ZI Chanteloiseau Gédimat,VILLENAVE D ORNON CEDEX,Généraliste type 4
533,43.579,3.8642,04 67 85 64 64,agence0533@kiloutou.fr,Lundi,08:00-12:00 & 13:30-18:00,Mardi,08:00-12:00 & 13:30-18:00,Mercredi,08:00-12:00 & 13:30-18:00,Jeudi,08:00-12:00 & 13:30-18:00,Vendredi,08:00-12:00 & 13:30-18:00,Samedi,08:00-12:00 & 13:30-18:00,Dimanche,08:00-12:00 & 13:30-18:00,MONTPELLIER (ZAC Garosud) - La Plateforme,34000,143 rue Patrice Lumumba La Plateforme du Bâtiment - ZAC Garosud,MONTPELLIER,Généraliste type 4
532,43.6421,3.847,04 67 91 79 79,agence0532@kiloutou.fr,Lundi,07:00-12:00 & 13:30-18:00,Mardi,07:00-12:00 & 13:30-18:00,Mercredi,07:00-12:00 & 13:30-18:00,Jeudi,07:00-12:00 & 13:30-18:00,Vendredi,07:00-12:00 & 13:30-18:00,Samedi,07:00-12:00 & 13:30-18:00,Dimanche,07:00-12:00 & 13:30-18:00,MONTPELLIER (Nord),34090,Rue de la Lironde Quartier de la Lyre,MONTPELLIER,Généraliste type 3
534,43.4206,3.719,04 99 04 08 08,agence0534@kiloutou.fr,Lundi,07:00-12:00 & 13:30-18:00,Mardi,07:00-12:00 & 13:30-18:00,Mercredi,07:00-12:00 & 13:30-18:00,Jeudi,07:00-12:00 & 13:30-18:00,Vendredi,07:00-12:00 & 13:30-18:00,Samedi,07:00-12:00 & 13:30-18:00,Dimanche,07:00-12:00 & 13:30-18:00,SÈTE,34200,1179 avenue des Eaux Blanches ZI des Eaux Blanches,SETE,Agence Généraliste Terrassement Elévation
547,43.6812,4.1461,04 67 71 97 62,agence0547@kiloutou.fr,Lundi,07:00-12:00 & 13:30-18:00,Mardi,07:00-12:00 & 13:30-18:00,Mercredi,07:00-12:00 & 13:30-18:00,Jeudi,07:00-12:00 & 13:30-18:00,Vendredi,07:00-12:00 & 13:30-18:00,Samedi,07:00-12:00 & 13:30-18:00,Dimanche,07:00-12:00 & 13:30-18:00,LUNEL,34400,180 chemin de la Vidourlenque,LUNEL,Agence Généraliste Terrassement Elévation
535,43.3337,3.2805,04 67 30 92 92,agence0535@kiloutou.fr,Lundi,07:00-12:00 & 13:30-18:00,Mardi,07:00-12:00 & 13:30-18:00,Mercredi,07:00-12:00 & 13:30-18:00,Jeudi,07:00-12:00 & 13:30-18:00,Vendredi,07:00-12:00 & 13:30-18:00,Samedi,07:00-12:00 & 13:30-18:00,Dimanche,07:00-12:00 & 13:30-18:00,VILLENEUVE-LÈS-BÉZIERS,34420,16 rue Saint Victor ZI du Capiscol (Echangeur Est),VILLENEUVE LES BEZIERS,Agence Généraliste Terrassement Elévation
218,43.3305,3.2892,04 67 39 89 89,agence0218@kiloutou.fr,Lundi,07:00-12:00 & 14:00-18:00,Mardi,07:00-12:00 & 14:00-18:00,Mercredi,07:00-12:00 & 14:00-18:00,Jeudi,07:00-12:00 & 14:00-18:00,Vendredi,07:00-12:00 & 14:00-18:00,Samedi,07:00-12:00 & 14:00-18:00,Dimanche,07:00-12:00 & 14:00-18:00,BEZIERS - TP,34420,ZI La Montagnette,VILLENEUVE LES BEZIERS,Agence Terrassement
606,43.5623,3.8413,04 67 69 11 10,agence0606@kiloutou.fr,Lundi,07:00-12:00 & 13:30-18:00,Mardi,07:00-12:00 & 13:30-18:00,Mercredi,07:00-12:00 & 13:30-18:00,Jeudi,07:00-12:00 & 13:30-18:00,Vendredi,07:00-12:00 & 13:30-18:00,Samedi,07:00-12:00 & 13:30-18:00,Dimanche,07:00-12:00 & 13:30-18:00,MONTPELLIER (Saint-Jean-de-Védas) - TP,34430,27 rue St-Exupéry ZAC Marcel Dassault,ST JEAN DE VEDAS,Agence Terrassement
530,43.579,3.934,04 67 50 08 80,agence0530@kiloutou.fr,Lundi,07:00-12:00 & 13:30-18:00,Mardi,07:00-12:00 & 13:30-18:00,Mercredi,07:00-12:00 & 13:30-18:00,Jeudi,07:00-12:00 & 13:30-18:00,Vendredi,07:00-12:00 & 13:30-18:00,Samedi,07:00-12:00 & 13:30-18:00,Dimanche,07:00-12:00 & 13:30-18:00,MONTPELLIER (Sud - Pérols),34470,route de Carnon / route des Plages agence0530@kiloutou.fr,PEROLS,Agence Généraliste Terrassement Elévation
8530,43.579,3.9341,04 67 50 49 21,kiloutou-8530@kiloutou.fr,Lundi,07:00-12:15 & 13:30-18:00,Mardi,07:00-12:15 & 13:30-18:00,Mercredi,07:00-12:15 & 13:30-18:00,Jeudi,07:00-12:15 & 13:30-18:00,Vendredi,07:00-12:15 & 13:30-18:00,Samedi,07:00-12:15 & 13:30-18:00,Dimanche,07:00-12:15 & 13:30-18:00,SCE LANGUEDOC-ROUSSILLON,34470,route de Carnon route des plages,PEROLS,Service Commercial Elévation
380,48.1042,-1.7404,02 99 14 68 68,agence0380@kiloutou.fr,Lundi,07:00-12:00 & 13:30-18:00,Mardi,07:00-12:00 & 13:30-18:00,Mercredi,07:00-12:00 & 13:30-18:00,Jeudi,07:00-12:00 & 13:30-18:00,Vendredi,07:00-12:00 & 13:30-18:00,Samedi,07:00-12:00 & 13:30-18:00,Dimanche,07:00-12:00 & 13:30-18:00,RENNES (Vezin-le-Coquet),35132,route de Lorient ZA des trois Marches,VEZIN LE COQUET,Agence Généraliste
389,48.3337,-1.1804,02 99 94 08 70,agence0389@kiloutou.fr,Lundi,07:30-12:00 & 13:30-18:00,Mardi,07:30-12:00 & 13:30-18:00,Mercredi,07:30-12:00 & 13:30-18:00,Jeudi,07:30-12:00 & 13:30-18:00,Vendredi,07:30-12:00 & 13:30-18:00,Samedi,07:30-12:00 & 13:30-18:00,Dimanche,07:30-12:00 & 13:30-18:00,FOUGÈRES (JAVENÉ),35133,Rue Eugène Freyssinet,JAVENE,Agence Généraliste Terrassement Elévation
8380,48.034,-1.7261,02 23 45 11 00,kiloutou-8380@kiloutou.fr,Lundi,07:30-12:15 & 13:30-18:00,Mardi,07:30-12:15 & 13:30-18:00,Mercredi,07:30-12:15 & 13:30-18:00,Jeudi,07:30-12:15 & 13:30-18:00,Vendredi,07:30-12:15 & 13:30-18:00,Samedi,07:30-12:15 & 13:30-18:00,Dimanche,07:30-12:15 & 13:30-18:00,SCE RENNES (BRUZ),35170,rue Edouard Branly ZA La Massue,BRUZ,SCET (mode région)
Q484,48.034,-1.726,02 23 45 11 08,agenceQ484@kiloutou.fr,Lundi,08:00-12:00 & 13:30-17:00,Mardi,08:00-12:00 & 13:30-17:00,Mercredi,08:00-12:00 & 13:30-17:00,Jeudi,08:00-12:00 & 13:30-17:00,Vendredi,08:00-12:00 & 13:30-17:00,Samedi,08:00-12:00 & 13:30-17:00,Dimanche,08:00-12:00 & 13:30-17:00,AGENCE ELEVATION DE BRUZ,35170,17 rue Edouard Branly CHEMIN DU COMMUNEL,BRUZ,Quai Elévation Terrassement
587,48.0361,-1.7236,02 23 45 11 11,agence0587@kiloutou.fr,Lundi,07:30-12:00 & 13:30-18:00,Mardi,07:30-12:00 & 13:30-18:00,Mercredi,07:30-12:00 & 13:30-18:00,Jeudi,07:30-12:00 & 13:30-18:00,Vendredi,07:30-12:00 & 13:30-18:00,Samedi,07:30-12:00 & 13:30-18:00,Dimanche,07:30-12:00 & 13:30-18:00,RENNES - TP (BRUZ),35170,25 rue Edouard Branly,BRUZ,Agence Terrassement
571,48.1189,-1.1915,02 99 74 60 02,agence0571@kiloutou.fr,Lundi,07:30-12:00 & 13:30-18:00,Mardi,07:30-12:00 & 13:30-18:00,Mercredi,07:30-12:00 & 13:30-18:00,Jeudi,07:30-12:00 & 13:30-18:00,Vendredi,07:30-12:00 & 13:30-18:00,Samedi,07:30-12:00 & 13:30-18:00,Dimanche,07:30-12:00 & 13:30-18:00,VITRÉ,35500,19 rue des Eaux ZI de Plaqué,VITRE,Agence Généraliste Terrassement Elévation
572,48.1817,-1.7214,02 21 07 01 89,agence0572@kiloutou.fr,Lundi,07:00-12:00 & 13:30-18:00,Mardi,07:00-12:00 & 13:30-18:00,Mercredi,07:00-12:00 & 13:30-18:00,Jeudi,07:00-12:00 & 13:30-18:00,Vendredi,07:00-12:00 & 13:30-18:00,Samedi,07:00-12:00 & 13:30-18:00,Dimanche,07:00-12:00 & 13:30-18:00,RENNES (Saint-Grégoire),35760,Route du Meuble Lieu-dit La Brosse,SAINT-GREGOIRE,Agence Généraliste Terrassement Elévation
358,46.7896,1.7066,02 54 24 69 69,agence0358@kiloutou.fr,Lundi,07:30-12:00 & 13:30-18:00,Mardi,07:30-12:00 & 13:30-18:00,Mercredi,07:30-12:00 & 13:30-18:00,Jeudi,07:30-12:00 & 13:30-18:00,Vendredi,07:30-12:00 & 13:30-18:00,Samedi,07:30-12:00 & 13:30-18:00,Dimanche,07:30-12:00 & 13:30-18:00,CHÂTEAUROUX,36000,32 rue Robert Mallet Stevens Lotissement Les Chevaliers - Montaigne 7,CHATEAUROUX,Agence Généraliste Terrassement Elévation
340,47.3345,0.7055,02 47 28 18 18,agence0340@kiloutou.fr,Lundi,07:30-12:00 & 13:30-18:00,Mardi,07:30-12:00 & 13:30-18:00,Mercredi,07:30-12:00 & 13:30-18:00,Jeudi,07:30-12:00 & 13:30-18:00,Vendredi,07:30-12:00 & 13:30-18:00,Samedi,07:30-12:00 & 13:30-18:00,Dimanche,07:30-12:00 & 13:30-18:00,CHAMBRAY-LES-TOURS,37170,153 avenue Grand Sud RN 10,CHAMBRAY LES TOURS,Agence Généraliste Terrassement Elévation
7300,45.7673,3.1248,02 47 86 19 56,kiloutou-7300@kiloutou.fr,Lundi,07:30-12:15 & 13:45-18:30,Mardi,07:30-12:15 & 13:45-18:30,Mercredi,07:30-12:15 & 13:45-18:30,Jeudi,07:30-12:15 & 13:45-18:30,Vendredi,07:30-12:15 & 13:45-18:30,Samedi,07:30-12:15 & 13:45-18:30,Dimanche,07:30-12:15 & 13:45-18:30,SCET REGION CENTRE,37210,450 rue Morane Saulnier,PARCAY MESLAY,SCET (mode région)
341,47.4491,0.7257,02 47 85 45 85,AGENCE0341@KILOUTOU.FR,Lundi,07:30-12:00 & 13:30-18:00,Mardi,07:30-12:00 & 13:30-18:00,Mercredi,07:30-12:00 & 13:30-18:00,Jeudi,07:30-12:00 & 13:30-18:00,Vendredi,07:30-12:00 & 13:30-18:00,Samedi,07:30-12:00 & 13:30-18:00,Dimanche,07:30-12:00 & 13:30-18:00,PARÇAY-MESLAY,37210,rond-point de l'Aviation D77,PARÇAY-MESLAY,Agence Généraliste Terrassement Elévation
801,45.1558,5.711,04 76 33 34 34,agence0801@kiloutou.fr,Lundi,07:30-12:00 & 13:30-18:00,Mardi,07:30-12:00 & 13:30-18:00,Mercredi,07:30-12:00 & 13:30-18:00,Jeudi,07:30-12:00 & 13:30-18:00,Vendredi,07:30-12:00 & 13:30-18:00,Samedi,07:30-12:00 & 13:30-18:00,Dimanche,07:30-12:00 & 13:30-18:00,GRENOBLE (Echirolles) - TP,38130,3 rue Gaston Monmousseau,ECHIROLLES,Agence Terrassement
419,45.3464,4.8037,04 74 11 24 24,agence0419@kiloutou.fr,Lundi,07:00-12:00 & 13:30-18:00,Mardi,07:00-12:00 & 13:30-18:00,Mercredi,07:00-12:00 & 13:30-18:00,Jeudi,07:00-12:00 & 13:30-18:00,Vendredi,07:00-12:00 & 13:30-18:00,Samedi,07:00-12:00 & 13:30-18:00,Dimanche,07:00-12:00 & 13:30-18:00,SALAISE-SUR-SANNE,38150,131 route Nationale 7 ZAC  Jonchain Nord,SALAISE SUR SANNE,Agence Généraliste
435,45.5498,4.8335,04 74 53 96 75,agence0435@kiloutou.fr,Lundi,07:00-12:00 & 13:30-18:00,Mardi,07:00-12:00 & 13:30-18:00,Mercredi,07:00-12:00 & 13:30-18:00,Jeudi,07:00-12:00 & 13:30-18:00,Vendredi,07:00-12:00 & 13:30-18:00,Samedi,07:00-12:00 & 13:30-18:00,Dimanche,07:00-12:00 & 13:30-18:00,VIENNE (Seyssuel),38200,882 route de Chasse-sur-Rhône ZI de Seyssuel,SEYSSUEL,Agence Généraliste
822,45.7476,5.1875,04 72 02 00 05,agence0822@kiloutou.fr,Lundi,07:00-12:00 & 13:30-18:00,Mardi,07:00-12:00 & 13:30-18:00,Mercredi,07:00-12:00 & 13:30-18:00,Jeudi,07:00-12:00 & 13:30-18:00,Vendredi,07:00-12:00 & 13:30-18:00,Samedi,07:00-12:00 & 13:30-18:00,Dimanche,07:00-12:00 & 13:30-18:00,TIGNIEU,38230,13 rue du Bochet,TIGNIEU JAMEYZIEU,Agence Généraliste Terrassement Elévation
414,45.589,5.2474,04 74 19 14 14,agence0414@kiloutou.fr,Lundi,07:00-12:00 & 13:30-18:00,Mardi,07:00-12:00 & 13:30-18:00,Mercredi,07:00-12:00 & 13:30-18:00,Jeudi,07:00-12:00 & 13:30-18:00,Vendredi,07:00-12:00 & 13:30-18:00,Samedi,07:00-12:00 & 13:30-18:00,Dimanche,07:00-12:00 & 13:30-18:00,BOURGOIN-JALLIEU,38300,4 rue Edouard Branly ZA de la Maladière,BOURGOIN JALLIEU,Agence Généraliste
421,45.1629,5.7552,04 76 25 95 95,agence0421@kiloutou.fr,Lundi,07:00-12:00 & 13:30-18:00,Mardi,07:00-12:00 & 13:30-18:00,Mercredi,07:00-12:00 & 13:30-18:00,Jeudi,07:00-12:00 & 13:30-18:00,Vendredi,07:00-12:00 & 13:30-18:00,Samedi,07:00-12:00 & 13:30-18:00,Dimanche,07:00-12:00 & 13:30-18:00,SAINT-MARTIN-D'HÈRES,38400,1 rue du Béal ZI Sud,ST MARTIN D HERES,Agence Généraliste Terrassement Elévation
443,47.0737,5.4603,03 84 70 81 81,agence0443@kiloutou.fr,Lundi,07:30-12:00 & 13:30-18:00,Mardi,07:30-12:00 & 13:30-18:00,Mercredi,07:30-12:00 & 13:30-18:00,Jeudi,07:30-12:00 & 13:30-18:00,Vendredi,07:30-12:00 & 13:30-18:00,Samedi,07:30-12:00 & 13:30-18:00,Dimanche,07:30-12:00 & 13:30-18:00,DOLE,39100,rue des Equevillons ZA les Mesnils Pasteur,DOLE,Agence Généraliste
316,43.9204,-0.448,05 58 51 08 00,agence0316@kiloutou.fr,Lundi,07:30-12:15 & 13:45-18:00,Mardi,07:30-12:15 & 13:45-18:00,Mercredi,07:30-12:15 & 13:45-18:00,Jeudi,07:30-12:15 & 13:45-18:00,Vendredi,07:30-12:15 & 13:45-18:00,Samedi,07:30-12:15 & 13:45-18:00,Dimanche,07:30-12:15 & 13:45-18:00,MONT-DE-MARSAN (Saint-Avit),40090,391 allée de Lagace ZA de la Faisanderie,ST AVIT,Agence Généraliste Terrassement Elévation
319,43.717,-1.1268,05 58 97 65 65,agence0319@kiloutou.fr,Lundi,07:30-12:00 & 13:30-18:00,Mardi,07:30-12:00 & 13:30-18:00,Mercredi,07:30-12:00 & 13:30-18:00,Jeudi,07:30-12:00 & 13:30-18:00,Vendredi,07:30-12:00 & 13:30-18:00,Samedi,07:30-12:00 & 13:30-18:00,Dimanche,07:30-12:00 & 13:30-18:00,DAX (Mées),40990,Avenue de l'Océan,MEES,Agence Généraliste Terrassement Elévation
355,47.6065,1.3156,02 54 55 45 45,agence0355@kiloutou.fr,Lundi,07:30-12:00 & 13:30-18:00,Mardi,07:30-12:00 & 13:30-18:00,Mercredi,07:30-12:00 & 13:30-18:00,Jeudi,07:30-12:00 & 13:30-18:00,Vendredi,07:30-12:00 & 13:30-18:00,Samedi,07:30-12:00 & 13:30-18:00,Dimanche,07:30-12:00 & 13:30-18:00,BLOIS,41000,1 rue Simone et Cino Del Duca ZI Nord,BLOIS,Agence Généraliste Terrassement Elévation
8460,45.4623,4.3986,04 77 79 63 67,kiloutou-8460@kiloutou.fr,Lundi,07:00-12:00 & 13:30-17:30,Mardi,07:00-12:00 & 13:30-17:30,Mercredi,07:00-12:00 & 13:30-17:30,Jeudi,07:00-12:00 & 13:30-17:30,Vendredi,07:00-12:00 & 13:30-17:30,Samedi,07:00-12:00 & 13:30-17:30,Dimanche,07:00-12:00 & 13:30-17:30,SCE ST ETIENNE,42000,Agence Elévation 3 rue Victor Grignard,ST ETIENNE,Service Commercial Elévation
460,45.4565,4.4093,04 77 33 60 60,agence0460@kiloutou.fr,Lundi,07:00-12:00 & 13:30-18:00,Mardi,07:00-12:00 & 13:30-18:00,Mercredi,07:00-12:00 & 13:30-18:00,Jeudi,07:00-12:00 & 13:30-18:00,Vendredi,07:00-12:00 & 13:30-18:00,Samedi,07:00-12:00 & 13:30-18:00,Dimanche,07:00-12:00 & 13:30-18:00,SAINT-ETIENNE,42000,rue du Rocher ZI Necker,ST ETIENNE,Agence Généraliste Terrassement Elévation
Q464,45.4618,4.3989,04 77 79 63 67,kiloutou-8460@kiloutou.fr,Lundi,08:00-12:00 & 13:30-17:00,Mardi,08:00-12:00 & 13:30-17:00,Mercredi,08:00-12:00 & 13:30-17:00,Jeudi,08:00-12:00 & 13:30-17:00,Vendredi,08:00-12:00 & 13:30-17:00,Samedi,08:00-12:00 & 13:30-17:00,Dimanche,08:00-12:00 & 13:30-17:00,AGENCE ELEVATION DE ST ETIENNE,42000,3 rue Victor Grignard,ST ETIENNE,Quai Elévation Terrassement
463,45.5315,4.287,04 77 02 06 56,agence0463@kiloutou.fr,Lundi,07:00-12:00 & 13:30-18:00,Mardi,07:00-12:00 & 13:30-18:00,Mercredi,07:00-12:00 & 13:30-18:00,Jeudi,07:00-12:00 & 13:30-18:00,Vendredi,07:00-12:00 & 13:30-18:00,Samedi,07:00-12:00 & 13:30-18:00,Dimanche,07:00-12:00 & 13:30-18:00,ANDREZIEUX-BOUTHEON,42160,rue Edouard Garet Parc les Communaux,ANDREZIEUX BOUTHEON,Agence Généraliste Terrassement Elévation
461,46.054,4.0827,04 77 72 85 85,agence0461@kiloutou.fr,Lundi,07:00-12:00 & 13:30-18:00,Mardi,07:00-12:00 & 13:30-18:00,Mercredi,07:00-12:00 & 13:30-18:00,Jeudi,07:00-12:00 & 13:30-18:00,Vendredi,07:00-12:00 & 13:30-18:00,Samedi,07:00-12:00 & 13:30-18:00,Dimanche,07:00-12:00 & 13:30-18:00,ROANNE,42300,7 avenue du Polygone,ROANNE,Agence Généraliste Terrassement Elévation
465,45.0557,3.96,04 71 01 09 09,agence0465@kiloutou.fr,Lundi,07:00-12:00 & 13:30-18:00,Mardi,07:00-12:00 & 13:30-18:00,Mercredi,07:00-12:00 & 13:30-18:00,Jeudi,07:00-12:00 & 13:30-18:00,Vendredi,07:00-12:00 & 13:30-18:00,Samedi,07:00-12:00 & 13:30-18:00,Dimanche,07:00-12:00 & 13:30-18:00,LE PUY-EN-VELAY (Saint-Germain-Laprade),43700,rue Jean Monnet ZI de Blavozy,ST GERMAIN LAPRADE,Agence Généraliste Terrassement Elévation
Q482,47.2577,-1.502,02 28 01 36 10,agence0482@kiloutou.fr,Lundi,08:00-12:00 & 13:30-17:00,Mardi,08:00-12:00 & 13:30-17:00,Mercredi,08:00-12:00 & 13:30-17:00,Jeudi,08:00-12:00 & 13:30-17:00,Vendredi,08:00-12:00 & 13:30-17:00,Samedi,08:00-12:00 & 13:30-17:00,Dimanche,08:00-12:00 & 13:30-17:00,AGENCE ELEVATION DE NANTES,44000,5 RUE D'ITALIE,NANTES,Quai Elévation Terrassement
369,47.187,-1.4848,02 40 13 43 43,agence0369@kiloutou.fr,Lundi,07:00-12:00 & 13:30-18:00,Mardi,07:00-12:00 & 13:30-18:00,Mercredi,07:00-12:00 & 13:30-18:00,Jeudi,07:00-12:00 & 13:30-18:00,Vendredi,07:00-12:00 & 13:30-18:00,Samedi,07:00-12:00 & 13:30-18:00,Dimanche,07:00-12:00 & 13:30-18:00,NANTES (Vertou),44120,432 route de Clisson,VERTOU,Agence Généraliste Terrassement Elévation
574,47.114,-2.065,02 40 82 68 57,agence0574@kiloutou.fr,Lundi,07:30-12:00 & 13:30-18:00,Mardi,07:30-12:00 & 13:30-18:00,Mercredi,07:30-12:00 & 13:30-18:00,Jeudi,07:30-12:00 & 13:30-18:00,Vendredi,07:30-12:00 & 13:30-18:00,Samedi,07:30-12:00 & 13:30-18:00,Dimanche,07:30-12:00 & 13:30-18:00,PORNIC,44210,5 rue Pierre et Marie Curie ZI de la Blavetière,PORNIC,Agence Généraliste Terrassement Elévation
8482,47.258,-1.5015,02 28 01 36 10,kiloutou-8482@kiloutou.fr,Lundi,07:30-12:15 & 13:30-18:00,Mardi,07:30-12:15 & 13:30-18:00,Mercredi,07:30-12:15 & 13:30-18:00,Jeudi,07:30-12:15 & 13:30-18:00,Vendredi,07:30-12:15 & 13:30-18:00,Samedi,07:30-12:15 & 13:30-18:00,Dimanche,07:30-12:15 & 13:30-18:00,SCE NANTES,44332,3 rue d'Italie,NANTES CEDEX 3,Service Commercial Elévation
371,47.1958,-1.5715,02 28 00 02 80,agence0371@kiloutou.fr,Lundi,07:30-12:00 & 13:30-18:00,Mardi,07:30-12:00 & 13:30-18:00,Mercredi,07:30-12:00 & 13:30-18:00,Jeudi,07:30-12:00 & 13:30-18:00,Vendredi,07:30-12:00 & 13:30-18:00,Samedi,07:30-12:00 & 13:30-18:00,Dimanche,07:30-12:00 & 13:30-18:00,NANTES (Rezé),44400,avenue du Maréchal Delattre de Tassigny Zone Atout Sud,REZE,Généraliste type 3
Q481,47.3301,-2.1319,02 40 90 40 52,kiloutou-8487@kiloutou.fr,Lundi,08:00-12:00 & 13:30-17:00,Mardi,08:00-12:00 & 13:30-17:00,Mercredi,08:00-12:00 & 13:30-17:00,Jeudi,08:00-12:00 & 13:30-17:00,Vendredi,08:00-12:00 & 13:30-17:00,Samedi,08:00-12:00 & 13:30-17:00,Dimanche,08:00-12:00 & 13:30-17:00,AGENCE ELEVATION DE ST NAZAIRE (Montoir de Bretagne),44550,17-19 rue des Gagneries,MONTOIR DE BRETAGNE,Quai Elévation Terrassement
575,47.296,-2.297,02 40 91 51 54,agence0575@kiloutou.fr,Lundi,07:30-12:00 & 13:30-18:00,Mardi,07:30-12:00 & 13:30-18:00,Mercredi,07:30-12:00 & 13:30-18:00,Jeudi,07:30-12:00 & 13:30-18:00,Vendredi,07:30-12:00 & 13:30-18:00,Samedi,07:30-12:00 & 13:30-18:00,Dimanche,07:30-12:00 & 13:30-18:00,SAINT-NAZAIRE - TP,44600,rue de Réaumur ZAC de Brais,ST NAZAIRE,Agence Terrassement
372,47.2598,-2.282,02 40 17 01 01,agence0372@kiloutou.fr,Lundi,07:30-12:00 & 13:30-18:00,Mardi,07:30-12:00 & 13:30-18:00,Mercredi,07:30-12:00 & 13:30-18:00,Jeudi,07:30-12:00 & 13:30-18:00,Vendredi,07:30-12:00 & 13:30-18:00,Samedi,07:30-12:00 & 13:30-18:00,Dimanche,07:30-12:00 & 13:30-18:00,SAINT-NAZAIRE,44600,3 route de la Fontaine Tuaud Océanis,ST NAZAIRE,Agence Généraliste
370,47.249,-1.612,02 40 63 47 53,agence0370@kiloutou.fr,Lundi,07:00-12:00 & 13:30-18:00,Mardi,07:00-12:00 & 13:30-18:00,Mercredi,07:00-12:00 & 13:30-18:00,Jeudi,07:00-12:00 & 13:30-18:00,Vendredi,07:00-12:00 & 13:30-18:00,Samedi,07:00-12:00 & 13:30-18:00,Dimanche,07:00-12:00 & 13:30-18:00,NANTES (Orvault),44700,274 route de Vannes,ORVAULT,Agence Généraliste
578,47.2291,-1.6452,02 28 25 01 05,agence0578@kiloutou.fr,Lundi,07:00-12:00 & 13:30-17:30,Mardi,07:00-12:00 & 13:30-17:30,Mercredi,07:00-12:00 & 13:30-17:30,Jeudi,07:00-12:00 & 13:30-17:30,Vendredi,07:00-12:00 & 13:30-17:30,Samedi,07:00-12:00 & 13:30-17:30,Dimanche,07:00-12:00 & 13:30-17:30,NANTES OUEST (Saint-Herblain) - TP,44800,7 rue du Fondeur,ST HERBLAIN,Agence Terrassement
350,47.8766,1.9108,02 38 51 07 07,agence0350@kiloutou.fr,Lundi,07:30-12:00 & 13:30-18:00,Mardi,07:30-12:00 & 13:30-18:00,Mercredi,07:30-12:00 & 13:30-18:00,Jeudi,07:30-12:00 & 13:30-18:00,Vendredi,07:30-12:00 & 13:30-18:00,Samedi,07:30-12:00 & 13:30-18:00,Dimanche,07:30-12:00 & 13:30-18:00,ORLÉANS,45100,1 Rue Anthelme Brillat Savarin RN20 - Parc Expo Sud,ORLEANS,Agence Généraliste
8351,47.899,1.8471,02 38 72 96 98,kiloutou-8351@kiloutou.fr,Lundi,07:30-12:15 & 13:30-18:00,Mardi,07:30-12:15 & 13:30-18:00,Mercredi,07:30-12:15 & 13:30-18:00,Jeudi,07:30-12:15 & 13:30-18:00,Vendredi,07:30-12:15 & 13:30-18:00,Samedi,07:30-12:15 & 13:30-18:00,Dimanche,07:30-12:15 & 13:30-18:00,SCET Province,45140,4 rue Lavoisier,INGRE,SCET (mode région)
352,47.9347,1.8963,02 38 72 85 85,agence0352@kiloutou.fr,Lundi,07:00 - 18:00,Mardi,07:00 - 18:00,Mercredi,07:00 - 18:00,Jeudi,07:00 - 18:00,Vendredi,07:00 - 18:00,Samedi,07:00 - 18:00,Dimanche,07:00 - 18:00,FLEURY-LES-AUBRAIS - La Plateforme,45400,44 avenue André Dessaux La Plateforme du Bâtiment - RN 20,FLEURY LES AUBRAIS,Généraliste type 4
353,47.9784,2.7167,02 38 07 10 10,agence0353@kiloutou.fr,Lundi,07:30-12:00 & 13:30-18:00,Mardi,07:30-12:00 & 13:30-18:00,Mercredi,07:30-12:00 & 13:30-18:00,Jeudi,07:30-12:00 & 13:30-18:00,Vendredi,07:30-12:00 & 13:30-18:00,Samedi,07:30-12:00 & 13:30-18:00,Dimanche,07:30-12:00 & 13:30-18:00,MONTARGIS (Villemandeur),45700,130 Rue du Vieux Bourg  - Parc Mandoria agence0353@kiloutou.fr,VILLEMANDEUR,Agence Généraliste Terrassement Elévation
603,44.4785,1.417,05 65 22 39 53,agence0603@kiloutou.fr,Lundi,07:30-12:00 & 13:30-18:00,Mardi,07:30-12:00 & 13:30-18:00,Mercredi,07:30-12:00 & 13:30-18:00,Jeudi,07:30-12:00 & 13:30-18:00,Vendredi,07:30-12:00 & 13:30-18:00,Samedi,07:30-12:00 & 13:30-18:00,Dimanche,07:30-12:00 & 13:30-18:00,CAHORS,46000,ZA Englandières,CAHORS,Agence Généraliste Terrassement Elévation
329,44.5155,0.1272,05 53 76 10 50,agence0329@kiloutou.fr,Lundi,07:30-12:00 & 14:00-18:00,Mardi,07:30-12:00 & 14:00-18:00,Mercredi,07:30-12:00 & 14:00-18:00,Jeudi,07:30-12:00 & 14:00-18:00,Vendredi,07:30-12:00 & 14:00-18:00,Samedi,07:30-12:00 & 14:00-18:00,Dimanche,07:30-12:00 & 14:00-18:00,MARMANDE,47200,avenue François Mitterrand Rond Point de la Porte du Temps,MARMANDE,Agence Généraliste
168,44.1685,0.6069,05 53 68 44 10,agence0168@kiloutou.fr,Lundi,07:30-12:00 & 13:30-18:00,Mardi,07:30-12:00 & 13:30-18:00,Mercredi,07:30-12:00 & 13:30-18:00,Jeudi,07:30-12:00 & 13:30-18:00,Vendredi,07:30-12:00 & 13:30-18:00,Samedi,07:30-12:00 & 13:30-18:00,Dimanche,07:30-12:00 & 13:30-18:00,AGEN (Le Passage d'Agen),47520,Zone Artisanale La Plaine chemin de Labatisse,LE PASSAGE D'AGEN,Agence Généraliste Terrassement Elévation
115,47.4634,-0.6237,02 41 43 19 19,agence0115@kiloutou.fr,Lundi,07:30-12:00 & 13:45-18:00,Mardi,07:30-12:00 & 13:45-18:00,Mercredi,07:30-12:00 & 13:45-18:00,Jeudi,07:30-12:00 & 13:45-18:00,Vendredi,07:30-12:00 & 13:45-18:00,Samedi,07:30-12:00 & 13:45-18:00,Dimanche,07:30-12:00 & 13:45-18:00,ANGERS (BEAUCOUZÉ),49070,ZI de la Caillardière,BEAUCOUZE,Généraliste type 3
366,47.4887,-0.5058,02 41 18 08 08,agence0366@kiloutou.fr,Lundi,07:30-12:00 & 13:30-18:00,Mardi,07:30-12:00 & 13:30-18:00,Mercredi,07:30-12:00 & 13:30-18:00,Jeudi,07:30-12:00 & 13:30-18:00,Vendredi,07:30-12:00 & 13:30-18:00,Samedi,07:30-12:00 & 13:30-18:00,Dimanche,07:30-12:00 & 13:30-18:00,ANGERS (St-Barthélémy d'Anjou) - TP,49124,158 Avenue Victor Châtenay,ST BARTHELEMY D ANJOU,Agence Terrassement
8485,47.4894184,-0.5074679,02 41 44 83 61,kiloutou-8485@kiloutou.fr,Lundi,07:30-12:15 & 13:30-18:00,Mardi,07:30-12:15 & 13:30-18:00,Mercredi,07:30-12:15 & 13:30-18:00,Jeudi,07:30-12:15 & 13:30-18:00,Vendredi,07:30-12:15 & 13:30-18:00,Samedi,07:30-12:15 & 13:30-18:00,Dimanche,07:30-12:15 & 13:30-18:00,SCE MAINE ET LOIRE,49124,158 avenue victor Chatenay,ST BARTHELEMY D ANJOU,Service Commercial Elévation
471,49.111,-1.0525,02 33 06 60 00,agence0471@kiloutou.fr,Lundi,07:30-12:00 & 13:30-18:00,Mardi,07:30-12:00 & 13:30-18:00,Mercredi,07:30-12:00 & 13:30-18:00,Jeudi,07:30-12:00 & 13:30-18:00,Vendredi,07:30-12:00 & 13:30-18:00,Samedi,07:30-12:00 & 13:30-18:00,Dimanche,07:30-12:00 & 13:30-18:00,SAINT-LÔ,50000,786 rue de Saint-Jean ZI de la Capelle,ST LO,Agence Généraliste Terrassement Elévation
393,48.6576,-1.353,02 33 89 09 89,agence0393@kiloutou.fr,Lundi,07:30-12:00 & 13:30-18:00,Mardi,07:30-12:00 & 13:30-18:00,Mercredi,07:30-12:00 & 13:30-18:00,Jeudi,07:30-12:00 & 13:30-18:00,Vendredi,07:30-12:00 & 13:30-18:00,Samedi,07:30-12:00 & 13:30-18:00,Dimanche,07:30-12:00 & 13:30-18:00,AVRANCHES (Saint-Martin-des-Champs),50300,8 bis Le Grand Chien,ST MARTIN DES CHAMPS,Agence Généraliste Terrassement Elévation
391,49.6174,-1.6089,02 33 42 77 77,agence0391@kiloutou.fr,Lundi,07:30-12:00 & 13:30-18:00,Mardi,07:30-12:00 & 13:30-18:00,Mercredi,07:30-12:00 & 13:30-18:00,Jeudi,07:30-12:00 & 13:30-18:00,Vendredi,07:30-12:00 & 13:30-18:00,Samedi,07:30-12:00 & 13:30-18:00,Dimanche,07:30-12:00 & 13:30-18:00,CHERBOURG (La Glacerie),50470,844 Les Rouges Terres RN13,LA GLACERIE,Agence Généraliste Terrassement Elévation
137,48.9439,4.4022,03 26 26 56 00,agence0137@kiloutou.fr,Lundi,07:00-12:00 & 13:30-17:30,Mardi,07:00-12:00 & 13:30-17:30,Mercredi,07:00-12:00 & 13:30-17:30,Jeudi,07:00-12:00 & 13:30-17:30,Vendredi,07:00-12:00 & 13:30-17:30,Samedi,07:00-12:00 & 13:30-17:30,Dimanche,07:00-12:00 & 13:30-17:30,CHÂLONS-EN-CHAMPAGNE (Saint-Memmie),51000,6 bis rue Leprince Ringuet,CHALONS EN CHAMPAGNE,Agence Généraliste Terrassement Elévation
139,49.2345,4.0821,03 26 06 24 73,agence0139@kiloutou.fr,Lundi,07:00-12:00 & 13:30-17:30,Mardi,07:00-12:00 & 13:30-17:30,Mercredi,07:00-12:00 & 13:30-17:30,Jeudi,07:00-12:00 & 13:30-17:30,Vendredi,07:00-12:00 & 13:30-17:30,Samedi,07:00-12:00 & 13:30-17:30,Dimanche,07:00-12:00 & 13:30-17:30,REIMS - TP,51080,9 Rue des Macécliers,REIMS CEDEX,Agence Terrassement
Q133,49.2344,4.0821,03 26 06 24 73,agence0133@kiloutou.fr,Lundi,08:00-12:00 & 13:30-17:00,Mardi,08:00-12:00 & 13:30-17:00,Mercredi,08:00-12:00 & 13:30-17:00,Jeudi,08:00-12:00 & 13:30-17:00,Vendredi,08:00-12:00 & 13:30-17:00,Samedi,08:00-12:00 & 13:30-17:00,Dimanche,08:00-12:00 & 13:30-17:00,AGENCE ELEVATION DE REIMS,51100,Rue des Macecliers,Reims,Quai Elévation Terrassement
135,49.2297,4.0667,03 26 24 06 06,agence0135@kiloutou.fr,Lundi,07:30-12:00 & 13:30-17:30,Mardi,07:30-12:00 & 13:30-17:30,Mercredi,07:30-12:00 & 13:30-17:30,Jeudi,07:30-12:00 & 13:30-17:30,Vendredi,07:30-12:00 & 13:30-17:30,Samedi,07:30-12:00 & 13:30-17:30,Dimanche,07:30-12:00 & 13:30-17:30,REIMS,51100,2 A Boulevard du VAL DE VESLE,REIMS,Agence Généraliste
444,48.131,5.146,03 25 03 69 26,agence0444@kiloutou.fr,Lundi,07:30-12:00 & 13:30-18:00,Mardi,07:30-12:00 & 13:30-18:00,Mercredi,07:30-12:00 & 13:30-18:00,Jeudi,07:30-12:00 & 13:30-18:00,Vendredi,07:30-12:00 & 13:30-18:00,Samedi,07:30-12:00 & 13:30-18:00,Dimanche,07:30-12:00 & 13:30-18:00,CHAUMONT - Réseau Pro,52000,Faubourg des Quatre Moulins Réseau Pro,CHAUMONT,Agence Généraliste Terrassement Elévation
382,48.0686,-0.8002,02 43 64 30 30,agence0382@kiloutou.fr,Lundi,07:30-12:00 & 13:30-18:00,Mardi,07:30-12:00 & 13:30-18:00,Mercredi,07:30-12:00 & 13:30-18:00,Jeudi,07:30-12:00 & 13:30-18:00,Vendredi,07:30-12:00 & 13:30-18:00,Samedi,07:30-12:00 & 13:30-18:00,Dimanche,07:30-12:00 & 13:30-18:00,LAVAL (SAINT BERTHEVIN),53000,331 rue de Bretagne,LAVAL,Généraliste type 3
362,48.288,-0.612,02 43 32 15 15,agence0362@kiloutou.fr,Lundi,07:30-12:00 & 13:30-18:00,Mardi,07:30-12:00 & 13:30-18:00,Mercredi,07:30-12:00 & 13:30-18:00,Jeudi,07:30-12:00 & 13:30-18:00,Vendredi,07:30-12:00 & 13:30-18:00,Samedi,07:30-12:00 & 13:30-18:00,Dimanche,07:30-12:00 & 13:30-18:00,MAYENNE,53100,rue de la Peyennière ZI de la Peyennière,MAYENNE,Agence Généraliste Terrassement Elévation
363,47.8346,-0.6875,02 43 06 05 05,agence0363@kiloutou.fr,Lundi,07:30-12:00 & 13:30-18:00,Mardi,07:30-12:00 & 13:30-18:00,Mercredi,07:30-12:00 & 13:30-18:00,Jeudi,07:30-12:00 & 13:30-18:00,Vendredi,07:30-12:00 & 13:30-18:00,Samedi,07:30-12:00 & 13:30-18:00,Dimanche,07:30-12:00 & 13:30-18:00,CHÂTEAU-GONTIER,53200,20 avenue René Cassin ZI Bellitourne,CHATEAU GONTIER,Agence Généraliste Terrassement Elévation
8361,48.072,-0.724,02 43 67 98 51,kiloutou-8361@kiloutou.fr,Lundi,07:30-12:00 & 13:30-18:00,Mardi,07:30-12:00 & 13:30-18:00,Mercredi,07:30-12:00 & 13:30-18:00,Jeudi,07:30-12:00 & 13:30-18:00,Vendredi,07:30-12:00 & 13:30-18:00,Samedi,07:30-12:00 & 13:30-18:00,Dimanche,07:30-12:00 & 13:30-18:00,SCE MAYENNE SARTHE ORNE,53960,rue Pierre Lemonier,BONCHAMP LES LAVAL,Service Commercial Elévation
361,48.072,-0.724,02 43 67 07 67,agence0361@kiloutou.fr,Lundi,07:30-12:00 & 13:30-18:00,Mardi,07:30-12:00 & 13:30-18:00,Mercredi,07:30-12:00 & 13:30-18:00,Jeudi,07:30-12:00 & 13:30-18:00,Vendredi,07:30-12:00 & 13:30-18:00,Samedi,07:30-12:00 & 13:30-18:00,Dimanche,07:30-12:00 & 13:30-18:00,LAVAL (BONCHAMP),53960,rue Pierre Lemonier ZI Sud,BONCHAMP LES LAVAL,Agence Généraliste Terrassement Elévation
158,48.7055,6.1623,03 83 93 30 30,agence0158@kiloutou.fr,Lundi,07:00-12:00 & 13:30-18:00,Mardi,07:00-12:00 & 13:30-18:00,Mercredi,07:00-12:00 & 13:30-18:00,Jeudi,07:00-12:00 & 13:30-18:00,Vendredi,07:00-12:00 & 13:30-18:00,Samedi,07:00-12:00 & 13:30-18:00,Dimanche,07:00-12:00 & 13:30-18:00,NANCY NORD (Maxéville),54320,48 avenue du Général Patton,MAXEVILLE,Agence Généraliste
Q155,48.6544,6.1865,03 83 57 29 29,kiloutou-8155@kiloutou.fr,Lundi,08:00-12:00 & 13:30-17:00,Mardi,08:00-12:00 & 13:30-17:00,Mercredi,08:00-12:00 & 13:30-17:00,Jeudi,08:00-12:00 & 13:30-17:00,Vendredi,08:00-12:00 & 13:30-17:00,Samedi,08:00-12:00 & 13:30-17:00,Dimanche,08:00-12:00 & 13:30-17:00,AGENCE ELEVATION DE NANCY,54500,Le Dernier Sou 4 rue Jean Mermoz,VANDOEUVRE LES NANCY,Quai Elévation Terrassement
8155,48.65437,6.1865,03 83 57 29 21,kiloutou-8155@kiloutou.fr,Lundi,07:45-12:00 & 13:30-17:45,Mardi,07:45-12:00 & 13:30-17:45,Mercredi,07:45-12:00 & 13:30-17:45,Jeudi,07:45-12:00 & 13:30-17:45,Vendredi,07:45-12:00 & 13:30-17:45,Samedi,07:45-12:00 & 13:30-17:45,Dimanche,07:45-12:00 & 13:30-17:45,SCE LORRAINE SUD - BOURGOGNE,54500,4 rue Jean Mermoz Le dernier Sou,VANDOEUVRE LES NANCY,SCET (mode région)
167,48.623,6.1795,03 83 15 62 50,agence0167@kiloutou.fr,Lundi,07:00-12:00 & 13:30-18:00,Mardi,07:00-12:00 & 13:30-18:00,Mercredi,07:00-12:00 & 13:30-18:00,Jeudi,07:00-12:00 & 13:30-18:00,Vendredi,07:00-12:00 & 13:30-18:00,Samedi,07:00-12:00 & 13:30-18:00,Dimanche,07:00-12:00 & 13:30-18:00,NANCY (Ludres) - TP,54710,520  rue du Franclos Zone Industrielle Franclos 2,LUDRES,Agence Terrassement
505,49.5113,5.7364,03 82 25 26 00,agence0505@kiloutou.fr,Lundi,07:00-12:00 & 13:30-18:00,Mardi,07:00-12:00 & 13:30-18:00,Mercredi,07:00-12:00 & 13:30-18:00,Jeudi,07:00-12:00 & 13:30-18:00,Vendredi,07:00-12:00 & 13:30-18:00,Samedi,07:00-12:00 & 13:30-18:00,Dimanche,07:00-12:00 & 13:30-18:00,LONGWY (Lexy),54720,80 route de Longwy,LEXY,Agence Généraliste
159,49.1502,5.374,03 29 73 74 74,agence0159@kiloutou.fr,Lundi,07:00-12:00 & 13:30-18:00,Mardi,07:00-12:00 & 13:30-18:00,Mercredi,07:00-12:00 & 13:30-18:00,Jeudi,07:00-12:00 & 13:30-18:00,Vendredi,07:00-12:00 & 13:30-18:00,Samedi,07:00-12:00 & 13:30-18:00,Dimanche,07:00-12:00 & 13:30-18:00,VERDUN,55100,boulevard de la Citadelle Moulet Matériaux,VERDUN,Agence Généraliste
385,47.6613,-2.7197,02 97 40 17 40,agence0385@kiloutou.fr,Lundi,07:30-12:00 & 13:30-18:00,Mardi,07:30-12:00 & 13:30-18:00,Mercredi,07:30-12:00 & 13:30-18:00,Jeudi,07:30-12:00 & 13:30-18:00,Vendredi,07:30-12:00 & 13:30-18:00,Samedi,07:30-12:00 & 13:30-18:00,Dimanche,07:30-12:00 & 13:30-18:00,VANNES,56000,137 rue Alain Gerbault,VANNES,Agence Généraliste Terrassement Elévation
386,47.7816,-3.3469,02 97 89 25 25,agence0386@kiloutou.fr,Lundi,07:30-12:00 & 13:30-18:00,Mardi,07:30-12:00 & 13:30-18:00,Mercredi,07:30-12:00 & 13:30-18:00,Jeudi,07:30-12:00 & 13:30-18:00,Vendredi,07:30-12:00 & 13:30-18:00,Samedi,07:30-12:00 & 13:30-18:00,Dimanche,07:30-12:00 & 13:30-18:00,LORIENT (Lanester),56600,impasse Ty Pichon,LANESTER,Agence Généraliste Terrassement Elévation
577,47.785,-3.328,02 97 81 06 63,agence0577@kiloutou.fr,Lundi,07:30-12:00 & 13:30-18:00,Mardi,07:30-12:00 & 13:30-18:00,Mercredi,07:30-12:00 & 13:30-18:00,Jeudi,07:30-12:00 & 13:30-18:00,Vendredi,07:30-12:00 & 13:30-18:00,Samedi,07:30-12:00 & 13:30-18:00,Dimanche,07:30-12:00 & 13:30-18:00,LORIENT (Caudan) - TP,56850,impasse André Rhuys,CAUDAN,Agence Terrassement
Q150,49.1432,6.1764,03 87 20 22 29,kiloutou-8150@kiloutou.fr,Lundi,07:00-12:00 & 13:30-18:00,Mardi,07:00-12:00 & 13:30-18:00,Mercredi,07:00-12:00 & 13:30-18:00,Jeudi,07:00-12:00 & 13:30-18:00,Vendredi,07:00-12:00 & 13:30-18:00,Samedi,07:00-12:00 & 13:30-18:00,Dimanche,07:00-12:00 & 13:30-18:00,AGENCE ELEVATION DE METZ,57050,6 rue Dreyfus Dupont,METZ,Quai Elévation Terrassement
8150,49.1432,6.1765,03 87 20 22 29,kiloutou-8150@kiloutou.fr,Lundi,07:45-12:00 & 13:30-17:45,Mardi,07:45-12:00 & 13:30-17:45,Mercredi,07:45-12:00 & 13:30-17:45,Jeudi,07:45-12:00 & 13:30-17:45,Vendredi,07:45-12:00 & 13:30-17:45,Samedi,07:45-12:00 & 13:30-17:45,Dimanche,07:45-12:00 & 13:30-17:45,SCE LORRAINE NORD,57070,6 rue Dreyfus Dupont,METZ,SCET (mode région)
151,49.0909,6.1296,03 87 50 85 00,agence0151@kiloutou.fr,Lundi,07:00-12:00 & 13:30-18:00,Mardi,07:00-12:00 & 13:30-18:00,Mercredi,07:00-12:00 & 13:30-18:00,Jeudi,07:00-12:00 & 13:30-18:00,Vendredi,07:00-12:00 & 13:30-18:00,Samedi,07:00-12:00 & 13:30-18:00,Dimanche,07:00-12:00 & 13:30-18:00,MOULINS-LES-METZ,57160,94 route de Jouy,MOULINS LES METZ,Agence Généraliste
153,49.3501,6.1383,03 82 34 12 12,agence0153@kiloutou.fr,Lundi,07:00-12:00 & 13:30-18:00,Mardi,07:00-12:00 & 13:30-18:00,Mercredi,07:00-12:00 & 13:30-18:00,Jeudi,07:00-12:00 & 13:30-18:00,Vendredi,07:00-12:00 & 13:30-18:00,Samedi,07:00-12:00 & 13:30-18:00,Dimanche,07:00-12:00 & 13:30-18:00,THIONVILLE,57180,99 rue Amédée Gordini,TERVILLE,Agence Généraliste Terrassement Elévation
154,49.1102,7.1006,03 87 27 32 32,agence0154@kiloutou.fr,Lundi,07:00-12:00 & 13:30-18:00,Mardi,07:00-12:00 & 13:30-18:00,Mercredi,07:00-12:00 & 13:30-18:00,Jeudi,07:00-12:00 & 13:30-18:00,Vendredi,07:00-12:00 & 13:30-18:00,Samedi,07:00-12:00 & 13:30-18:00,Dimanche,07:00-12:00 & 13:30-18:00,SARREGUEMINES,57200,2 rue André Rausch ZI Gutenberg,SARREGUEMINES,Agence Généraliste Terrassement Elévation
152,49.1762,6.8815,03 87 13 07 07,agence0152@kiloutou.fr,Lundi,07:00-12:00 & 13:30-18:00,Mardi,07:00-12:00 & 13:30-18:00,Mercredi,07:00-12:00 & 13:30-18:00,Jeudi,07:00-12:00 & 13:30-18:00,Vendredi,07:00-12:00 & 13:30-18:00,Samedi,07:00-12:00 & 13:30-18:00,Dimanche,07:00-12:00 & 13:30-18:00,FORBACH,57600,311 rue Nationale,FORBACH,Agence Généraliste
359,47.0254,3.1464,03 86 21 70 70,agence0359@kiloutou.fr,Lundi,07:30-12:00 & 13:30-18:00,Mardi,07:30-12:00 & 13:30-18:00,Mercredi,07:30-12:00 & 13:30-18:00,Jeudi,07:30-12:00 & 13:30-18:00,Vendredi,07:30-12:00 & 13:30-18:00,Samedi,07:30-12:00 & 13:30-18:00,Dimanche,07:30-12:00 & 13:30-18:00,NEVERS,58640,1 rue Antoine de Saint-Exupéry,VARENNES-VAUZELLES,Agence Généraliste Terrassement Elévation
130,50.6286,3.0372,03 20 09 42 25,agence0130@kiloutou.fr,Lundi,07:00-12:00 & 13:30-18:00,Mardi,07:00-12:00 & 13:30-18:00,Mercredi,07:00-12:00 & 13:30-18:00,Jeudi,07:00-12:00 & 13:30-18:00,Vendredi,07:00-12:00 & 13:30-18:00,Samedi,07:00-12:00 & 13:30-18:00,Dimanche,07:00-12:00 & 13:30-18:00,LILLE,59000,21 ter rue de Turenne,LILLE,Agence Généraliste
113,50.7064,3.1776,03 20 28 63 00,agence0113@kiloutou.fr,Lundi,07:30-12:00 & 13:30-17:00,Mardi,07:30-12:00 & 13:30-17:00,Mercredi,07:30-12:00 & 13:30-17:00,Jeudi,07:30-12:00 & 13:30-17:00,Vendredi,07:30-12:00 & 13:30-17:00,Samedi,07:30-12:00 & 13:30-17:00,Dimanche,07:30-12:00 & 13:30-17:00,ROUBAIX - La Plateforme,59100,30 quai de Gand La Plateforme du Bâtiment,ROUBAIX,Généraliste type 4
142,50.343,3.478,03 27 28 70 00,agence0142@kiloutou.fr,Lundi,07:30-12:00 & 13:30-17:00,Mardi,07:30-12:00 & 13:30-17:00,Mercredi,07:30-12:00 & 13:30-17:00,Jeudi,07:30-12:00 & 13:30-17:00,Vendredi,07:30-12:00 & 13:30-17:00,Samedi,07:30-12:00 & 13:30-17:00,Dimanche,07:30-12:00 & 13:30-17:00,VALENCIENNES - TP,59125,ZA les Poutrelles,TRITH ST LEGER,Agence Terrassement
191,50.6399,2.97,03 20 10 82 82,agence0191@kiloutou.fr,Lundi,07:30-12:00 & 13:30-17:00,Mardi,07:30-12:00 & 13:30-17:00,Mercredi,07:30-12:00 & 13:30-17:00,Jeudi,07:30-12:00 & 13:30-17:00,Vendredi,07:30-12:00 & 13:30-17:00,Samedi,07:30-12:00 & 13:30-17:00,Dimanche,07:30-12:00 & 13:30-17:00,CAPINGHEM - LOMME,59160,74 rue des Fusillés,CAPINGHEM,Agence Généraliste
192,50.7287,2.5507,03 28 44 09 09,agence0192@kiloutou.fr,Lundi,07:30-12:00 & 13:30-18:00,Mardi,07:30-12:00 & 13:30-18:00,Mercredi,07:30-12:00 & 13:30-18:00,Jeudi,07:30-12:00 & 13:30-18:00,Vendredi,07:30-12:00 & 13:30-18:00,Samedi,07:30-12:00 & 13:30-18:00,Dimanche,07:30-12:00 & 13:30-18:00,HAZEBROUCK,59190,route de Borre Parking Chrétien Matériaux,HAZEBROUCK,Généraliste type 3
111,50.7368,3.1528,03 20 25 70 10,agence0111@kiloutou.fr,Lundi,07:00-12:00 & 13:30-18:00,Mardi,07:00-12:00 & 13:30-18:00,Mercredi,07:00-12:00 & 13:30-18:00,Jeudi,07:00-12:00 & 13:30-18:00,Vendredi,07:00-12:00 & 13:30-18:00,Samedi,07:00-12:00 & 13:30-18:00,Dimanche,07:00-12:00 & 13:30-18:00,TOURCOING,59200,220 chaussée Fernand Forest,TOURCOING,Agence Généraliste
120,51.0089,2.3809,03 28 24 56 56,agence0120@kiloutou.fr,Lundi,07:00-12:00 & 13:30-18:00,Mardi,07:00-12:00 & 13:30-18:00,Mercredi,07:00-12:00 & 13:30-18:00,Jeudi,07:00-12:00 & 13:30-18:00,Vendredi,07:00-12:00 & 13:30-18:00,Samedi,07:00-12:00 & 13:30-18:00,Dimanche,07:00-12:00 & 13:30-18:00,COUDEKERQUE,59210,49 route de Bergues,COUDEKERQUE BRANCHE,Agence Généraliste Terrassement Elévation
Q127,51.0097,2.3805,03 28 64 22 22,agenceQ127@kiloutou.fr,Lundi,08:00-12:00 & 13:30-17:00,Mardi,08:00-12:00 & 13:30-17:00,Mercredi,08:00-12:00 & 13:30-17:00,Jeudi,08:00-12:00 & 13:30-17:00,Vendredi,08:00-12:00 & 13:30-17:00,Samedi,08:00-12:00 & 13:30-17:00,Dimanche,08:00-12:00 & 13:30-17:00,AGENCE ELEVATION DE COUDEKERQUE,59210,48 T Route de Bergues,COUDEKERQUE BRANCHE,Quai Elévation Terrassement
112,50.6542,3.121,03 20 65 52 52,agence0112@kiloutou.fr,Lundi,06:30-12:00 & 12:00-18:30,Mardi,06:30-12:00 & 12:00-18:30,Mercredi,06:30-12:00 & 12:00-18:30,Jeudi,06:30-12:00 & 12:00-18:30,Vendredi,06:30-12:00 & 12:00-18:30,Samedi,06:30-12:00 & 12:00-18:30,Dimanche,06:30-12:00 & 12:00-18:30,WASQUEHAL - La Plateforme,59290,30 rue de la Couture La Plateforme du Bâtiment - ZI Pilaterie,WASQUEHAL,Généraliste type 4
140,50.3511,3.4922,03 27 46 25 26,agence0140@kiloutou.fr,Lundi,07:00-12:00 & 13:30-18:00,Mardi,07:00-12:00 & 13:30-18:00,Mercredi,07:00-12:00 & 13:30-18:00,Jeudi,07:00-12:00 & 13:30-18:00,Vendredi,07:00-12:00 & 13:30-18:00,Samedi,07:00-12:00 & 13:30-18:00,Dimanche,07:00-12:00 & 13:30-18:00,VALENCIENNES,59300,198 avenue de Denain,VALENCIENNES,Agence Généraliste
184,50.1616,3.2261,03 27 78 88 88,agence0184@kiloutou.fr,Lundi,07:30-12:00 & 13:30-18:00,Mardi,07:30-12:00 & 13:30-18:00,Mercredi,07:30-12:00 & 13:30-18:00,Jeudi,07:30-12:00 & 13:30-18:00,Vendredi,07:30-12:00 & 13:30-18:00,Samedi,07:30-12:00 & 13:30-18:00,Dimanche,07:30-12:00 & 13:30-18:00,CAMBRAI,59400,1048 avenue de Paris,CAMBRAI,Agence Généraliste Terrassement Elévation
182,50.3799,03.09,03 27 08 19 19,agence0182@kiloutou.fr,Lundi,07:30-12:00 & 13:30-18:00,Mardi,07:30-12:00 & 13:30-18:00,Mercredi,07:30-12:00 & 13:30-18:00,Jeudi,07:30-12:00 & 13:30-18:00,Vendredi,07:30-12:00 & 13:30-18:00,Samedi,07:30-12:00 & 13:30-18:00,Dimanche,07:30-12:00 & 13:30-18:00,DOUAI,59500,299 boulevard Vauban,DOUAI,Agence Généraliste Terrassement Elévation
141,50.2805,3.9573,03 27 56 59 59,agence0141@kiloutou.fr,Lundi,07:30-12:00 & 13:30-18:00,Mardi,07:30-12:00 & 13:30-18:00,Mercredi,07:30-12:00 & 13:30-18:00,Jeudi,07:30-12:00 & 13:30-18:00,Vendredi,07:30-12:00 & 13:30-18:00,Samedi,07:30-12:00 & 13:30-18:00,Dimanche,07:30-12:00 & 13:30-18:00,MAUBEUGE,59600,rue du Faubourg Saint-Quentin,MAUBEUGE,Agence Généraliste Terrassement Elévation
Q190,50.5979,3.1316,03 28 33 39 31,pboulnois@kiloutou.fr,Lundi,08:00-12:00 & 13:30-17:00,Mardi,08:00-12:00 & 13:30-17:00,Mercredi,08:00-12:00 & 13:30-17:00,Jeudi,08:00-12:00 & 13:30-17:00,Vendredi,08:00-12:00 & 13:30-17:00,Samedi,08:00-12:00 & 13:30-17:00,Dimanche,08:00-12:00 & 13:30-17:00,AGENCE ELEVATION DE LILLE,59810,119 rue Pierre Brizon,LESQUIN,Quai Elévation Terrassement
8190,50.5979,3.1316,03 28 33 39 30,kiloutou-8190@kiloutou.fr,Lundi,08:00-12:00 & 13:30-17:00,Mardi,08:00-12:00 & 13:30-17:00,Mercredi,08:00-12:00 & 13:30-17:00,Jeudi,08:00-12:00 & 13:30-17:00,Vendredi,08:00-12:00 & 13:30-17:00,Samedi,08:00-12:00 & 13:30-17:00,Dimanche,08:00-12:00 & 13:30-17:00,SCE NORD PAS DE CALAIS,59810,119 rue Pierre Brizon,LESQUIN,Service Commercial Elévation
190,50.586,3.088,03 20 97 27 27,agence0190@kiloutou.fr,Lundi,07:00-12:00 & 13:30-18:00,Mardi,07:00-12:00 & 13:30-18:00,Mercredi,07:00-12:00 & 13:30-18:00,Jeudi,07:00-12:00 & 13:30-18:00,Vendredi,07:00-12:00 & 13:30-18:00,Samedi,07:00-12:00 & 13:30-18:00,Dimanche,07:00-12:00 & 13:30-18:00,LESQUIN,59810,RUE DE DOUAI Zone commerciale AUCHAN FACHES THUMESNIL,LESQUIN,Agence Généraliste
117,50.6539,2.904,03 20 66 73 73,agence0117@kiloutou.fr,Lundi,07:00-12:00 & 13:30-18:00,Mardi,07:00-12:00 & 13:30-18:00,Mercredi,07:00-12:00 & 13:30-18:00,Jeudi,07:00-12:00 & 13:30-18:00,Vendredi,07:00-12:00 & 13:30-18:00,Samedi,07:00-12:00 & 13:30-18:00,Dimanche,07:00-12:00 & 13:30-18:00,LA CHAPELLE D'ARMENTIERES,59930,9023 Rue André Ampère,LA CHAPELLE D ARMENTIERES,Agence Généraliste Terrassement Elévation
284,49.1599,2.2589,01 34 41 10 10,agence0284@kiloutou.fr,Lundi,07:30-12:00 & 13:30-18:00,Mardi,07:30-12:00 & 13:30-18:00,Mercredi,07:30-12:00 & 13:30-18:00,Jeudi,07:30-12:00 & 13:30-18:00,Vendredi,07:30-12:00 & 13:30-18:00,Samedi,07:30-12:00 & 13:30-18:00,Dimanche,07:30-12:00 & 13:30-18:00,CHAMBLY,60230,401 route de Beaumont,CHAMBLY,Généraliste type 3
289,49.3574,2.7728,03 44 44 86 00,agence0289@kiloutou.fr,Lundi,07:00-12:00 & 13:30-18:00,Mardi,07:00-12:00 & 13:30-18:00,Mercredi,07:00-12:00 & 13:30-18:00,Jeudi,07:00-12:00 & 13:30-18:00,Vendredi,07:00-12:00 & 13:30-18:00,Samedi,07:00-12:00 & 13:30-18:00,Dimanche,07:00-12:00 & 13:30-18:00,COMPIÈGNE (Lacroix-Saint-Ouen),60610,rue de l'Oise ZI des Longues Raies,LACROIX ST OUEN,Agence Généraliste Terrassement Elévation
285,49.2423,2.4689,03 44 28 49 49,agence0285@kiloutou.fr,Lundi,07:00-12:00 & 13:30-18:00,Mardi,07:00-12:00 & 13:30-18:00,Mercredi,07:00-12:00 & 13:30-18:00,Jeudi,07:00-12:00 & 13:30-18:00,Vendredi,07:00-12:00 & 13:30-18:00,Samedi,07:00-12:00 & 13:30-18:00,Dimanche,07:00-12:00 & 13:30-18:00,CREIL (Saint-Maximin),60740,578 rue Claire Lacombe ZAC du Bois des Fenêtres,ST MAXIMIN,Agence Généraliste Terrassement Elévation
183,50.2996,2.728,03 21 15 39 39,agence0183@kiloutou.fr,Lundi,07:00-12:00 & 13:30-18:00,Mardi,07:00-12:00 & 13:30-18:00,Mercredi,07:00-12:00 & 13:30-18:00,Jeudi,07:00-12:00 & 13:30-18:00,Vendredi,07:00-12:00 & 13:30-18:00,Samedi,07:00-12:00 & 13:30-18:00,Dimanche,07:00-12:00 & 13:30-18:00,ARRAS,62000,rue Léon Foucault route de Saint-Pol,ARRAS,Agence Généraliste
121,50.9527,1.9073,03 21 17 70 70,agence0121@kiloutou.fr,Lundi,07:00-12:00 & 13:30-18:00,Mardi,07:00-12:00 & 13:30-18:00,Mercredi,07:00-12:00 & 13:30-18:00,Jeudi,07:00-12:00 & 13:30-18:00,Vendredi,07:00-12:00 & 13:30-18:00,Samedi,07:00-12:00 & 13:30-18:00,Dimanche,07:00-12:00 & 13:30-18:00,CALAIS,62100,rue Marcel Dassault ZA Marcel Doret,CALAIS,Agence Généraliste Terrassement Elévation
122,50.74,2.2605,03 21 12 93 13,agence0122@kiloutou.fr,Lundi,07:00-12:00 & 13:30-18:00,Mardi,07:00-12:00 & 13:30-18:00,Mercredi,07:00-12:00 & 13:30-18:00,Jeudi,07:00-12:00 & 13:30-18:00,Vendredi,07:00-12:00 & 13:30-18:00,Samedi,07:00-12:00 & 13:30-18:00,Dimanche,07:00-12:00 & 13:30-18:00,SAINT-OMER (Longuenesse),62219,1 route des Bruyères EUROCAP,LONGUENESSE,Agence Généraliste Terrassement Elévation
125,50.6946,1.6091,03 91 90 42 42,agence0125@kiloutou.fr,Lundi,07:30-12:00 & 13:30-18:00,Mardi,07:30-12:00 & 13:30-18:00,Mercredi,07:30-12:00 & 13:30-18:00,Jeudi,07:30-12:00 & 13:30-18:00,Vendredi,07:30-12:00 & 13:30-18:00,Samedi,07:30-12:00 & 13:30-18:00,Dimanche,07:30-12:00 & 13:30-18:00,BOULOGNE-SUR-MER (Saint-Léonard),62360,107 boulevard de la Liane,ST LEONARD,Agence Généraliste
131,50.5364,2.6488,03 91 80 58 00,agence0131@kiloutou.fr,Lundi,07:00-12:00 & 13:30-18:00,Mardi,07:00-12:00 & 13:30-18:00,Mercredi,07:00-12:00 & 13:30-18:00,Jeudi,07:00-12:00 & 13:30-18:00,Vendredi,07:00-12:00 & 13:30-18:00,Samedi,07:00-12:00 & 13:30-18:00,Dimanche,07:00-12:00 & 13:30-18:00,BÉTHUNE,62400,1 avenue de la Ferme du Roy,BETHUNE,Agence Généraliste Terrassement Elévation
180,50.4134,2.9817,03 21 49 44 44,agence0180@kiloutou.fr,Lundi,07:30-12:00 & 13:30-18:00,Mardi,07:30-12:00 & 13:30-18:00,Mercredi,07:30-12:00 & 13:30-18:00,Jeudi,07:30-12:00 & 13:30-18:00,Vendredi,07:30-12:00 & 13:30-18:00,Samedi,07:30-12:00 & 13:30-18:00,Dimanche,07:30-12:00 & 13:30-18:00,NOYELLES-GODAULT,62950,Centre Commercial Auchan,NOYELLES GODAULT,Agence Généraliste
450,45.7673,3.1248,04 73 26 80 00,agence0450@kiloutou.fr,Lundi,07:30-12:00 & 13:30-18:00,Mardi,07:30-12:00 & 13:30-18:00,Mercredi,07:30-12:00 & 13:30-18:00,Jeudi,07:30-12:00 & 13:30-18:00,Vendredi,07:30-12:00 & 13:30-18:00,Samedi,07:30-12:00 & 13:30-18:00,Dimanche,07:30-12:00 & 13:30-18:00,CLERMONT-FERRAND,63000,84 boulevard Gustave Flaubert,CLERMONT FERRAND,Agence Généraliste Terrassement Elévation
147,45.8374,3.1257,04 73 16 14 14,agence0147@kiloutou.fr,Lundi,07:00-12:00 & 13:30-17:30,Mardi,07:00-12:00 & 13:30-17:30,Mercredi,07:00-12:00 & 13:30-17:30,Jeudi,07:00-12:00 & 13:30-17:30,Vendredi,07:00-12:00 & 13:30-17:30,Samedi,07:00-12:00 & 13:30-17:30,Dimanche,07:00-12:00 & 13:30-17:30,CLERMONT - TP,63118,1 rue André Citroën ZI Ladoux,CEBAZAT,Agence Terrassement
454,45.9058,3.1237,04 73 33 37 37,agence0454@kiloutou.fr,Lundi,07:30-12:00 & 13:30-18:00,Mardi,07:30-12:00 & 13:30-18:00,Mercredi,07:30-12:00 & 13:30-18:00,Jeudi,07:30-12:00 & 13:30-18:00,Vendredi,07:30-12:00 & 13:30-18:00,Samedi,07:30-12:00 & 13:30-18:00,Dimanche,07:30-12:00 & 13:30-18:00,RIOM,63201,Cap Nord ZA de Layat,RIOM CEDEX,Agence Généraliste Terrassement Elévation
452,45.553,3.266,04 73 55 75 75,agence0452@kiloutou.fr,Lundi,07:30-12:00 & 13:30-17:00,Mardi,07:30-12:00 & 13:30-17:00,Mercredi,07:30-12:00 & 13:30-17:00,Jeudi,07:30-12:00 & 13:30-17:00,Vendredi,07:30-12:00 & 13:30-17:00,Samedi,07:30-12:00 & 13:30-17:00,Dimanche,07:30-12:00 & 13:30-17:00,ISSOIRE,63500,rue Robert Schuman Parking Gédimat - ZI les Listes,ISSOIRE,Généraliste type 4
Q457,45.7527,3.1625,04 15 81 00 42,agenceq457@kiloutou.fr,Lundi,08:00-12:00 & 13:30-17:00,Mardi,08:00-12:00 & 13:30-17:00,Mercredi,08:00-12:00 & 13:30-17:00,Jeudi,08:00-12:00 & 13:30-17:00,Vendredi,08:00-12:00 & 13:30-17:00,Samedi,08:00-12:00 & 13:30-17:00,Dimanche,08:00-12:00 & 13:30-17:00,AGENCE ELEVATION ET TERRASSEMENT DE COURNON,63800,49 avenue d'Aubière,COURNON D AUVERGNE,Quai Elévation Terrassement
197,43.3197,-0.3058,05 59 80 73 90,agence0197@kiloutou.fr,Lundi,07:30-12:00 & 13:30-18:00,Mardi,07:30-12:00 & 13:30-18:00,Mercredi,07:30-12:00 & 13:30-18:00,Jeudi,07:30-12:00 & 13:30-18:00,Vendredi,07:30-12:00 & 13:30-18:00,Samedi,07:30-12:00 & 13:30-18:00,Dimanche,07:30-12:00 & 13:30-18:00,PAU,64000,9060 avenue Alfred Nobel,PAU,Agence Généraliste Terrassement Elévation
129,43.4911,-1.4597,05 59 50 35 40,agence0129@kiloutou.fr,Lundi,07:30-12:00 & 13:30-18:00,Mardi,07:30-12:00 & 13:30-18:00,Mercredi,07:30-12:00 & 13:30-18:00,Jeudi,07:30-12:00 & 13:30-18:00,Vendredi,07:30-12:00 & 13:30-18:00,Samedi,07:30-12:00 & 13:30-18:00,Dimanche,07:30-12:00 & 13:30-18:00,BAYONNE - TP,64100,12 rue du Maréchal Juin,BAYONNE,Agence Terrassement
317,43.3315,-0.45,05 59 72 38 38,agence0317@kiloutou.fr,Lundi,07:30-12:00 & 13:30-18:00,Mardi,07:30-12:00 & 13:30-18:00,Mercredi,07:30-12:00 & 13:30-18:00,Jeudi,07:30-12:00 & 13:30-18:00,Vendredi,07:30-12:00 & 13:30-18:00,Samedi,07:30-12:00 & 13:30-18:00,Dimanche,07:30-12:00 & 13:30-18:00,PAU (Lescar),64230,85 boulevard de l'Europe RN 117,LESCAR,Agence Généraliste Terrassement Elévation
318,43.4108,-1.6171,05 59 22 65 60,agence0318@kiloutou.fr,Lundi,07:30-12:00 & 13:45-18:00,Mardi,07:30-12:00 & 13:45-18:00,Mercredi,07:30-12:00 & 13:45-18:00,Jeudi,07:30-12:00 & 13:45-18:00,Vendredi,07:30-12:00 & 13:45-18:00,Samedi,07:30-12:00 & 13:45-18:00,Dimanche,07:30-12:00 & 13:45-18:00,SAINT-JEAN-DE-LUZ,64500,17 rue Belharra ZI du Jalday,ST JEAN DE LUZ,Agence Généraliste
401,43.2229,0.0335,05 62 53 00 00,agence0401@kiloutou.fr,Lundi,07:30-12:15 & 13:45-18:00,Mardi,07:30-12:15 & 13:45-18:00,Mercredi,07:30-12:15 & 13:45-18:00,Jeudi,07:30-12:15 & 13:45-18:00,Vendredi,07:30-12:15 & 13:45-18:00,Samedi,07:30-12:15 & 13:45-18:00,Dimanche,07:30-12:15 & 13:45-18:00,TARBES (Ibos),65420,12 rue du Troumouse ZAC Parc des Pyrénées,IBOS,Agence Généraliste
537,42.6878,2.871,04 68 68 50 60,agence0537@kiloutou.fr,Lundi,07:00-12:00 & 13:30-18:00,Mardi,07:00-12:00 & 13:30-18:00,Mercredi,07:00-12:00 & 13:30-18:00,Jeudi,07:00-12:00 & 13:30-18:00,Vendredi,07:00-12:00 & 13:30-18:00,Samedi,07:00-12:00 & 13:30-18:00,Dimanche,07:00-12:00 & 13:30-18:00,PERPIGNAN,66000,1450 avenue Julien Panchot,PERPIGNAN,Agence Généraliste Terrassement Elévation
544,42.7332,2.891,04 68 63 66 50,agence0544@kiloutou.fr,Lundi,07:00-12:00 & 13:30-18:00,Mardi,07:00-12:00 & 13:30-18:00,Mercredi,07:00-12:00 & 13:30-18:00,Jeudi,07:00-12:00 & 13:30-18:00,Vendredi,07:00-12:00 & 13:30-18:00,Samedi,07:00-12:00 & 13:30-18:00,Dimanche,07:00-12:00 & 13:30-18:00,PERPIGNAN (Nord),66000,rue Eugène Flachat - bvd Marius Berliet Espace Polygone Nord,PERPIGNAN,Agence Généraliste
161,48.5652,7.7382,03 90 40 42 42,agence0161@kiloutou.fr,Lundi,07:00-12:00 & 13:30-18:00,Mardi,07:00-12:00 & 13:30-18:00,Mercredi,07:00-12:00 & 13:30-18:00,Jeudi,07:00-12:00 & 13:30-18:00,Vendredi,07:00-12:00 & 13:30-18:00,Samedi,07:00-12:00 & 13:30-18:00,Dimanche,07:00-12:00 & 13:30-18:00,STRASBOURG,67000,64 rue de la Plaine des Bouchers ZI de la Meinau,STRASBOURG,Agence Généraliste
Q507,48.5446,7.7974,03 88 40 00 13,kiloutou-8507@kiloutou.fr,Lundi,07:00-12:00 & 13:30-18:00,Mardi,07:00-12:00 & 13:30-18:00,Mercredi,07:00-12:00 & 13:30-18:00,Jeudi,07:00-12:00 & 13:30-18:00,Vendredi,07:00-12:00 & 13:30-18:00,Samedi,07:00-12:00 & 13:30-18:00,Dimanche,07:00-12:00 & 13:30-18:00,AGENCE ELEVATION DE STRASBOURG,67100,13 rue de Sète,STRASBOURG,Quai Elévation Terrassement
8507,48.5446,7.7974,03 88 40 00 13,kiloutou-8507@kiloutou.fr,Lundi,07:45-12:00 & 13:30-17:45,Mardi,07:45-12:00 & 13:30-17:45,Mercredi,07:45-12:00 & 13:30-17:45,Jeudi,07:45-12:00 & 13:30-17:45,Vendredi,07:45-12:00 & 13:30-17:45,Samedi,07:45-12:00 & 13:30-17:45,Dimanche,07:45-12:00 & 13:30-17:45,SCE ALSACE,67100,13 rue de Sète,STRASBOURG,SCET (mode région)
160,48.6432,7.7298,03 90 22 63 63,agence0160@kiloutou.fr,Lundi,07:00-12:00 & 13:30-18:00,Mardi,07:00-12:00 & 13:30-18:00,Mercredi,07:00-12:00 & 13:30-18:00,Jeudi,07:00-12:00 & 13:30-18:00,Vendredi,07:00-12:00 & 13:30-18:00,Samedi,07:00-12:00 & 13:30-18:00,Dimanche,07:00-12:00 & 13:30-18:00,MUNDOLSHEIM,67116,3 rue Edouard Branly,REICHSTETT,Agence Généraliste
108,48.5286,7.6874,03 69 48 20 42,agence0108@kiloutou.fr,Lundi,07:00-12:00 & 13:30-18:00,Mardi,07:00-12:00 & 13:30-18:00,Mercredi,07:00-12:00 & 13:30-18:00,Jeudi,07:00-12:00 & 13:30-18:00,Vendredi,07:00-12:00 & 13:30-18:00,Samedi,07:00-12:00 & 13:30-18:00,Dimanche,07:00-12:00 & 13:30-18:00,STRASBOURG GEISPOLSHEIM,67118,Route de Lingolsheim PA de Luetzefeld,GEISPOLSHEIM,Agence Généraliste Terrassement Elévation
109,48.8268,7.7551,03 68 03 70 05,agence0109@kiloutou.fr,Lundi,07:00-12:00 & 13:30-18:00,Mardi,07:00-12:00 & 13:30-18:00,Mercredi,07:00-12:00 & 13:30-18:00,Jeudi,07:00-12:00 & 13:30-18:00,Vendredi,07:00-12:00 & 13:30-18:00,Samedi,07:00-12:00 & 13:30-18:00,Dimanche,07:00-12:00 & 13:30-18:00,HAGUENAU,67590,3 rue du Clausenhof,SCHWEIGHOUSE SUR MODER,Agence Généraliste Terrassement Elévation
162,48.2788,7.4647,03 90 57 26 26,agence0162@kiloutou.fr,Lundi,07:00-12:00 & 13:30-18:00,Mardi,07:00-12:00 & 13:30-18:00,Mercredi,07:00-12:00 & 13:30-18:00,Jeudi,07:00-12:00 & 13:30-18:00,Vendredi,07:00-12:00 & 13:30-18:00,Samedi,07:00-12:00 & 13:30-18:00,Dimanche,07:00-12:00 & 13:30-18:00,SÉLESTAT,67600,1 rue Westrich,SELESTAT,Agence Généraliste
163,48.0955,7.3749,03 89 21 55 50,agence0163@kiloutou.fr,Lundi,07:00-12:00 & 13:30-18:00,Mardi,07:00-12:00 & 13:30-18:00,Mercredi,07:00-12:00 & 13:30-18:00,Jeudi,07:00-12:00 & 13:30-18:00,Vendredi,07:00-12:00 & 13:30-18:00,Samedi,07:00-12:00 & 13:30-18:00,Dimanche,07:00-12:00 & 13:30-18:00,COLMAR,68000,160 rue du Ladhof,COLMAR,Agence Généraliste
107,47.7239,7.2997,03 67 94 40 40,agence0107@kiloutou.fr,Lundi,07:00-12:00 & 13:30-18:00,Mardi,07:00-12:00 & 13:30-18:00,Mercredi,07:00-12:00 & 13:30-18:00,Jeudi,07:00-12:00 & 13:30-18:00,Vendredi,07:00-12:00 & 13:30-18:00,Samedi,07:00-12:00 & 13:30-18:00,Dimanche,07:00-12:00 & 13:30-18:00,DIDENHEIM,68350,23 Rue des Pyrénées,DIDENHEIM,Agence Généraliste Terrassement Elévation
165,47.7866,7.3877,03 89 31 16 16,agence0165@kiloutou.fr,Lundi,07:00-12:00 & 13:30-18:00,Mardi,07:00-12:00 & 13:30-18:00,Mercredi,07:00-12:00 & 13:30-18:00,Jeudi,07:00-12:00 & 13:30-18:00,Vendredi,07:00-12:00 & 13:30-18:00,Samedi,07:00-12:00 & 13:30-18:00,Dimanche,07:00-12:00 & 13:30-18:00,MULHOUSE (Sausheim),68390,113 rue des Bains,SAUSHEIM,Agence Généraliste Terrassement Elévation
823,45.7665,4.9311,04 78 41 08 08,agence0823@kiloutou.fr,Lundi,07:00-12:00 & 13:30-18:00,Mardi,07:00-12:00 & 13:30-18:00,Mercredi,07:00-12:00 & 13:30-18:00,Jeudi,07:00-12:00 & 13:30-18:00,Vendredi,07:00-12:00 & 13:30-18:00,Samedi,07:00-12:00 & 13:30-18:00,Dimanche,07:00-12:00 & 13:30-18:00,VAULX-EN-VELIN (GARIBALDI),69120,12 avenue Garibaldi,VAULX EN VELIN,Agence Généraliste
412,45.7121,4.8744,04 78 78 87 78,agence0412@kiloutou.fr,Lundi,06:30-12:00 & 13:30-18:30,Mardi,06:30-12:00 & 13:30-18:30,Mercredi,06:30-12:00 & 13:30-18:30,Jeudi,06:30-12:00 & 13:30-18:30,Vendredi,06:30-12:00 & 13:30-18:30,Samedi,06:30-12:00 & 13:30-18:30,Dimanche,06:30-12:00 & 13:30-18:30,VÉNISSIEUX - La Plateforme,69200,192 avenue Francis de Pressensé La Plateforme du Bâtiment,VENISSIEUX,Généraliste type 4
Q418,46.103,4.731,04 74 07 77 77,agenceQ418@kiloutou.fr,Lundi,08:00-12:00 & 13:00-17:00,Mardi,08:00-12:00 & 13:00-17:00,Mercredi,08:00-12:00 & 13:00-17:00,Jeudi,08:00-12:00 & 13:00-17:00,Vendredi,08:00-12:00 & 13:00-17:00,Samedi,08:00-12:00 & 13:00-17:00,Dimanche,08:00-12:00 & 13:00-17:00,AGENCE ELEVATION DE VILLEFRANCHE-SUR-SAÔNE,69220,Rue Gabriel Voisin Z.A. Les Fontenailles,BELLEVILLE,Quai Elévation Terrassement
413,45.7071,4.8213,04 78 50 79 07,agence0413@kiloutou.fr,Lundi,07:00-12:00 & 13:30-18:00,Mardi,07:00-12:00 & 13:30-18:00,Mercredi,07:00-12:00 & 13:30-18:00,Jeudi,07:00-12:00 & 13:30-18:00,Vendredi,07:00-12:00 & 13:30-18:00,Samedi,07:00-12:00 & 13:30-18:00,Dimanche,07:00-12:00 & 13:30-18:00,PIERRE-BÉNITE,69310,9 boulevard de l'Europe,PIERRE BENITE,Agence Généraliste
815,45.6708,4.8477,04 78 70 08 63,agence0815@kiloutou.fr,Lundi,07:00-12:00 & 13:30-18:00,Mardi,07:00-12:00 & 13:30-18:00,Mercredi,07:00-12:00 & 13:30-18:00,Jeudi,07:00-12:00 & 13:30-18:00,Vendredi,07:00-12:00 & 13:30-18:00,Samedi,07:00-12:00 & 13:30-18:00,Dimanche,07:00-12:00 & 13:30-18:00,FEYZIN,69320,CD 12 Lieu dit la Grande Serve,FEYZIN,Agence Généraliste Terrassement Elévation
811,45.678,4.7696,04 72 31 18 18,agence0811@kiloutou.fr,Lundi,07:00-12:00 & 13:30-18:00,Mardi,07:00-12:00 & 13:30-18:00,Mercredi,07:00-12:00 & 13:30-18:00,Jeudi,07:00-12:00 & 13:30-18:00,Vendredi,07:00-12:00 & 13:30-18:00,Samedi,07:00-12:00 & 13:30-18:00,Dimanche,07:00-12:00 & 13:30-18:00,BRIGNAIS,69530,Chemin de Sacuny,BRIGNAIS,Agence Généraliste Terrassement Elévation
812,45.7277,4.9626,04 78 90 12 76,agence0812@kiloutou.fr,Lundi,07:00-12:00 & 13:30-18:00,Mardi,07:00-12:00 & 13:30-18:00,Mercredi,07:00-12:00 & 13:30-18:00,Jeudi,07:00-12:00 & 13:30-18:00,Vendredi,07:00-12:00 & 13:30-18:00,Samedi,07:00-12:00 & 13:30-18:00,Dimanche,07:00-12:00 & 13:30-18:00,CHASSIEU - TP,69680,16 avenue Louis Blériot,CHASSIEU,Agence Terrassement
817,45.5781,4.7269,04 78 50 04 08,agence0817@kiloutou.fr,Lundi,07:00-12:00 & 13:30-18:00,Mardi,07:00-12:00 & 13:30-18:00,Mercredi,07:00-12:00 & 13:30-18:00,Jeudi,07:00-12:00 & 13:30-18:00,Vendredi,07:00-12:00 & 13:30-18:00,Samedi,07:00-12:00 & 13:30-18:00,Dimanche,07:00-12:00 & 13:30-18:00,GIVORS,69700,rue de la Paix ZI du Giers,GIVORS,Agence Généraliste
820,45.6975,5.0163,04 78 40 86 11,agence0820@kiloutou.fr,Lundi,07:00-12:00 & 13:30-18:00,Mardi,07:00-12:00 & 13:30-18:00,Mercredi,07:00-12:00 & 13:30-18:00,Jeudi,07:00-12:00 & 13:30-18:00,Vendredi,07:00-12:00 & 13:30-18:00,Samedi,07:00-12:00 & 13:30-18:00,Dimanche,07:00-12:00 & 13:30-18:00,SAINT-BONNET-DE-MURE,69720,126 route nationale 6,ST BONNET DE MURE,Agence Généraliste Terrassement Elévation
Q415,45.709,4.9581,04 37 60 09 43,jmloveiry@kiloutou.fr,Lundi,07:30-12:00 & 13:30-17:30,Mardi,07:30-12:00 & 13:30-17:30,Mercredi,07:30-12:00 & 13:30-17:30,Jeudi,07:30-12:00 & 13:30-17:30,Vendredi,07:30-12:00 & 13:30-17:30,Samedi,07:30-12:00 & 13:30-17:30,Dimanche,07:30-12:00 & 13:30-17:30,AGENCE ELEVATION DE LYON,69800,17 Rue Bernard PALISSY,ST PRIEST,Quai Elévation Terrassement
8400,45.709,4.9583,04 37 60 09 48,kiloutou-8400@kiloutou.fr,Lundi,07:30-12:00 & 13:30-17:30,Mardi,07:30-12:00 & 13:30-17:30,Mercredi,07:30-12:00 & 13:30-17:30,Jeudi,07:30-12:00 & 13:30-17:30,Vendredi,07:30-12:00 & 13:30-17:30,Samedi,07:30-12:00 & 13:30-17:30,Dimanche,07:30-12:00 & 13:30-17:30,SCET RHONE,69800,20 rue Bernard PALISSY ZAC du Champ Dolin - Bât B2-B4,ST PRIEST,SCET (mode région)
447,47.6378,6.1445,03 84 76 35 60,agence0447@kiloutou.fr,Lundi,07:30-12:00 & 13:30-18:00,Mardi,07:30-12:00 & 13:30-18:00,Mercredi,07:30-12:00 & 13:30-18:00,Jeudi,07:30-12:00 & 13:30-18:00,Vendredi,07:30-12:00 & 13:30-18:00,Samedi,07:30-12:00 & 13:30-18:00,Dimanche,07:30-12:00 & 13:30-18:00,VESOUL,70000,4 rue Robert Fontesse Espace de la Motte,VESOUL,Agence Généraliste
434,46.2832,4.8103,03 85 40 40 30,agence0434@kiloutou.fr,Lundi,07:00-12:00 & 13:30-18:00,Mardi,07:00-12:00 & 13:30-18:00,Mercredi,07:00-12:00 & 13:30-18:00,Jeudi,07:00-12:00 & 13:30-18:00,Vendredi,07:00-12:00 & 13:30-18:00,Samedi,07:00-12:00 & 13:30-18:00,Dimanche,07:00-12:00 & 13:30-18:00,MÂCON,71000,459 rue des Essards,MACON,Agence Généraliste Terrassement Elévation
441,46.8095,4.8525,03 85 49 19 19,agence0441@kiloutou.fr,Lundi,07:00-12:00 & 13:30-18:00,Mardi,07:00-12:00 & 13:30-18:00,Mercredi,07:00-12:00 & 13:30-18:00,Jeudi,07:00-12:00 & 13:30-18:00,Vendredi,07:00-12:00 & 13:30-18:00,Samedi,07:00-12:00 & 13:30-18:00,Dimanche,07:00-12:00 & 13:30-18:00,CHALON-SUR-SAÔNE,71100,12 rue Pierre de Coubertin,CHALON SUR SAONE,Agence Généraliste Terrassement Elévation
598,46.5706,4.059,03 85 85 42 60,agence0598@kiloutou.fr,Lundi,07:00-12:00 & 13:30-18:00,Mardi,07:00-12:00 & 13:30-18:00,Mercredi,07:00-12:00 & 13:30-18:00,Jeudi,07:00-12:00 & 13:30-18:00,Vendredi,07:00-12:00 & 13:30-18:00,Samedi,07:00-12:00 & 13:30-18:00,Dimanche,07:00-12:00 & 13:30-18:00,GUEUGNON,71130,ZI Chazey,GUEUGNON,Agence K
596,46.4657,4.1191,03 85 81 57 24,agence0596@kiloutou.fr,Lundi,07:00-12:00 & 13:30-18:00,Mardi,07:00-12:00 & 13:30-18:00,Mercredi,07:00-12:00 & 13:30-18:00,Jeudi,07:00-12:00 & 13:30-18:00,Vendredi,07:00-12:00 & 13:30-18:00,Samedi,07:00-12:00 & 13:30-18:00,Dimanche,07:00-12:00 & 13:30-18:00,PARAY LE MONIAL,71600,Rue de la Grande Bruyère,PARAY LE MONIAL,Agence Généraliste Terrassement Elévation
360,47.9649,0.1758,02 43 16 18 18,agence0360@kiloutou.fr,Lundi,07:30-12:00 & 13:30-18:00,Mardi,07:30-12:00 & 13:30-18:00,Mercredi,07:30-12:00 & 13:30-18:00,Jeudi,07:30-12:00 & 13:30-18:00,Vendredi,07:30-12:00 & 13:30-18:00,Samedi,07:30-12:00 & 13:30-18:00,Dimanche,07:30-12:00 & 13:30-18:00,LE MANS,72000,34 boulevard Lefaucheux ZI Sud,LE MANS,Agence Généraliste
164,47.9702,0.1726,02 43 84 16 16,agence0164@kiloutou.fr,Lundi,07:30-12:00 & 13:30-18:00,Mardi,07:30-12:00 & 13:30-18:00,Mercredi,07:30-12:00 & 13:30-18:00,Jeudi,07:30-12:00 & 13:30-18:00,Vendredi,07:30-12:00 & 13:30-18:00,Samedi,07:30-12:00 & 13:30-18:00,Dimanche,07:30-12:00 & 13:30-18:00,LE MANS - TP,72100,62 rue Pierre Martin ZI Sud,LE MANS,Agence Terrassement
Q488,47.9028,0.1613,02 43 87 85 70,kiloutou-8488@kiloutou.fr,Lundi,08:00-12:15 & 13:45-18:00,Mardi,08:00-12:15 & 13:45-18:00,Mercredi,08:00-12:15 & 13:45-18:00,Jeudi,08:00-12:15 & 13:45-18:00,Vendredi,08:00-12:15 & 13:45-18:00,Samedi,08:00-12:15 & 13:45-18:00,Dimanche,08:00-12:15 & 13:45-18:00,AGENCE ELEVATION DU MANS (Moncé en Belin),72230,ZAC DE LA BELLE ETOILE,MONCE EN BELIN,Quai Elévation Terrassement
106,48.0563,0.1666,02 53 15 90 40,agence0106@kiloutou.fr,Lundi,07:30-12:00 & 13:45-18:00,Mardi,07:30-12:00 & 13:45-18:00,Mercredi,07:30-12:00 & 13:45-18:00,Jeudi,07:30-12:00 & 13:45-18:00,Vendredi,07:30-12:00 & 13:45-18:00,Samedi,07:30-12:00 & 13:45-18:00,Dimanche,07:30-12:00 & 13:45-18:00,LE MANS NORD,72650,2 Boulevard de Maule,SAINT-SATURNIN,Agence Généraliste Terrassement Elévation
425,45.606,5.892,04 79 68 52 52,agence0425@kiloutou.fr,Lundi,07:00-12:00 & 13:45-18:00,Mardi,07:00-12:00 & 13:45-18:00,Mercredi,07:00-12:00 & 13:45-18:00,Jeudi,07:00-12:00 & 13:45-18:00,Vendredi,07:00-12:00 & 13:45-18:00,Samedi,07:00-12:00 & 13:45-18:00,Dimanche,07:00-12:00 & 13:45-18:00,CHAMBÉRY,73000,2773 avenue des Landiers,CHAMBERY,Agence Généraliste Terrassement Elévation
467,45.2661,6.3669,04 79 56 04 30,agence0467@kiloutou.fr,Lundi,07:30-12:00 & 13:30-18:00,Mardi,07:30-12:00 & 13:30-18:00,Mercredi,07:30-12:00 & 13:30-18:00,Jeudi,07:30-12:00 & 13:30-18:00,Vendredi,07:30-12:00 & 13:30-18:00,Samedi,07:30-12:00 & 13:30-18:00,Dimanche,07:30-12:00 & 13:30-18:00,ST JEAN DE MAURIENNE,73300,rue Antoine de St Exupery les Chaudannes Est,SAINT JEAN DE MAURIENNE,Agence Généraliste Terrassement Elévation
501,45.5069,6.0792,04 79 84 15 44,agence0501@kiloutou.fr,Lundi,07:30-12:00 & 13:30-18:00,Mardi,07:30-12:00 & 13:30-18:00,Mercredi,07:30-12:00 & 13:30-18:00,Jeudi,07:30-12:00 & 13:30-18:00,Vendredi,07:30-12:00 & 13:30-18:00,Samedi,07:30-12:00 & 13:30-18:00,Dimanche,07:30-12:00 & 13:30-18:00,ARBIN (Montmélian) - TP,73800,396 avenue des Fusillés ZI d'Arbin les Iles,MONTMELIAN,Agence Terrassement
802,45.8865,6.117,04 50 52 78 61,agence0802@kiloutou.fr,Lundi,07:30-12:15 & 13:45-18:00,Mardi,07:30-12:15 & 13:45-18:00,Mercredi,07:30-12:15 & 13:45-18:00,Jeudi,07:30-12:15 & 13:45-18:00,Vendredi,07:30-12:15 & 13:45-18:00,Samedi,07:30-12:15 & 13:45-18:00,Dimanche,07:30-12:15 & 13:45-18:00,ANNECY - TP,74000,12 avenue des Vieux Moulins ZI de Vovray,ANNECY,Agence Terrassement
427,46.1965,6.2608,04 50 87 52 00,agence0427@kiloutou.fr,Lundi,07:30-12:00 & 13:30-18:00,Mardi,07:30-12:00 & 13:30-18:00,Mercredi,07:30-12:00 & 13:30-18:00,Jeudi,07:30-12:00 & 13:30-18:00,Vendredi,07:30-12:00 & 13:30-18:00,Samedi,07:30-12:00 & 13:30-18:00,Dimanche,07:30-12:00 & 13:30-18:00,ANNEMASSE,74100,30 rue de la Résistance ZAE du Mont Blanc,ANNEMASSE,Agence Généraliste Terrassement Elévation
803,46.0735,6.422,04 50 25 09 60,agence0803@kiloutou.fr,Lundi,07:30-12:15 & 13:45-18:00,Mardi,07:30-12:15 & 13:45-18:00,Mercredi,07:30-12:15 & 13:45-18:00,Jeudi,07:30-12:15 & 13:45-18:00,Vendredi,07:30-12:15 & 13:45-18:00,Samedi,07:30-12:15 & 13:45-18:00,Dimanche,07:30-12:15 & 13:45-18:00,BONNEVILLE,74130,80 rue des Souchets ZAC des Bordets,BONNEVILLE,Agence Généraliste Terrassement Elévation
429,46.354,6.4452,04 50 26 70 70,agence0429@kiloutou.fr,Lundi,07:30-12:00 & 13:30-17:00,Mardi,07:30-12:00 & 13:30-17:00,Mercredi,07:30-12:00 & 13:30-17:00,Jeudi,07:30-12:00 & 13:30-17:00,Vendredi,07:30-12:00 & 13:30-17:00,Samedi,07:30-12:00 & 13:30-17:00,Dimanche,07:30-12:00 & 13:30-17:00,THONON-LES-BAINS,74200,avenue de Genève ZI du Marclaz,THONON LES BAINS,Agence Généraliste Terrassement Elévation
426,45.8923,6.1143,04 50 33 92 92,agence0426@kiloutou.fr,Lundi,07:30-12:15 & 13:45-18:00,Mardi,07:30-12:15 & 13:45-18:00,Mercredi,07:30-12:15 & 13:45-18:00,Jeudi,07:30-12:15 & 13:45-18:00,Vendredi,07:30-12:15 & 13:45-18:00,Samedi,07:30-12:15 & 13:45-18:00,Dimanche,07:30-12:15 & 13:45-18:00,ANNECY (Seynod),74600,1 place du marché de gros de Barral ZI du Barral,SEYNOD,Agence Généraliste Terrassement Elévation
680,48.8809,2.3211,01 44 69 95 00,agence0680@kiloutou.fr,Lundi,07:00-12:15 & 13:45-18:00,Mardi,07:00-12:15 & 13:45-18:00,Mercredi,07:00-12:15 & 13:45-18:00,Jeudi,07:00-12:15 & 13:45-18:00,Vendredi,07:00-12:15 & 13:45-18:00,Samedi,07:00-12:15 & 13:45-18:00,Dimanche,07:00-12:15 & 13:45-18:00,PARIS 8 SAINT LAZARE,75008,71 rue de Rome,PARIS 8EME ARRONDISSEMENT,Généraliste type 3
725,48.8775,2.37,01 53 38 91 71,agence0725@kiloutou.fr,Lundi,07:00-12:15 & 13:45-18:00,Mardi,07:00-12:15 & 13:45-18:00,Mercredi,07:00-12:15 & 13:45-18:00,Jeudi,07:00-12:15 & 13:45-18:00,Vendredi,07:00-12:15 & 13:45-18:00,Samedi,07:00-12:15 & 13:45-18:00,Dimanche,07:00-12:15 & 13:45-18:00,PARIS 10 COLONEL FABIEN,75010,5 place du Colonel Fabien,PARIS 10EME ARRONDISSEMENT,Généraliste type 3
760,48.8555,2.3706,01 43 55 33 55,agence0760@kiloutou.fr,Lundi,07:00-12:15 & 13:45-18:00,Mardi,07:00-12:15 & 13:45-18:00,Mercredi,07:00-12:15 & 13:45-18:00,Jeudi,07:00-12:15 & 13:45-18:00,Vendredi,07:00-12:15 & 13:45-18:00,Samedi,07:00-12:15 & 13:45-18:00,Dimanche,07:00-12:15 & 13:45-18:00,PARIS 11 BASTILLE,75011,20 boulevard Richard Lenoir,PARIS 11EME ARRONDISSEMENT,Généraliste type 3
796,48.8468,2.4101,01 55 78 26 26,agence0796@kiloutou.fr,Lundi,07:00-12:15 & 13:45-18:00,Mardi,07:00-12:15 & 13:45-18:00,Mercredi,07:00-12:15 & 13:45-18:00,Jeudi,07:00-12:15 & 13:45-18:00,Vendredi,07:00-12:15 & 13:45-18:00,Samedi,07:00-12:15 & 13:45-18:00,Dimanche,07:00-12:15 & 13:45-18:00,PARIS 12 PORTE DE VINCENNES,75012,114 cours de Vincennes,PARIS 12EME ARRONDISSEMENT,Généraliste type 3
735,48.8263,2.3734,01 56 61 45 45,agence0735@kiloutou.fr,Lundi,07:00-12:15 & 13:45-18:00,Mardi,07:00-12:15 & 13:45-18:00,Mercredi,07:00-12:15 & 13:45-18:00,Jeudi,07:00-12:15 & 13:45-18:00,Vendredi,07:00-12:15 & 13:45-18:00,Samedi,07:00-12:15 & 13:45-18:00,Dimanche,07:00-12:15 & 13:45-18:00,PARIS 13ème,75013,73 rue de Patay,PARIS 13EME ARRONDISSEMENT,Généraliste type 3
755,48.8222,2.3289,01 58 14 20 20,agence0755@kiloutou.fr,Lundi,07:00-12:15 & 13:45-18:00,Mardi,07:00-12:15 & 13:45-18:00,Mercredi,07:00-12:15 & 13:45-18:00,Jeudi,07:00-12:15 & 13:45-18:00,Vendredi,07:00-12:15 & 13:45-18:00,Samedi,07:00-12:15 & 13:45-18:00,Dimanche,07:00-12:15 & 13:45-18:00,PARIS 14 PORTE D'ORLÉANS,75014,1 rue Monticelli,PARIS 14EME ARRONDISSEMENT,Généraliste type 3
786,48.8966,2.3703,01 40 03 44 44,agence0786@kiloutou.fr,Lundi,06:00 - 20:00,Mardi,06:00 - 20:00,Mercredi,06:00 - 20:00,Jeudi,06:00 - 20:00,Vendredi,06:00 - 20:00,Samedi,06:00 - 20:00,Dimanche,06:00 - 20:00,Paris 18ème - La Plateforme,75018,217 rue d'Aubervilliers Niveau 2 - Direction Plateforme du Bat,PARIS,Généraliste type 4
785,48.8978,2.3355,01 53 41 87 87,agence0785@kiloutou.fr,Lundi,07:00-12:15 & 13:45-18:00,Mardi,07:00-12:15 & 13:45-18:00,Mercredi,07:00-12:15 & 13:45-18:00,Jeudi,07:00-12:15 & 13:45-18:00,Vendredi,07:00-12:15 & 13:45-18:00,Samedi,07:00-12:15 & 13:45-18:00,Dimanche,07:00-12:15 & 13:45-18:00,PARIS 18 PORTE DE CLIGNANCOURT,75018,154 boulevard du Maréchal Ney,PARIS 18EME ARRONDISSEMENT,Généraliste type 3
672,48.8989,2.3718,01 40 05 59 90,agence0672@kiloutou.fr,Lundi,07:00-12:15 & 13:45-18:00,Mardi,07:00-12:15 & 13:45-18:00,Mercredi,07:00-12:15 & 13:45-18:00,Jeudi,07:00-12:15 & 13:45-18:00,Vendredi,07:00-12:15 & 13:45-18:00,Samedi,07:00-12:15 & 13:45-18:00,Dimanche,07:00-12:15 & 13:45-18:00,PARIS 19ème,75019,214 boulevard Macdonald,PARIS 19EME ARRONDISSEMENT,Généraliste type 3
397,49.4423,1.0797,02 32 12 70 00,agence0397@kiloutou.fr,Lundi,07:30-12:00 & 13:30-18:00,Mardi,07:30-12:00 & 13:30-18:00,Mercredi,07:30-12:00 & 13:30-18:00,Jeudi,07:30-12:00 & 13:30-18:00,Vendredi,07:30-12:00 & 13:30-18:00,Samedi,07:30-12:00 & 13:30-18:00,Dimanche,07:30-12:00 & 13:30-18:00,ROUEN (RIVE DROITE),76000,38 quai Gaston Boulet,ROUEN,Agence Généraliste
491,49.4866,1.0152,02 35 76 02 98,agence0491@kiloutou.fr,Lundi,07:30-12:00 & 13:30-18:00,Mardi,07:30-12:00 & 13:30-18:00,Mercredi,07:30-12:00 & 13:30-18:00,Jeudi,07:30-12:00 & 13:30-18:00,Vendredi,07:30-12:00 & 13:30-18:00,Samedi,07:30-12:00 & 13:30-18:00,Dimanche,07:30-12:00 & 13:30-18:00,ROUEN (Saint-Jean-du-Cardonnay) - TP,76150,18 rue Albert Einstein ZA Portes de l'Ouest,ST JEAN DU CARDONNAY,Agence Terrassement
497,49.9181,1.0902,02 35 40 52 52,agence0497@kiloutou.fr,Lundi,07:30-12:00 & 13:30-17:30,Mardi,07:30-12:00 & 13:30-17:30,Mercredi,07:30-12:00 & 13:30-17:30,Jeudi,07:30-12:00 & 13:30-17:30,Vendredi,07:30-12:00 & 13:30-17:30,Samedi,07:30-12:00 & 13:30-17:30,Dimanche,07:30-12:00 & 13:30-17:30,DIEPPE,76200,24 cours de Dakar,DIEPPE,Agence Généraliste
178,49.5808,0.4465,02 35 31 32 20,agence0178@kiloutou.fr,Lundi,07:30-12:00 & 13:30-17:30,Mardi,07:30-12:00 & 13:30-17:30,Mercredi,07:30-12:00 & 13:30-17:30,Jeudi,07:30-12:00 & 13:30-17:30,Vendredi,07:30-12:00 & 13:30-17:30,Samedi,07:30-12:00 & 13:30-17:30,Dimanche,07:30-12:00 & 13:30-17:30,BOLBEC (SAINT-JEAN-DE-LA-NEUVILLE),76210,48 avenue de l'Innovation,ST JEAN DE LA NEUVILLE,Agence Généraliste Terrassement Elévation
179,50.058,1.4113,02 35 50 02 30,agence0179@kiloutou.fr,Lundi,07:30-12:00 & 13:30-17:30,Mardi,07:30-12:00 & 13:30-17:30,Mercredi,07:30-12:00 & 13:30-17:30,Jeudi,07:30-12:00 & 13:30-17:30,Vendredi,07:30-12:00 & 13:30-17:30,Samedi,07:30-12:00 & 13:30-17:30,Dimanche,07:30-12:00 & 13:30-17:30,EU,76260,rue Lavoisier Zone des Prés Salés,EU,Agence Généraliste Terrassement Elévation
496,49.411,1.1112,02 35 72 10 01,agence0496@kiloutou.fr,Lundi,07:30-12:00 & 13:30-17:00,Mardi,07:30-12:00 & 13:30-17:00,Mercredi,07:30-12:00 & 13:30-17:00,Jeudi,07:30-12:00 & 13:30-17:00,Vendredi,07:30-12:00 & 13:30-17:00,Samedi,07:30-12:00 & 13:30-17:00,Dimanche,07:30-12:00 & 13:30-17:00,ROUEN (Sotteville) - TP,76300,8 rue Claude Chappe,SOTTEVILLE LES ROUEN,Agence Terrassement
495,49.9242,1.12,02 35 40 37 00,agence0495@kiloutou.fr,Lundi,07:30-12:00 & 13:30-17:30,Mardi,07:30-12:00 & 13:30-17:30,Mercredi,07:30-12:00 & 13:30-17:30,Jeudi,07:30-12:00 & 13:30-17:30,Vendredi,07:30-12:00 & 13:30-17:30,Samedi,07:30-12:00 & 13:30-17:30,Dimanche,07:30-12:00 & 13:30-17:30,DIEPPE - TP,76370,42 rue Blériot ZAC Eurochannel,NEUVILLE LES DIEPPE,Agence Terrassement
494,49.4988,0.1878,02 35 53 02 90,agence0494@kiloutou.fr,Lundi,07:30-12:00 & 13:30-17:30,Mardi,07:30-12:00 & 13:30-17:30,Mercredi,07:30-12:00 & 13:30-17:30,Jeudi,07:30-12:00 & 13:30-17:30,Vendredi,07:30-12:00 & 13:30-17:30,Samedi,07:30-12:00 & 13:30-17:30,Dimanche,07:30-12:00 & 13:30-17:30,LE HAVRE - TP,76600,562 boulevard Jules Durand,LE HAVRE,Agence Terrassement
8473,49.3891,1.1131,02 32 91 12 38,kiloutou-8473@kiloutou.fr,Lundi,07:30-12:00 & 13:30-18:00,Mardi,07:30-12:00 & 13:30-18:00,Mercredi,07:30-12:00 & 13:30-18:00,Jeudi,07:30-12:00 & 13:30-18:00,Vendredi,07:30-12:00 & 13:30-18:00,Samedi,07:30-12:00 & 13:30-18:00,Dimanche,07:30-12:00 & 13:30-18:00,SCE ROUEN,76800,rue de la Frênaie ZI du Madrillet,ST ETIENNE DU ROUVRAY,Service Commercial Elévation
Q473,49.3891,1.1131,02 32 91 12 38,kiloutou-7473@kiloutou.fr,Lundi,07:30-12:00 & 13:30-18:00,Mardi,07:30-12:00 & 13:30-18:00,Mercredi,07:30-12:00 & 13:30-18:00,Jeudi,07:30-12:00 & 13:30-18:00,Vendredi,07:30-12:00 & 13:30-18:00,Samedi,07:30-12:00 & 13:30-18:00,Dimanche,07:30-12:00 & 13:30-18:00,AGENCE ELEVATION DE ST ETIENNE DU ROUVRAY,76800,Rue de la Frenaie ZI du Madrillet,ST ETIENNE DU ROUVRAY,Quai Elévation Terrassement
263,48.5367,2.6904,01 64 79 73 73,agence0263@kiloutou.fr,Lundi,07:30-12:00 & 13:30-18:00,Mardi,07:30-12:00 & 13:30-18:00,Mercredi,07:30-12:00 & 13:30-18:00,Jeudi,07:30-12:00 & 13:30-18:00,Vendredi,07:30-12:00 & 13:30-18:00,Samedi,07:30-12:00 & 13:30-18:00,Dimanche,07:30-12:00 & 13:30-18:00,VAUX LE PENIL,77000,920 rue du Maréchal Juin ZI,VAUX LE PENIL,Agence Généraliste
247,48.9567,2.9083,01 60 32 30 30,agence0247@kiloutou.fr,Lundi,07:00-12:15 & 13:45-18:00,Mardi,07:00-12:15 & 13:45-18:00,Mercredi,07:00-12:15 & 13:45-18:00,Jeudi,07:00-12:15 & 13:45-18:00,Vendredi,07:00-12:15 & 13:45-18:00,Samedi,07:00-12:15 & 13:45-18:00,Dimanche,07:00-12:15 & 13:45-18:00,MEAUX,77100,15 avenue de la Victoire,MEAUX,Agence Généraliste
248,48.966,2.919,01 60 01 28 88,agence0248@kiloutou.fr,Lundi,07:30-12:00 & 13:30-18:00,Mardi,07:30-12:00 & 13:30-18:00,Mercredi,07:30-12:00 & 13:30-18:00,Jeudi,07:30-12:00 & 13:30-18:00,Vendredi,07:30-12:00 & 13:30-18:00,Samedi,07:30-12:00 & 13:30-18:00,Dimanche,07:30-12:00 & 13:30-18:00,MEAUX - TP,77100,33 Rue Alexandre Volta,MEAUX,Agence Terrassement
261,48.7078,2.5877,01 60 62 24 24,agence0261@kiloutou.fr,Lundi,07:30-12:00 & 13:45-18:00,Mardi,07:30-12:00 & 13:45-18:00,Mercredi,07:30-12:00 & 13:45-18:00,Jeudi,07:30-12:00 & 13:45-18:00,Vendredi,07:30-12:00 & 13:45-18:00,Samedi,07:30-12:00 & 13:45-18:00,Dimanche,07:30-12:00 & 13:45-18:00,SERVON,77170,RN 19 Parking Baudry,SERVON,Agence Généraliste
260,48.5867,2.5935,01 64 41 85 76,agence0260@kiloutou.fr,Lundi,07:00-12:00 & 13:30-18:30,Mardi,07:00-12:00 & 13:30-18:30,Mercredi,07:00-12:00 & 13:30-18:30,Jeudi,07:00-12:00 & 13:30-18:30,Vendredi,07:00-12:00 & 13:30-18:30,Samedi,07:00-12:00 & 13:30-18:30,Dimanche,07:00-12:00 & 13:30-18:30,MELUN-SENART (Savigny-le-Temple),77176,20 allée du Cobalt C.Cial Boissenart,SAVIGNY LE TEMPLE,Agence Généraliste
Q271,48.814,2.636,01 60 53 00 00,agenceQ271@kiloutou.fr,Lundi,08:00-12:00 & 13:30-17:00,Mardi,08:00-12:00 & 13:30-17:00,Mercredi,08:00-12:00 & 13:30-17:00,Jeudi,08:00-12:00 & 13:30-17:00,Vendredi,08:00-12:00 & 13:30-17:00,Samedi,08:00-12:00 & 13:30-17:00,Dimanche,08:00-12:00 & 13:30-17:00,AGENCE ELEVATION CROISSY BEAUBOURG,77183,2 allée des Sarments,CROISSY BEAUBOURG,Quai Elévation Terrassement
241,48.9805,2.6444,01 60 03 24 34,agence0241@kiloutou.fr,Lundi,07:30-12:00 & 13:30-18:00,Mardi,07:30-12:00 & 13:30-18:00,Mercredi,07:30-12:00 & 13:30-18:00,Jeudi,07:30-12:00 & 13:30-18:00,Vendredi,07:30-12:00 & 13:30-18:00,Samedi,07:30-12:00 & 13:30-18:00,Dimanche,07:30-12:00 & 13:30-18:00,MITRY MORY - TP,77290,4 rue Marcelin Berthelot ZI Mitry Compans,MITRY MORY,Agence Terrassement
272,48.8708,2.6827,01 60 31 70 70,agence0272@kiloutou.fr,Lundi,07:30-12:00 & 13:45-18:00,Mardi,07:30-12:00 & 13:45-18:00,Mercredi,07:30-12:00 & 13:45-18:00,Jeudi,07:30-12:00 & 13:45-18:00,Vendredi,07:30-12:00 & 13:45-18:00,Samedi,07:30-12:00 & 13:45-18:00,Dimanche,07:30-12:00 & 13:45-18:00,LAGNY-SUR-MARNE,77400,133 avenue du Général Leclerc,LAGNY SUR MARNE,Généraliste type 3
240,48.8789,2.6174,01 69 46 87 89,agence0240@kiloutou.fr,Lundi,07:00-12:00 & 13:30-18:00,Mardi,07:00-12:00 & 13:30-18:00,Mercredi,07:00-12:00 & 13:30-18:00,Jeudi,07:00-12:00 & 13:30-18:00,Vendredi,07:00-12:00 & 13:30-18:00,Samedi,07:00-12:00 & 13:30-18:00,Dimanche,07:00-12:00 & 13:30-18:00,CHELLES,77500,163 rue du Gendarme Castermant,CHELLES,Agence Généraliste
262,48.6204,2.5696,01 64 13 37 20,agence0262@kiloutou.fr,Lundi,07:30-12:00 & 14:00-18:00,Mardi,07:30-12:00 & 14:00-18:00,Mercredi,07:30-12:00 & 14:00-18:00,Jeudi,07:30-12:00 & 14:00-18:00,Vendredi,07:30-12:00 & 14:00-18:00,Samedi,07:30-12:00 & 14:00-18:00,Dimanche,07:30-12:00 & 14:00-18:00,MOISSY-CRAMAYEL - TP,77555,220 avenue Blaise Pascal ZI de Moissy-Cramayel,MOISSY CRAMAYEL CEDEX,Agence Terrassement
794,48.7697,2.1972,01 34 82 01 41,agence0794@kiloutou.fr,Lundi,07:30-12:00 & 13:30-18:00,Mardi,07:30-12:00 & 13:30-18:00,Mercredi,07:30-12:00 & 13:30-18:00,Jeudi,07:30-12:00 & 13:30-18:00,Vendredi,07:30-12:00 & 13:30-18:00,Samedi,07:30-12:00 & 13:30-18:00,Dimanche,07:30-12:00 & 13:30-18:00,TRAPPES - TP,78190,rue des Charmes ZI Buisson de la Couldre,TRAPPES,Agence Terrassement
790,48.9902,1.6823,01 30 92 10 04,agence0790@kiloutou.fr,Lundi,07:00-12:00 & 13:30-18:00,Mardi,07:00-12:00 & 13:30-18:00,Mercredi,07:00-12:00 & 13:30-18:00,Jeudi,07:00-12:00 & 13:30-18:00,Vendredi,07:00-12:00 & 13:30-18:00,Samedi,07:00-12:00 & 13:30-18:00,Dimanche,07:00-12:00 & 13:30-18:00,BUCHELAY,78200,3 Rue des Piquettes,BUCHELAY,Agence Généraliste Terrassement Elévation
791,48.9891,1.682,01 30 63 33 33,Agence0791@kiloutou.fr,Lundi,06:30 - 18:30,Mardi,06:30 - 18:30,Mercredi,06:30 - 18:30,Jeudi,06:30 - 18:30,Vendredi,06:30 - 18:30,Samedi,06:30 - 18:30,Dimanche,06:30 - 18:30,BUCHELAY - La Plateforme,78200,ZI des Closeaux La Plateforme du Bâtiment,BUCHELAY,Généraliste type 4
645,48.9067,2.0478,01 30 06 66 66,agence0645@kiloutou.fr,Lundi,07:00-12:00 & 13:30-18:00,Mardi,07:00-12:00 & 13:30-18:00,Mercredi,07:00-12:00 & 13:30-18:00,Jeudi,07:00-12:00 & 13:30-18:00,Vendredi,07:00-12:00 & 13:30-18:00,Samedi,07:00-12:00 & 13:30-18:00,Dimanche,07:00-12:00 & 13:30-18:00,CHAMBOURCY,78240,38 bis route de Mantes RN 13,CHAMBOURCY,Agence Généraliste
236,48.7547,1.937,01 30 16 50 50,agence0236@kiloutou.fr,Lundi,06:30 - 18:30,Mardi,06:30 - 18:30,Mercredi,06:30 - 18:30,Jeudi,06:30 - 18:30,Vendredi,06:30 - 18:30,Samedi,06:30 - 18:30,Dimanche,06:30 - 18:30,COIGNIÈRES - La Plateforme,78310,5 route Nationale 10 La Plateforme du Bâtiment,COIGNIERES,Généraliste type 4
238,48.7637,1.919,01 61 06 21 40,agence0238@kiloutou.fr,Lundi,07:00-12:00 & 13:30-18:30,Mardi,07:00-12:00 & 13:30-18:30,Mercredi,07:00-12:00 & 13:30-18:30,Jeudi,07:00-12:00 & 13:30-18:30,Vendredi,07:00-12:00 & 13:30-18:30,Samedi,07:00-12:00 & 13:30-18:30,Dimanche,07:00-12:00 & 13:30-18:30,AGENCE ELEVATION DE MAUREPAS,78310,18 rue de Montfort ZI Pariwest,MAUREPAS,Quai Elévation Terrassement
750,48.8679,2.1463,01 30 82 26 00,agence0750@kiloutou.fr,Lundi,06:30-12:15 & 13:45-18:00,Mardi,06:30-12:15 & 13:45-18:00,Mercredi,06:30-12:15 & 13:45-18:00,Jeudi,06:30-12:15 & 13:45-18:00,Vendredi,06:30-12:15 & 13:45-18:00,Samedi,06:30-12:15 & 13:45-18:00,Dimanche,06:30-12:15 & 13:45-18:00,BOUGIVAL,78380,14 quai Yvan Tourgueniev RN 13,BOUGIVAL,Agence Généraliste
793,48.9916,1.644,01 30 42 94 70,agence0793@kiloutou.fr,Lundi,07:30-12:00 & 13:30-18:00,Mardi,07:30-12:00 & 13:30-18:00,Mercredi,07:30-12:00 & 13:30-18:00,Jeudi,07:30-12:00 & 13:30-18:00,Vendredi,07:30-12:00 & 13:30-18:00,Samedi,07:30-12:00 & 13:30-18:00,Dimanche,07:30-12:00 & 13:30-18:00,MANTES-LA-JOLIE (Rosny-sur-Seine) - TP,78710,Route de Buchelay,ROSNY SUR SEINE,Agence Terrassement
647,48.9328,2.1808,01 61 30 79 79,agence0647@kiloutou.fr,Lundi,07:00-12:00 & 13:30-17:00,Mardi,07:00-12:00 & 13:30-17:00,Mercredi,07:00-12:00 & 13:30-17:00,Jeudi,07:00-12:00 & 13:30-17:00,Vendredi,07:00-12:00 & 13:30-17:00,Samedi,07:00-12:00 & 13:30-17:00,Dimanche,07:00-12:00 & 13:30-17:00,HOUILLES,78800,105 boulevard Henri Barbusse Gédimat,HOUILLES,Généraliste type 4
170,49.902,2.2843,03 22 09 05 05,agence0170@kiloutou.fr,Lundi,07:00-12:00 & 13:30-18:00,Mardi,07:00-12:00 & 13:30-18:00,Mercredi,07:00-12:00 & 13:30-18:00,Jeudi,07:00-12:00 & 13:30-18:00,Vendredi,07:00-12:00 & 13:30-18:00,Samedi,07:00-12:00 & 13:30-18:00,Dimanche,07:00-12:00 & 13:30-18:00,AMIENS,80000,rue du Château Milan,AMIENS,Agence Généraliste
173,50.1008,1.8668,03 22 27 30 70,agence0173@kiloutou.fr,Lundi,07:00-12:00 & 13:30-18:00,Mardi,07:00-12:00 & 13:30-18:00,Mercredi,07:00-12:00 & 13:30-18:00,Jeudi,07:00-12:00 & 13:30-18:00,Vendredi,07:00-12:00 & 13:30-18:00,Samedi,07:00-12:00 & 13:30-18:00,Dimanche,07:00-12:00 & 13:30-18:00,ABBEVILLE,80100,rue Paul Vimereu Parc d'Activité des 2 Vallées,ABBEVILLE,Agence Généraliste Terrassement Elévation
Q174,49.8724,2.3725,03 22 67 10 11,agenceQ174@kiloutou.fr,Lundi,08:00-12:00 & 13:30-17:00,Mardi,08:00-12:00 & 13:30-17:00,Mercredi,08:00-12:00 & 13:30-17:00,Jeudi,08:00-12:00 & 13:30-17:00,Vendredi,08:00-12:00 & 13:30-17:00,Samedi,08:00-12:00 & 13:30-17:00,Dimanche,08:00-12:00 & 13:30-17:00,AGENCE ELEVATION D'AMIENS,80330,5 rue Hector Servadac ZAC Jules Verne,LONGUEAU,Quai Elévation Terrassement
300,43.9295,2.1753,05 63 76 28 28,agence0300@kiloutou.fr,Lundi,07:30-12:00 & 13:30-18:00,Mardi,07:30-12:00 & 13:30-18:00,Mercredi,07:30-12:00 & 13:30-18:00,Jeudi,07:30-12:00 & 13:30-18:00,Vendredi,07:30-12:00 & 13:30-18:00,Samedi,07:30-12:00 & 13:30-18:00,Dimanche,07:30-12:00 & 13:30-18:00,ALBI,81000,15 rue Jacques Monod Val de Caussels,ALBI,Agence Généraliste Terrassement Elévation
303,43.5847,2.1701,05 63 62 68 68,agence0303@kiloutou.fr,Lundi,07:30-12:00 & 13:30-18:00,Mardi,07:30-12:00 & 13:30-18:00,Mercredi,07:30-12:00 & 13:30-18:00,Jeudi,07:30-12:00 & 13:30-18:00,Vendredi,07:30-12:00 & 13:30-18:00,Samedi,07:30-12:00 & 13:30-18:00,Dimanche,07:30-12:00 & 13:30-18:00,CASTRES (Saïx),81710,14 avenue du Commerce et de l'Artisanat,SAIX,Agence Généraliste Terrassement Elévation
335,44.0384,1.3818,05 63 22 20 20,agence0335@kiloutou.fr,Lundi,07:30-12:00 & 13:30-18:00,Mardi,07:30-12:00 & 13:30-18:00,Mercredi,07:30-12:00 & 13:30-18:00,Jeudi,07:30-12:00 & 13:30-18:00,Vendredi,07:30-12:00 & 13:30-18:00,Samedi,07:30-12:00 & 13:30-18:00,Dimanche,07:30-12:00 & 13:30-18:00,MONTAUBAN,82000,350 avenue de Paris RN 20,MONTAUBAN,Agence Généraliste
196,43.9935,1.3488,05 63 64 20 91,agence0196@kiloutou.fr,Lundi,07:30-12:00 & 13:30-18:00,Mardi,07:30-12:00 & 13:30-18:00,Mercredi,07:30-12:00 & 13:30-18:00,Jeudi,07:30-12:00 & 13:30-18:00,Vendredi,07:30-12:00 & 13:30-18:00,Samedi,07:30-12:00 & 13:30-18:00,Dimanche,07:30-12:00 & 13:30-18:00,MONTAUBAN SAPIAC,82000,309 impasse des Turilles ZAC SAPIAC,MONTAUBAN,Agence Généraliste Terrassement Elévation
604,43.9815,1.3332,05 63 66 21 16,agence0604@kiloutou.fr,Lundi,07:30-12:00 & 13:30-18:00,Mardi,07:30-12:00 & 13:30-18:00,Mercredi,07:30-12:00 & 13:30-18:00,Jeudi,07:30-12:00 & 13:30-18:00,Vendredi,07:30-12:00 & 13:30-18:00,Samedi,07:30-12:00 & 13:30-18:00,Dimanche,07:30-12:00 & 13:30-18:00,MONTAUBAN - TP,82000,110 impasse Beau de Rochas ZI Albasud,MONTAUBAN,Agence Terrassement
605,44.0563,1.0966,05 63 32 67 98,agence0605@kiloutou.fr,Lundi,07:30-12:00 & 13:30-18:00,Mardi,07:30-12:00 & 13:30-18:00,Mercredi,07:30-12:00 & 13:30-18:00,Jeudi,07:30-12:00 & 13:30-18:00,Vendredi,07:30-12:00 & 13:30-18:00,Samedi,07:30-12:00 & 13:30-18:00,Dimanche,07:30-12:00 & 13:30-18:00,CASTELSARRASIN,82100,ZI des Marchés,CASTELSARRASIN,Agence Généraliste Terrassement Elévation
611,43.1427,6.037,04 94 75 21 16,agence0611@kiloutou.fr,Lundi,07:00-12:00 & 13:30-18:00,Mardi,07:00-12:00 & 13:30-18:00,Mercredi,07:00-12:00 & 13:30-18:00,Jeudi,07:00-12:00 & 13:30-18:00,Vendredi,07:00-12:00 & 13:30-18:00,Samedi,07:00-12:00 & 13:30-18:00,Dimanche,07:00-12:00 & 13:30-18:00,TOULON LA GARDE - TP,83079,avenue de Draguignan BP 95,TOULON CEDEX 9,Agence Terrassement
516,43.1432,6.0395,04 98 01 63 63,agence0516@kiloutou.fr,Lundi,07:00-12:00 & 14:30-18:00,Mardi,07:00-12:00 & 14:30-18:00,Mercredi,07:00-12:00 & 14:30-18:00,Jeudi,07:00-12:00 & 14:30-18:00,Vendredi,07:00-12:00 & 14:30-18:00,Samedi,07:00-12:00 & 14:30-18:00,Dimanche,07:00-12:00 & 14:30-18:00,TOULON (La Garde) - La Plateforme,83130,257 avenue Joliot Curie La Plateforme du Bâtiment ZI de La Garde,LA GARDE,Généraliste type 4
515,43.1354,5.9985,04 94 23 97 97,agence0515@kiloutou.fr,Lundi,07:00-12:00 & 13:45-18:00,Mardi,07:00-12:00 & 13:45-18:00,Mercredi,07:00-12:00 & 13:45-18:00,Jeudi,07:00-12:00 & 13:45-18:00,Vendredi,07:00-12:00 & 13:45-18:00,Samedi,07:00-12:00 & 13:45-18:00,Dimanche,07:00-12:00 & 13:45-18:00,TOULON (La Valette-du-Var),83160,avenue des Frères Lumière,LA VALETTE DU VAR,Agence Généraliste Terrassement Elévation
519,43.4,6.0498,04 94 86 88 88,agence0519@kiloutou.fr,Lundi,07:00-12:00 & 13:30-17:00,Mardi,07:00-12:00 & 13:30-17:00,Mercredi,07:00-12:00 & 13:30-17:00,Jeudi,07:00-12:00 & 13:30-17:00,Vendredi,07:00-12:00 & 13:30-17:00,Samedi,07:00-12:00 & 13:30-17:00,Dimanche,07:00-12:00 & 13:30-17:00,BRIGNOLES,83170,1065 rue Bernard Long ZI les Consacs,BRIGNOLES,Agence Généraliste Terrassement Elévation
557,43.5214,6.4669,04 94 67 34 24,agence0557@kiloutou.fr,Lundi,07:00-12:00 & 13:30-18:00,Mardi,07:00-12:00 & 13:30-18:00,Mercredi,07:00-12:00 & 13:30-18:00,Jeudi,07:00-12:00 & 13:30-18:00,Vendredi,07:00-12:00 & 13:30-18:00,Samedi,07:00-12:00 & 13:30-18:00,Dimanche,07:00-12:00 & 13:30-18:00,DRAGUIGNAN,83300,boulevard Jean Mermoz ZI des Incapis,DRAGUIGNAN,Agence Généraliste
558,43.2662,6.5464,04 94 55 56 80,agence0558@kiloutou.fr,Lundi,07:00-12:00 & 13:30-18:00,Mardi,07:00-12:00 & 13:30-18:00,Mercredi,07:00-12:00 & 13:30-18:00,Jeudi,07:00-12:00 & 13:30-18:00,Vendredi,07:00-12:00 & 13:30-18:00,Samedi,07:00-12:00 & 13:30-18:00,Dimanche,07:00-12:00 & 13:30-18:00,GRIMAUD,83310,ZI du Grand Pont,GRIMAUD,Agence Généraliste Terrassement Elévation
565,43.45,6.4652,04 94 73 43 43,agence0565@kiloutou.fr,Lundi,07:00-12:00 & 13:30-18:00,Mardi,07:00-12:00 & 13:30-18:00,Mercredi,07:00-12:00 & 13:30-18:00,Jeudi,07:00-12:00 & 13:30-18:00,Vendredi,07:00-12:00 & 13:30-18:00,Samedi,07:00-12:00 & 13:30-18:00,Dimanche,07:00-12:00 & 13:30-18:00,LES ARCS-SUR-ARGENS - TP,83460,ZA l'Ecluse,LES ARCS,Agence Terrassement
517,43.109,5.8512,04 98 00 33 33,agence0517@kiloutou.fr,Lundi,07:00-12:00 & 13:30-18:00,Mardi,07:00-12:00 & 13:30-18:00,Mercredi,07:00-12:00 & 13:30-18:00,Jeudi,07:00-12:00 & 13:30-18:00,Vendredi,07:00-12:00 & 13:30-18:00,Samedi,07:00-12:00 & 13:30-18:00,Dimanche,07:00-12:00 & 13:30-18:00,TOULON (La Seyne-sur-Mer),83500,295 chemin de la Farlède,LA SEYNE SUR MER,Agence Généraliste Terrassement Elévation
564,43.4707,6.7258,04 94 52 09 23,agence0564@kiloutou.fr,Lundi,07:00-12:00 & 13:30-18:00,Mardi,07:00-12:00 & 13:30-18:00,Mercredi,07:00-12:00 & 13:30-18:00,Jeudi,07:00-12:00 & 13:30-18:00,Vendredi,07:00-12:00 & 13:30-18:00,Samedi,07:00-12:00 & 13:30-18:00,Dimanche,07:00-12:00 & 13:30-18:00,FRÉJUS - TP,83600,220 avenue Laurent Barbero ZAC Pôle BTP,FREJUS,Agence Terrassement
546,44.1156,4.8406,04 90 30 62 62,agence0546@kiloutou.fr,Lundi,07:00-12:00 & 13:30-18:00,Mardi,07:00-12:00 & 13:30-18:00,Mercredi,07:00-12:00 & 13:30-18:00,Jeudi,07:00-12:00 & 13:30-18:00,Vendredi,07:00-12:00 & 13:30-18:00,Samedi,07:00-12:00 & 13:30-18:00,Dimanche,07:00-12:00 & 13:30-18:00,ORANGE,84100,RN 7 - Route d'Avignon ZAC du Coudoulet,ORANGE,Généraliste type 3
540,43.9767,4.8715,04 90 03 80 38,agence0540@kiloutou.fr,Lundi,07:00-12:00 & 13:30-18:00,Mardi,07:00-12:00 & 13:30-18:00,Mercredi,07:00-12:00 & 13:30-18:00,Jeudi,07:00-12:00 & 13:30-18:00,Vendredi,07:00-12:00 & 13:30-18:00,Samedi,07:00-12:00 & 13:30-18:00,Dimanche,07:00-12:00 & 13:30-18:00,AVIGNON (Le Pontet),84130,Chemin des Petits Rougiers ZAC de Fontvert - Saint Tronquet,LE PONTET,Agence Généraliste
539,44.0414,5.0487,04 90 41 81 81,agence0539@kiloutou.fr,Lundi,07:00-12:00 & 13:30-18:00,Mardi,07:00-12:00 & 13:30-18:00,Mercredi,07:00-12:00 & 13:30-18:00,Jeudi,07:00-12:00 & 13:30-18:00,Vendredi,07:00-12:00 & 13:30-18:00,Samedi,07:00-12:00 & 13:30-18:00,Dimanche,07:00-12:00 & 13:30-18:00,CARPENTRAS,84200,1054 avenue Dwight Eisenhower,CARPENTRAS,Généraliste type 3
601,43.9599,4.8996,04 90 83 04 15,agence0601@kiloutou.fr,Lundi,07:00-12:00 & 13:30-18:00,Mardi,07:00-12:00 & 13:30-18:00,Mercredi,07:00-12:00 & 13:30-18:00,Jeudi,07:00-12:00 & 13:30-18:00,Vendredi,07:00-12:00 & 13:30-18:00,Samedi,07:00-12:00 & 13:30-18:00,Dimanche,07:00-12:00 & 13:30-18:00,AVIGNON (Vedène) - TP,84270,allée Léon Foucault ZI de Chalançon,VEDENE,Agence Terrassement
375,46.7127,-1.4307,02 51 98 00 00,agence0375@kiloutou.fr,Lundi,07:30-12:00 & 13:30-18:00,Mardi,07:30-12:00 & 13:30-18:00,Mercredi,07:30-12:00 & 13:30-18:00,Jeudi,07:30-12:00 & 13:30-18:00,Vendredi,07:30-12:00 & 13:30-18:00,Samedi,07:30-12:00 & 13:30-18:00,Dimanche,07:30-12:00 & 13:30-18:00,LA ROCHE-SUR-YON (Mouilleron-le-Captif),85000,206 rue du Clair Bocage,MOUILLERON LE CAPTIF,Agence Généraliste Terrassement Elévation
Q487,46.7933,-1.4306,02 51 41 07 85,agence0487@kiloutou.fr,Lundi,07:30-12:15 & 14:00-18:00,Mardi,07:30-12:15 & 14:00-18:00,Mercredi,07:30-12:15 & 14:00-18:00,Jeudi,07:30-12:15 & 14:00-18:00,Vendredi,07:30-12:15 & 14:00-18:00,Samedi,07:30-12:15 & 14:00-18:00,Dimanche,07:30-12:15 & 14:00-18:00,AGENCE ELEVATION DE BELLEVILLE SUR VIE (La Roche sur Yon),85170,ZI le Recrédy BELLEVILLE SUR VIE,BELLEVIGNY,Quai Elévation Terrassement
8487,46.7933,-1.4306,02 51 41 07 85,kiloutou-8487@kiloutou.fr,Lundi,07:30-12:15 & 13:30-18:00,Mardi,07:30-12:15 & 13:30-18:00,Mercredi,07:30-12:15 & 13:30-18:00,Jeudi,07:30-12:15 & 13:30-18:00,Vendredi,07:30-12:15 & 13:30-18:00,Samedi,07:30-12:15 & 13:30-18:00,Dimanche,07:30-12:15 & 13:30-18:00,SCE VENDEE LITTORAL,85170,ZI le Recrédy BELLEVILLE SUR VIE,BELLEVIGNY,Service Commercial Elévation
364,46.8368,-1.843,02 28 12 94 91,agence0364@kiloutou.fr,Lundi,07:30-12:00 & 13:30-18:00,Mardi,07:30-12:00 & 13:30-18:00,Mercredi,07:30-12:00 & 13:30-18:00,Jeudi,07:30-12:00 & 13:30-18:00,Vendredi,07:30-12:00 & 13:30-18:00,Samedi,07:30-12:00 & 13:30-18:00,Dimanche,07:30-12:00 & 13:30-18:00,CHALLANS,85300,rue Gustave Eiffel ZA de la Bloire,CHALLANS,Agence Généraliste Terrassement Elévation
345,46.6123,0.345,05 49 61 50 50,agence0345@kiloutou.fr,Lundi,07:30-12:00 & 13:30-18:00,Mardi,07:30-12:00 & 13:30-18:00,Mercredi,07:30-12:00 & 13:30-18:00,Jeudi,07:30-12:00 & 13:30-18:00,Vendredi,07:30-12:00 & 13:30-18:00,Samedi,07:30-12:00 & 13:30-18:00,Dimanche,07:30-12:00 & 13:30-18:00,POITIERS,86000,2 rue de Thalweg,POITIERS,Agence Généraliste Terrassement Elévation
342,45.521,1.2082,05 55 75 40 55,agence0342@kiloutou.fr,Lundi,07:30-12:00 & 14:00-18:00,Mardi,07:30-12:00 & 14:00-18:00,Mercredi,07:30-12:00 & 14:00-18:00,Jeudi,07:30-12:00 & 14:00-18:00,Vendredi,07:30-12:00 & 14:00-18:00,Samedi,07:30-12:00 & 14:00-18:00,Dimanche,07:30-12:00 & 14:00-18:00,SAINT-YRIEIX-LA-PERCHE,87500,40 avenue du Général de Gaulle,SAINT-YRIEIX-LA-PERCHE,Généraliste type 4
156,48.2166,6.438,03 29 30 33 33,agence0156@kiloutou.fr,Lundi,07:00-12:00 & 13:30-18:00,Mardi,07:00-12:00 & 13:30-18:00,Mercredi,07:00-12:00 & 13:30-18:00,Jeudi,07:00-12:00 & 13:30-18:00,Vendredi,07:00-12:00 & 13:30-18:00,Samedi,07:00-12:00 & 13:30-18:00,Dimanche,07:00-12:00 & 13:30-18:00,EPINAL (Chavelot),88150,44 route d'Epinal ZI du Pré Droué,CHAVELOT,Agence Généraliste
276,47.8157,3.5848,03 86 18 80 80,agence0276@kiloutou.fr,Lundi,07:30-12:00 & 13:30-18:00,Mardi,07:30-12:00 & 13:30-18:00,Mercredi,07:30-12:00 & 13:30-18:00,Jeudi,07:30-12:00 & 13:30-18:00,Vendredi,07:30-12:00 & 13:30-18:00,Samedi,07:30-12:00 & 13:30-18:00,Dimanche,07:30-12:00 & 13:30-18:00,AUXERRE,89000,57 ter avenue Jean Mermoz,AUXERRE,Agence Généraliste Terrassement Elévation
354,48.1796,3.2896,03 86 83 19 19,agence0354@kiloutou.fr,Lundi,07:30-12:00 & 13:30-18:00,Mardi,07:30-12:00 & 13:30-18:00,Mercredi,07:30-12:00 & 13:30-18:00,Jeudi,07:30-12:00 & 13:30-18:00,Vendredi,07:30-12:00 & 13:30-18:00,Samedi,07:30-12:00 & 13:30-18:00,Dimanche,07:30-12:00 & 13:30-18:00,SENS,89100,17 rue des Carrières,SENS,Agence Généraliste Terrassement Elévation
Q652,48.6214,2.4202,01 69 46 87 98,agenceQ652@kiloutou.fr,Lundi,07:30-12:00 & 13:30-18:30,Mardi,07:30-12:00 & 13:30-18:30,Mercredi,07:30-12:00 & 13:30-18:30,Jeudi,07:30-12:00 & 13:30-18:30,Vendredi,07:30-12:00 & 13:30-18:30,Samedi,07:30-12:00 & 13:30-18:30,Dimanche,07:30-12:00 & 13:30-18:30,COURCOURONNES BATIMENT,91080,4bis rue du Bois Briard,COURCOURONNES,Quai Elévation Terrassement
8223,48.6214,2.42,01 69 46 87 98,kiloutou-8223@kiloutou.fr,Lundi,07:30-12:00 & 13:30-18:30,Mardi,07:30-12:00 & 13:30-18:30,Mercredi,07:30-12:00 & 13:30-18:30,Jeudi,07:30-12:00 & 13:30-18:30,Vendredi,07:30-12:00 & 13:30-18:30,Samedi,07:30-12:00 & 13:30-18:30,Dimanche,07:30-12:00 & 13:30-18:30,SCE ST GENEVIEVE DES BOIS,91080,4 bis rue du Bois Briard ZI La Croix Blanche,COURCOURONNES,Service Commercial Elévation
653,48.6231,2.4709,01 71 63 99 66,agence0653@kiloutou.fr,Lundi,07:30-12:00 & 13:30-18:00,Mardi,07:30-12:00 & 13:30-18:00,Mercredi,07:30-12:00 & 13:30-18:00,Jeudi,07:30-12:00 & 13:30-18:00,Vendredi,07:30-12:00 & 13:30-18:00,Samedi,07:30-12:00 & 13:30-18:00,Dimanche,07:30-12:00 & 13:30-18:00,CORBEIL,91100,Rue Fernand Raynaud,Corbeil Essonnes,Agence Généraliste
229,48.6705,2.392,01 69 02 78 78,agence0229@kiloutou.fr,Lundi,06:30-12:00 & 12:00-18:30,Mardi,06:30-12:00 & 12:00-18:30,Mercredi,06:30-12:00 & 12:00-18:30,Jeudi,06:30-12:00 & 12:00-18:30,Vendredi,06:30-12:00 & 12:00-18:30,Samedi,06:30-12:00 & 12:00-18:30,Dimanche,06:30-12:00 & 12:00-18:30,GRIGNY - La Plateforme,91350,54 route Nationale 7 La Plateforme du Bâtiment,GRIGNY,Généraliste type 4
234,48.4887,2.1973,01 60 83 81 81,agence0234@kiloutou.fr,Lundi,07:30-12:00 & 14:00-18:00,Mardi,07:30-12:00 & 14:00-18:00,Mercredi,07:30-12:00 & 14:00-18:00,Jeudi,07:30-12:00 & 14:00-18:00,Vendredi,07:30-12:00 & 14:00-18:00,Samedi,07:30-12:00 & 14:00-18:00,Dimanche,07:30-12:00 & 14:00-18:00,ETAMPES (Etréchy),91580,9 rue des Tulipiers,ETRECHY,Agence Généraliste
Q222,48.6251,2.3521,01 69 46 87 98,agenceQ222@kiloutou.fr,Lundi,08:00-12:00 & 13:30-17:00,Mardi,08:00-12:00 & 13:30-17:00,Mercredi,08:00-12:00 & 13:30-17:00,Jeudi,08:00-12:00 & 13:30-17:00,Vendredi,08:00-12:00 & 13:30-17:00,Samedi,08:00-12:00 & 13:30-17:00,Dimanche,08:00-12:00 & 13:30-17:00,AGENCE ELEVATION DE STE-GENEVIÈVE-DES-BOIS,91708,Zone d'Activité La Croix Blanche Ave du Hurepoix,STE GENEVIEVE BOIS CEDEX,Quai Elévation Terrassement
233,48.6789,2.1906,01 64 86 48 48,agence0233@kiloutou.fr,Lundi,07:00-12:00 & 13:30-18:00,Mardi,07:00-12:00 & 13:30-18:00,Mercredi,07:00-12:00 & 13:30-18:00,Jeudi,07:00-12:00 & 13:30-18:00,Vendredi,07:00-12:00 & 13:30-18:00,Samedi,07:00-12:00 & 13:30-18:00,Dimanche,07:00-12:00 & 13:30-18:00,LES ULIS,91940,route Nationale 446 angle av. des Chardonnerets,LES ULIS,Agence Généraliste
642,48.8942,2.1823,01 41 91 73 73,agence0642@kiloutou.fr,Lundi,06:00 - 20:00,Mardi,06:00 - 20:00,Mercredi,06:00 - 20:00,Jeudi,06:00 - 20:00,Vendredi,06:00 - 20:00,Samedi,06:00 - 20:00,Dimanche,06:00 - 20:00,NANTERRE - La Plateforme,92000,14 rue des Fondrières La Plateforme du Bâtiment,NANTERRE,Généraliste type 4
Q641,48.932,2.317,01 41 47 55 55,agenceQ641@kiloutou.fr,Lundi,06:30-12:15 & 13:45-17:30,Mardi,06:30-12:15 & 13:45-17:30,Mercredi,06:30-12:15 & 13:45-17:30,Jeudi,06:30-12:15 & 13:45-17:30,Vendredi,06:30-12:15 & 13:45-17:30,Samedi,06:30-12:15 & 13:45-17:30,Dimanche,06:30-12:15 & 13:45-17:30,AGENCE ELEVATION TERRASSEMENT DE GENNEVILLIERS,92230,88-92 Av du vieux chemin de St Denis,GENNEVILLIERS,Quai Elévation Terrassement
649,48.9461,2.3022,01 41 21 32 22,agence0649@kiloutou.fr,Lundi,07:00-12:15 & 13:45-18:00,Mardi,07:00-12:15 & 13:45-18:00,Mercredi,07:00-12:15 & 13:45-18:00,Jeudi,07:00-12:15 & 13:45-18:00,Vendredi,07:00-12:15 & 13:45-18:00,Samedi,07:00-12:15 & 13:45-18:00,Dimanche,07:00-12:15 & 13:45-18:00,PORT DE GENNEVILLIERS,92230,15 chemin des Petits Marais,Gennevilliers,Agence Terrassement
710,48.7755,2.3135,01 47 02 55 55,agence0710@kiloutou.fr,Lundi,06:30-12:15 & 13:45-18:00,Mardi,06:30-12:15 & 13:45-18:00,Mercredi,06:30-12:15 & 13:45-18:00,Jeudi,06:30-12:15 & 13:45-18:00,Vendredi,06:30-12:15 & 13:45-18:00,Samedi,06:30-12:15 & 13:45-18:00,Dimanche,06:30-12:15 & 13:45-18:00,SCEAUX,92330,140 avenue du Général Leclerc,SCEAUX,Agence Généraliste
644,48.9286,2.3194,01 41 47 22 22,agence0644@kiloutou.fr,Lundi,06:00 - 18:30,Mardi,06:00 - 18:30,Mercredi,06:00 - 18:30,Jeudi,06:00 - 18:30,Vendredi,06:00 - 18:30,Samedi,06:00 - 18:30,Dimanche,06:00 - 18:30,VILLENEUVE-LA-GARENNE - La Plateforme,92390,2-16 avenue de la longue Bertrane La Plateforme du Bâtiment,VILLENEUVE LA GARENNE,Généraliste type 4
770,48.9031,2.2582,01 46 67 77 99,agence0770@kiloutou.fr,Lundi,06:30-12:15 & 13:45-18:00,Mardi,06:30-12:15 & 13:45-18:00,Mercredi,06:30-12:15 & 13:45-18:00,Jeudi,06:30-12:15 & 13:45-18:00,Vendredi,06:30-12:15 & 13:45-18:00,Samedi,06:30-12:15 & 13:45-18:00,Dimanche,06:30-12:15 & 13:45-18:00,COURBEVOIE,92400,114 boulevard de Verdun RN 308,COURBEVOIE,Généraliste type 3
640,48.9193,2.2259,01 47 69 90 09,agence0640@kiloutou.fr,Lundi,06:30-12:15 & 13:45-18:30,Mardi,06:30-12:15 & 13:45-18:30,Mercredi,06:30-12:15 & 13:45-18:30,Jeudi,06:30-12:15 & 13:45-18:30,Vendredi,06:30-12:15 & 13:45-18:30,Samedi,06:30-12:15 & 13:45-18:30,Dimanche,06:30-12:15 & 13:45-18:30,COLOMBES,92700,372 avenue Salvador Allende pont de Bezons,COLOMBES,Agence Généraliste
648,48.8878,2.2401,01 71 06 57 22,agence0648@kiloutou.fr,Lundi,06:30-12:15 & 13:45-18:00,Mardi,06:30-12:15 & 13:45-18:00,Mercredi,06:30-12:15 & 13:45-18:00,Jeudi,06:30-12:15 & 13:45-18:00,Vendredi,06:30-12:15 & 13:45-18:00,Samedi,06:30-12:15 & 13:45-18:00,Dimanche,06:30-12:15 & 13:45-18:00,LA DEFENSE PUTEAUX,92800,9-11 avenue Jean Moulin,PUTEAUX,Agence Généraliste
620,48.8986,2.4423,01 48 46 82 08,agence0620@kiloutou.fr,Lundi,06:30-12:15 & 13:45-18:30,Mardi,06:30-12:15 & 13:45-18:30,Mercredi,06:30-12:15 & 13:45-18:30,Jeudi,06:30-12:15 & 13:45-18:30,Vendredi,06:30-12:15 & 13:45-18:30,Samedi,06:30-12:15 & 13:45-18:30,Dimanche,06:30-12:15 & 13:45-18:30,BOBIGNY,93000,2  avenue Jean Jaurès RN 3,BOBIGNY,Agence Généraliste
721,48.8586,2.4282,01 49 93 33 33,agence0721@kiloutou.fr,Lundi,06:30-12:15 & 13:45-18:30,Mardi,06:30-12:15 & 13:45-18:30,Mercredi,06:30-12:15 & 13:45-18:30,Jeudi,06:30-12:15 & 13:45-18:30,Vendredi,06:30-12:15 & 13:45-18:30,Samedi,06:30-12:15 & 13:45-18:30,Dimanche,06:30-12:15 & 13:45-18:30,MONTREUIL PORTE DE BAGNOLET,93100,103 boulevard de Chanzy,MONTREUIL,Généraliste type 3
625,48.8796,2.4747,01 49 35 30 30,agence0625@kiloutou.fr,Lundi,06:30-12:15 & 13:45-18:30,Mardi,06:30-12:15 & 13:45-18:30,Mercredi,06:30-12:15 & 13:45-18:30,Jeudi,06:30-12:15 & 13:45-18:30,Vendredi,06:30-12:15 & 13:45-18:30,Samedi,06:30-12:15 & 13:45-18:30,Dimanche,06:30-12:15 & 13:45-18:30,ROSNY-SOUS-BOIS,93110,8 rue de Lisbonne,ROSNY SOUS BOIS,Généraliste type 3
621,48.9293,2.42,01 43 11 93 93,agence0621@kiloutou.fr,Lundi,06:00 - 18:30,Mardi,06:00 - 18:30,Mercredi,06:00 - 18:30,Jeudi,06:00 - 18:30,Vendredi,06:00 - 18:30,Samedi,06:00 - 18:30,Dimanche,06:00 - 18:30,LA COURNEUVE - La Plateforme,93120,178 avenue Paul Vaillant-Couturier La Plateforme du Bâtiment,LA COURNEUVE,Généraliste type 4
629,48.93,2.5483,01 49 36 80 80,agence0629@kiloutou.fr,Lundi,06:00 - 18:30,Mardi,06:00 - 18:30,Mercredi,06:00 - 18:30,Jeudi,06:00 - 18:30,Vendredi,06:00 - 18:30,Samedi,06:00 - 18:30,Dimanche,06:00 - 18:30,LIVRY-GARGAN - La Plateforme,93190,55 rue Lucie Aubrac La Plateforme du Bâtiment,LIVRY GARGAN,Généraliste type 4
626,48.9179,2.5355,01 41 70 75 75,agence0626@kiloutou.fr,Lundi,06:30-12:15 & 13:45-18:30,Mardi,06:30-12:15 & 13:45-18:30,Mercredi,06:30-12:15 & 13:45-18:30,Jeudi,06:30-12:15 & 13:45-18:30,Vendredi,06:30-12:15 & 13:45-18:30,Samedi,06:30-12:15 & 13:45-18:30,Dimanche,06:30-12:15 & 13:45-18:30,LIVRY-GARGAN,93190,29 avenue du Consul Général Nordling RN 3,LIVRY GARGAN,Agence Généraliste
671,48.9264,2.352,01 58 69 20 20,agence0671@kiloutou.fr,Lundi,06:30 - 17:00,Mardi,06:30 - 17:00,Mercredi,06:30 - 17:00,Jeudi,06:30 - 17:00,Vendredi,06:30 - 17:00,Samedi,06:30 - 17:00,Dimanche,06:30 - 17:00,SAINT-DENIS (Stade de France),93200,41 boulevard Anatole France RN 410,ST DENIS,Agence Généraliste
623,48.8799,2.4966,01 48 12 42 08,agence0623@kiloutou.fr,Lundi,06:00 - 18:30,Mardi,06:00 - 18:30,Mercredi,06:00 - 18:30,Jeudi,06:00 - 18:30,Vendredi,06:00 - 18:30,Samedi,06:00 - 18:30,Dimanche,06:00 - 18:30,VILLEMOMBLE - La Plateforme,93250,15 rue Laënnec La Plateforme du Bâtiment,VILLEMOMBLE,Généraliste type 4
622,48.9054,2.3808,01 49 37 96 96,agence0622@kiloutou.fr,Lundi,06:00 - 20:00,Mardi,06:00 - 20:00,Mercredi,06:00 - 20:00,Jeudi,06:00 - 20:00,Vendredi,06:00 - 20:00,Samedi,06:00 - 20:00,Dimanche,06:00 - 20:00,AUBERVILLIERS - La Plateforme,93300,85 boulevard Félix Faure La Plateforme du Bâtiment,AUBERVILLIERS,Généraliste type 4
722,48.9007,2.4219,01 49 91 00 00,agence0722@kiloutou.fr,Lundi,06:00 - 18:30,Mardi,06:00 - 18:30,Mercredi,06:00 - 18:30,Jeudi,06:00 - 18:30,Vendredi,06:00 - 18:30,Samedi,06:00 - 18:30,Dimanche,06:00 - 18:30,PANTIN - PLATEFORME DU BATIMENT,93500,110 bis avenue du Général Leclerc,PANTIN,Généraliste type 3
210,48.7803,2.4392,01 48 99 89 99,agence0210@kiloutou.fr,Lundi,06:30-12:15 & 13:45-18:30,Mardi,06:30-12:15 & 13:45-18:30,Mercredi,06:30-12:15 & 13:45-18:30,Jeudi,06:30-12:15 & 13:45-18:30,Vendredi,06:30-12:15 & 13:45-18:30,Samedi,06:30-12:15 & 13:45-18:30,Dimanche,06:30-12:15 & 13:45-18:30,CRÉTEIL,94000,rue de la Fontaine St-Christophe,CRETEIL,Agence Généraliste
211,48.7792,2.4286,01 45 18 43 43,agence0211@kiloutou.fr,Lundi,06:30 - 18:30,Mardi,06:30 - 18:30,Mercredi,06:30 - 18:30,Jeudi,06:30 - 18:30,Vendredi,06:30 - 18:30,Samedi,06:30 - 18:30,Dimanche,06:30 - 18:30,ALFORTVILLE - La Plateforme,94140,9 Chemin de Villeneuve-Saint-Georges La Plateforme du Bâtiment,ALFORTVILLE,Agence K
212,48.8158,2.4048,01 56 20 15 15,agence0212@kiloutou.fr,Lundi,06:00 - 18:30,Mardi,06:00 - 18:30,Mercredi,06:00 - 18:30,Jeudi,06:00 - 18:30,Vendredi,06:00 - 18:30,Samedi,06:00 - 18:30,Dimanche,06:00 - 18:30,IVRY-SUR-SEINE - La Plateforme,94200,21 rue des Péniches La Plateforme du Bâtiment,IVRY SUR SEINE,Généraliste type 4
780,48.8017,2.3794,01 45 21 06 06,agence0780@kiloutou.fr,Lundi,06:30-12:15 & 13:45-18:00,Mardi,06:30-12:15 & 13:45-18:00,Mercredi,06:30-12:15 & 13:45-18:00,Jeudi,06:30-12:15 & 13:45-18:00,Vendredi,06:30-12:15 & 13:45-18:00,Samedi,06:30-12:15 & 13:45-18:00,Dimanche,06:30-12:15 & 13:45-18:00,IVRY-SUR-SEINE,94200,122 boulevard de Stalingrad RN 305,IVRY SUR SEINE,Généraliste type 3
Q290,48.7525,2.3759,01 46 87 31 41,agenceQ290@kiloutou.fr,Lundi,06:30-12:15 & 13:45-17:30,Mardi,06:30-12:15 & 13:45-17:30,Mercredi,06:30-12:15 & 13:45-17:30,Jeudi,06:30-12:15 & 13:45-17:30,Vendredi,06:30-12:15 & 13:45-17:30,Samedi,06:30-12:15 & 13:45-17:30,Dimanche,06:30-12:15 & 13:45-17:30,AGENCE ELEVATION TERRASSEMENT DE THIAIS,94320,Zone SENIA 5/7 rue des Alouettes,THIAIS,Quai Elévation Terrassement
7200,48.7525,2.3759,01 46 87 62 87,kiloutou-7200@kiloutou.fr,Lundi,07:00-12:15 & 13:45-18:30,Mardi,07:00-12:15 & 13:45-18:30,Mercredi,07:00-12:15 & 13:45-18:30,Jeudi,07:00-12:15 & 13:45-18:30,Vendredi,07:00-12:15 & 13:45-18:30,Samedi,07:00-12:15 & 13:45-18:30,Dimanche,07:00-12:15 & 13:45-18:30,SCET REGION PARIS,94320,Zone SENIA 44747,SCET REGION PARIS,Agence K
213,48.7734,2.4929,01 45 13 13 13,agence0213@kiloutou.fr,Lundi,06:30 - 18:30,Mardi,06:30 - 18:30,Mercredi,06:30 - 18:30,Jeudi,06:30 - 18:30,Vendredi,06:30 - 18:30,Samedi,06:30 - 18:30,Dimanche,06:30 - 18:30,BONNEUIL-SUR-MARNE - La Plateforme,94380,Route du Fief Cordelier La Plateforme du Bâtiment,BONNEUIL SUR MARNE,Généraliste type 4
660,48.7925,2.5556,01 45 93 24 95,agence0660@kiloutou.fr,Lundi,07:00-12:00 & 13:30-18:00,Mardi,07:00-12:00 & 13:30-18:00,Mercredi,07:00-12:00 & 13:30-18:00,Jeudi,07:00-12:00 & 13:30-18:00,Vendredi,07:00-12:00 & 13:30-18:00,Samedi,07:00-12:00 & 13:30-18:00,Dimanche,07:00-12:00 & 13:30-18:00,CHENNEVIÈRES - ORMESSON,94430,avenue de l'Hippodrome Lieu-dit 'Pincevent',CHENNEVIERES SUR MARNE,Agence Généraliste
662,48.8188,2.5235,01 41 77 81 81,agence0662@kiloutou.fr,Lundi,06:30 - 18:30,Mardi,06:30 - 18:30,Mercredi,06:30 - 18:30,Jeudi,06:30 - 18:30,Vendredi,06:30 - 18:30,Samedi,06:30 - 18:30,Dimanche,06:30 - 18:30,CHAMPIGNY-SUR-MARNE - La Plateforme,94500,89 rue Alexandre Fourny,CHAMPIGNY SUR MARNE,Généraliste type 4
7250,49.0431,2.1326,01 30 27 27 25,kiloutou-7250@kiloutou.fr,Lundi,07:00-12:00 & 13:30-18:30,Mardi,07:00-12:00 & 13:30-18:30,Mercredi,07:00-12:00 & 13:30-18:30,Jeudi,07:00-12:00 & 13:30-18:30,Vendredi,07:00-12:00 & 13:30-18:30,Samedi,07:00-12:00 & 13:30-18:30,Dimanche,07:00-12:00 & 13:30-18:30,SCET REGION IDF NORD,95310,16 rue de l'Equerre site Alba,ST OUEN L AUMONE,SCET (mode région)